Name ,Address,City,State,Zip Code,Phone Number,Website,Google Business Page,Facebook,Yelp
Apopka Pregnancy Care Center,111 E 6th St ,Apopka,Florida (FL),32703,,http://www.apopkapregnancy.org,https://goo.gl/maps/b3QM1zN2GsQ2,https://www.facebook.com/LoveAPCC/,https://www.yelp.com/biz/apopka-pregnancy-center-apopka
Breath of Life Pregnancy Care Center,51 N Fifteenth Ave,Arcadia,Florida (FL),34266,,,https://goo.gl/maps/KkrzkAsNxA62,https://www.facebook.com/pages/Breath-of-Life-Pregnancy-Care-Center/447031312149276,https://www.yelp.com/biz/breath-of-life-pregnancy-care-center-arcadia
Choices Family Resource Center,12 S. Lake Street,Avon Park,Florida (FL),33825,,https://choicesfrc.com/,https://goo.gl/maps/rRH3XnjZy852,https://www.facebook.com/ChoicesFRC/,
Options for Women Pregnancy Help Clinic - Bartow,495 E. Summerlin St,Bartow,Florida (FL),33830,,"www.optionsforwomeninfo.com, www.optionsforwomenphc.com",https://goo.gl/maps/4YaXBZnBcS32,https://www.facebook.com/optionsforwomenphc/,
Palm Beach Women's Clinic (formerly First Care) - Boca Raton,"200 Glades Road, Suite 3",Boca Raton,Florida (FL),33432,,https://palmbeachwc.org/,"https://www.google.com/search?client=firefox-b-1-d&q=palm%20beach%20women%27s%20clinic&tbs=lf:1,lf_ui:4&tbm=lcl&rflfq=1&num=10&rldimm=4093070364998063752&lqi=ChlwYWxtIGJlYWNoIHdvbWVuJ3MgY2xpbmljIgOIAQFIm9G7gpirgIAIWjcKDndvbWVuJ3MgY2xpbmljEAIQAxgAGAEYAhgDIhlwYWxtIGJlYWNoIHdvbWVuJ3MgY2xpbmljkgEcb2JzdGV0cmljc19neW5lY29sb2d5X2NsaW5pY6oBFhABKhIiDndvbWVuJ3MgY2xpbmljKAA&ved=2ahUKEwj1_7ivhczvAhXjg-AKHThlCuEQvS4wAnoECA0QOg&rlst=f#rlfi=hd:;si:4093070364998063752,l,ChlwYWxtIGJlYWNoIHdvbWVuJ3MgY2xpbmljIgOIAQFIm9G7gpirgIAIWjcKDndvbWVuJ3MgY2xpbmljEAIQAxgAGAEYAhgDIhlwYWxtIGJlYWNoIHdvbWVuJ3MgY2xpbmljkgEcb2JzdGV0cmljc19neW5lY29sb2d5X2NsaW5pY6oBFhABKhIiDndvbWVuJ3MgY2xpbmljKAA;mv:[[26.831031099999997,-80.0724668],[26.334415999999997,-80.1762006]];tbs:lrf:!1m4!1u3!2m2!3m1!1e1!2m1!1e3,lf:1,lf_ui:4",https://www.facebook.com/PalmBeachWomensClinic,
Birthline Lifeline Pregnancy Care Center,212 E Boynton Beach Blvd,Boynton Beach,Florida (FL),33435,,https://optionsforpregnancy.com/free-clinic/birthlinelifeline-pregnancy-care-center-boynton-beach/,"https://www.google.com/maps/place/Birthline+Lifeline/@26.5286006,-80.0616561,15z/data=!4m5!3m4!1s0x0:0x531c3c48abfb8a10!8m2!3d26.5286006!4d-80.0616561",https://www.facebook.com/catholiccharitiespb/?ref=br_tf,
Care Net Manasota Pregnancy Center,5111 26th St W,Bradenton,Florida (FL),34207,,www.carenetmanasota.com,https://goo.gl/maps/WEhXkVfu6vD2,https://www.facebook.com/CNMPC/,https://www.yelp.com/biz/care-net-manasota-pregnancy-center-bradenton
Choices Clinics (Life Care Network),619 Eichenfeld Dr,Brandon,Florida (FL),33511,,https://choicesclinics.org/,https://goo.gl/maps/ph1foVPDwx42,https://www.facebook.com/catholiccharitiespb/?ref=br_tf,https://www.yelp.com/biz/choices-womens-center-brandon
Alpha Women's Center,4751 E Moody Blvd Unit 5,Bunnell,Florida (FL),32110,,http://alphawomencenter.org/,"https://www.google.com/maps/place/Alpha+Women's+Center/@29.4747992,-81.2236012,15z/data=!4m5!3m4!1s0x0:0xf0ac34d6c9c37638!8m2!3d29.4747992!4d-81.2236012",https://www.facebook.com/alphawomencenter/,https://www.yelp.com/biz/alpha-pregnancy-center-bunnell
Hope Pregnancy Care Center,115 W Anderson Ave,Bushnell,Florida (FL),33513,,https://www.facebook.com/HopePregnancyBushnell/,https://goo.gl/maps/rtey1iXpbLQ2,https://www.facebook.com/Hope-Pregnancy-Care-Center-153968411306491/,
Harmony Pregnancy & Resource Center,721 NE 4th St,Chiefland,Florida (FL),32626,,http://harmonyprc.org/,https://goo.gl/maps/rJAXuCScjq12,https://www.facebook.com/harmonyprc.org/,https://www.yelp.com/biz/harmony-pregnancy-and-resource-center-chiefland
Bay Area Pregnancy Center  - Clearwater,2380 Drew St. #6,Clearwater,Florida (FL),33765,,www.mybapc.com,https://goo.gl/maps/9SXYxkEF9uj,https://www.facebook.com/mybapc/,https://www.yelp.com/biz/bay-area-pregnancy-center-clearwater-2
Bay Area Pregnancy Center - Clearwater Highpoint Center,5812 150th Avenue North,Clearwater,Florida (FL),33760,,www.mybapc.com,"https://www.google.com/search?q=bay%20area%20pregnancy%20center%20clearwater%20highpoint%20center&client=firefox-b-1-d&ei=mMZcYJfsB6exggf8wpLwDg&oq=bay+area+pregnancy+center+clearwater+highpoint+center&gs_lcp=Cgdnd3Mtd2l6EAMyBQghEKABMgUIIRCrAjIFCCEQqwIyBQghEKsCOgcIABBHELADOgsILhDHARCvARCTAjoHCCEQChCgAVC4vgdY8uMHYIXlB2gFcAJ4AIAB6wGIAaUfkgEGMi4yOS4xmAEAoAEBqgEHZ3dzLXdpesgBAsABAQ&sclient=gws-wiz&ved=2ahUKEwierYbo-svvAhXDmeAKHfLkDzcQvS4wAXoECAUQLg&uact=5&tbs=lf:1,lf_ui:4&tbm=lcl&rflfq=1&num=10&rldimm=15657751187895504077&lqi=CjViYXkgYXJlYSBwcmVnbmFuY3kgY2VudGVyIGNsZWFyd2F0ZXIgaGlnaHBvaW50IGNlbnRlciIDiAEBSMaGx-ScqoCACFqJAQoqYmF5IGFyZWEgcHJlZ25hbmN5IGNlbnRlciBoaWdocG9pbnQgY2VudGVyEAAQARACEAMQBRAGGAAYARgCGAMYBBgFGAYiNWJheSBhcmVhIHByZWduYW5jeSBjZW50ZXIgY2xlYXJ3YXRlciBoaWdocG9pbnQgY2VudGVyKgoIAhAAEAEQAhAFkgEObWVkaWNhbF9jbGluaWOqAT0QASo5IjViYXkgYXJlYSBwcmVnbmFuY3kgY2VudGVyIGNsZWFyd2F0ZXIgaGlnaHBvaW50IGNlbnRlcigA&rlst=f#rlfi=hd:;si:15657751187895504077,l,CjViYXkgYXJlYSBwcmVnbmFuY3kgY2VudGVyIGNsZWFyd2F0ZXIgaGlnaHBvaW50IGNlbnRlciIDiAEBSMaGx-ScqoCACFqJAQoqYmF5IGFyZWEgcHJlZ25hbmN5IGNlbnRlciBoaWdocG9pbnQgY2VudGVyEAAQARACEAMQBRAGGAAYARgCGAMYBBgFGAYiNWJheSBhcmVhIHByZWduYW5jeSBjZW50ZXIgY2xlYXJ3YXRlciBoaWdocG9pbnQgY2VudGVyKgoIAhAAEAEQAhAFkgEObWVkaWNhbF9jbGluaWOqAT0QASo5IjViYXkgYXJlYSBwcmVnbmFuY3kgY2VudGVyIGNsZWFyd2F0ZXIgaGlnaHBvaW50IGNlbnRlcigA;mv:[[27.9717803,-82.71171509999999],[27.9048367,-82.7404129]];tbs:lrf:!1m4!1u3!2m2!3m1!1e1!2m1!1e3,lf:1,lf_ui:4",https://www.facebook.com/mybapc/,
South Lake Pregnancy Care Center,221 N Frontage Rd Suite C,Clermont,Florida (FL),34711,,https://www.slpfcc.org/,https://goo.gl/maps/htAnzjQhcdn,https://www.facebook.com/SouthLakePregnancyCenter/,
Tree of Life Miami,133 Ponce de Leon Blvd.,Coral Gables,Florida (FL),33135,,https://www.treeoflifemiami.org/about,,https://www.facebook.com/LoveAndCarePregnancyResources/,
Wakulla Pregnancy Center,886 Woodville Highway,Crawfordville,Florida (FL),32327,,http://www.wakullapregnancycenter.org/,https://goo.gl/maps/pgoAygGfSDq,https://www.facebook.com/Wakulla-Pregnancy-Center-162340513815546/,https://www.yelp.com/biz/wakulla-pregnancy-center-crawfordville
Crestview Pregnancy Center,898 N Pearl St,Crestview,Florida (FL),32536,,https://www.crestviewpregnancycenter.org/,https://goo.gl/maps/ht5UsJ4GWZw,https://www.facebook.com/crestviewpregnancycenter/,
New Life Pregnancy & Resource Ctr,64 SE 9th Ave,Cross City,Florida (FL),32628,,http://newlifecrosscity.com/,https://goo.gl/maps/zmk4RokEkLA2,,
Citrus Pregnancy Center,726 NE Hwy 19,Crystal River,Florida (FL),34429,,www.citruspregnancy.org,https://goo.gl/maps/SRBxuxcuuLn,https://www.facebook.com/pg/CitrusPregnancyCenter,
Cornerstone Center for Women,37522 Meridian Ave,Dade City,Florida (FL),33525,,,https://goo.gl/maps/owTuUTAbiaD2,https://www.facebook.com/Cornerstone-Center-for-Women-119760205800/,https://www.yelp.com/biz/cornerstone-center-for-women-dade-city?osq=Cornerstone+Center+for+Women
Foundations of Life Pregnancy Center,37733 Meridian Ave,Dade City,Florida (FL),33525,,https://foundationsoflife.org/contact-us/dade-city-pregnancy-center/,https://goo.gl/maps/mKvrP7rvwYk,https://www.facebook.com/FOLPregnancyCtr/,
Mary's Pregnancy Resource Center,7705 Davie Road Extension,Davie,Florida (FL),33024,,https://www.maryspregnancyresourcecenter.org/,,,
Pregnancy Crisis Center,416 N Ridgewood Ave,Daytona Beach,Florida (FL),32114,,https://www.pccdaytona.org/,https://goo.gl/maps/ADKWT6VVRQG2,https://www.facebook.com/PCCDaytona/,https://www.yelp.com/biz/pregnancy-crisis-center-daytona-beach
Resources for Women - Daytona Beach,641 S Ridgewood Ave,Daytona Beach,Florida (FL),32114,,http://freepregtestdaytona.com/,https://goo.gl/maps/MhixFuYU4tE2,https://www.facebook.com/ResourcesForWomenDaytona/,https://www.yelp.com/biz/resources-for-women-daytona-beach
Pregnancy Support Center,295 Hwy. 90 West,DeFuniak Springs,Florida (FL),32433,,https://eridan.websrvcs.com/templates/System/details.asp?id=45328&PID=647341,https://goo.gl/maps/MEaJZ2xwP6y,https://www.facebook.com/Pregnancy-Support-Center-159463880741229/,https://www.yelp.com/biz/pregnancy-support-center-defuniak-springs
Grace House Pregnancy Center - DeLand,336 N Woodland Boulevard,DeLand,Florida (FL),32720,,www.gracehouseprc.org,https://goo.gl/maps/R2YNX2R73ct,https://www.facebook.com/GHPRC/,https://www.yelp.com/biz/grace-house-pregnancy-resource-center-deland?osq=Grace+House+Pregnancy+Center
Central Florida Pregnancy Center,"3151 Howland Blvd, Suite 1",Deltona,Florida (FL),32725,,https://optionsforu.org/,https://goo.gl/maps/wF3hQPwHz7n,https://www.facebook.com/OptionsForU.org,https://www.yelp.com/biz/central-florida-pregnancy-center-deltona
Family Hope Pregnancy Center,20892 Second Ave,Dunnellon,Florida (FL),34431,,https://www.familyhoperesource.org/,https://goo.gl/maps/UfiV1e1QMLR2,https://www.facebook.com/Family-Hope-Resource-Pregnancy-Center-384850214900067/,
Life Choices Women's Clinic,27 E. Pinehurst Blvd,Eustis,Florida (FL),32726,,https://www.lifeschoices.net/,"https://www.google.com/maps/place/Life's+Choices+Women's+Clinic/@28.8353782,-81.6846629,15z/data=!4m5!3m4!1s0x0:0x2877c17597a2d3f8!8m2!3d28.8353782!4d-81.6846629",,
Community Pregnancy Clinic - The Terraces,8660 College Parkway Suite 200,Fort Myers,Florida (FL),33919,,www.community4life.com and https://communitypregnancyclinic.com/fort-myers-clinic/,https://goo.gl/maps/kih1f4qAYQT2,,https://www.yelp.com/biz/community-pregnancy-clinics-fort-myers
Verity Pregnancy & Medical Resource Center,"8890 Salrose Lane, Ste 104",Fort Myers,Florida (FL),33912,,https://pregnancyfortmyers.com/ and  https://veritypmc.com/,https://goo.gl/maps/uphvYESSS6w,https://www.facebook.com/VerityFL/,
"Pregnancy Care Center, Inc.",1119 Delaware Ave,Fort Pierce,Florida (FL),34982,(772) 837-7100,https://pregnancycarecenters.org,https://goo.gl/maps/jiqJbhPzHzk,,https://www.yelp.com/biz/pregnancy-care-center-of-fort-pierce-fort-pierce
Fort Walton Beach Center for Women,117 Robinwood Dr SW,Fort Walton Beach,Florida (FL),32548,,www.fwbcenterforwomen.org,https://goo.gl/maps/GmEvCAyQP9E2,https://www.facebook.com/fwbcenterforwomen/,https://www.yelp.com/biz/fort-walton-beach-center-for-women-fort-walton-beach
Hope Women's Centers,"1400 E. Oakland Park Boulevard, Suite #201",Ft Lauderdale,Florida (FL),33334,,www.hopewomenscenters.org,https://goo.gl/maps/aPjiWEQPuV32,https://www.facebook.com/HopeWomensCenters,https://www.yelp.com/biz/hope-womens-centers-fort-lauderdale
Mary’s Pregnancy Resource Center,1120 SE 3rd Ave,Ft Lauderdale,Florida (FL),33316,,https://www.maryspregnancyresourcecenter.org/,"https://www.google.com/maps/place/Mary's+Pregnancy+Resource+Center/@26.1070465,-80.1403773,15z/data=!4m2!3m1!1s0x0:0x95db163f554534ab?sa=X&ved=2ahUKEwifmICtzuzkAhWqxFkKHXqcAWEQ_BIwCnoECA8QCA",https://www.facebook.com/MarysPregnancyResourceCenter/,
Pregnancy Help Center - Central Broward (Respect Life),"525 NE 13 Street, Unit 527",Ft. Lauderdale,Florida (FL),33304,,http://pregnancy911.org/ and https://respectlifemiami.org/,"https://www.google.com/maps/place/Pregnancy+Help+Center+-+Central+Broward+%2F+Respect+Life/@26.1424468,-80.138523,15z/data=!4m5!3m4!1s0x0:0x3a6b8a582a9d493c!8m2!3d26.1424468!4d-80.138523",,
A Woman's Answer Medical Center,"3601 SW 2nd Ave, Suite K",Gainesville,Florida (FL),32601,,www.awomansanswer.net,https://goo.gl/maps/gpDngfvJfTR2,https://www.facebook.com/AWomansAnswerMedicalCenter/,https://www.yelp.com/biz/a-womans-answer-medical-center-gainesville
Community Pregnancy Clinics - Gainesville,"1800 W University Ave, Suite 310",Gainesville,Florida (FL),32603,,https://communitypregnancyclinic.com/gainesville-clinic/ and https://community4life.com/,"https://www.google.com/maps/place/1800+W+University+Ave+Suite+310,+Gainesville,+FL+32603/@29.652256,-82.346582,15z/data=!4m5!3m4!1s0x88e8a378f4a8c01b:0xbb0863b74d29111b!8m2!3d29.6522559!4d-82.3465822?hl=en",,
Sira,912 NW 13th St,Gainesville,Florida (FL),32601,,www.siragainesville.com,https://goo.gl/maps/BEFXyxfWYES2,https://www.facebook.com/siragainesville/,
The Pregnancy Center of Gadsden County,106 NE 1st ST,Havana,Florida (FL),32333,,https://www.pregnancycentergadsdencounty.org,https://goo.gl/maps/PxySnmKLMgQ2,https://www.facebook.com/pregnancycenterofgadsdencounty/,
Hialeah Pregnancy Help Medical Clinic (Heartbeat of Miami),390 West 49th Street,Hialeah,Florida (FL),33012,,http://www.pregnancyhelpclinics.org/en and https://heartbeatofmiami.org/,https://goo.gl/maps/WeMzaZrndzR2,https://www.facebook.com/Heartbeatofmiami/,https://www.yelp.com/biz/pregnancy-help-medical-clinic-hialeah-2
Crossroads Pregnancy Center,19930 N US Highway 441 Suite A,High Springs,Florida (FL),32643,,www.cpchighsprings.org,https://goo.gl/maps/mF3qYYQPkx82,https://www.facebook.com/cpchighsprings/,https://www.yelp.com/biz/crossroads-pregnancy-center-high-springs
Hope Women's Center ,3990 Sheridan St #101,Hollywood,Florida (FL),33021,,,"https://www.google.com/search?client=firefox-b-1-d&tbs=lf:1,lf_ui:4&tbm=lcl&q=hope+women%27s+center+sunrise+fl&rflfq=1&num=10&sa=X&ved=2ahUKEwjawvjPi8zvAhWQVN8KHWh-Be8QjGp6BAgMEEc&biw=1608&bih=863#rlfi=hd:;si:2884240464164567315,l,Ch5ob3BlIHdvbWVuJ3MgY2VudGVyIHN1bnJpc2UgZmwiA4gBAUiuuZCu1JWAgAhaQwoTaG9wZSB3b21lbidzIGNlbnRlchAAEAEQAhgAGAEYAhgEIh5ob3BlIHdvbWVuJ3MgY2VudGVyIHN1bnJpc2UgZmySARxvYnN0ZXRyaWNzX2d5bmVjb2xvZ3lfY2xpbmljqgEbEAEqFyITaG9wZSB3b21lbidzIGNlbnRlcigA;mv:[[26.230232599999997,-80.1192944],[25.9964493,-80.2881749]]",,
Pregnancy Help Center - South Broward (Respect Life),"4747 Hollywood Blvd., Suite 101",Hollywood,Florida (FL),33021,,http://pregnancy911.org/ and https://respectlifemiami.org/,https://goo.gl/maps/aoWZ1CM4LQz,https://www.facebook.com/RespectLifeMinistryMiami/,https://www.yelp.com/biz/respect-life-archdiocese-of-miami-hollywood
"Immokalee Pregnancy Center, Inc.",1011 W Main St Ste 1,Immokalee,Florida (FL),34142,,www.immokaleepregnancy.com,"https://www.google.com/maps/place/Immokalee+Pregnancy+Center,+Inc./@26.41811,-81.4302557,17z/data=!3m1!4b1!4m5!3m4!1s0x88dba423204866b7:0x14e13032f3f382bd!8m2!3d26.41811!4d-81.428067",https://www.facebook.com/Immokalee-Pregnancy-Center-Inc-151701968205743/,https://www.yelp.com/biz/immokalee-pregnancy-center-immokalee
Citrus Pregnancy Center,3185 E THOMAS ST,Inverness,Florida (FL),34452,,www.citruspregnancy.org,https://goo.gl/maps/YSSUUjtK3HJ2,https://www.facebook.com/pg/CitrusPregnancyCenter,http://www.yelp.com/biz/citrus-pregnancy-center-inverness-2
Pregnancy & Family Life Center of Citrus County,317 W Tompkins St,Inverness,Florida (FL),34450,,https://pflcenter.org/health.php,https://goo.gl/maps/Bqc93oik6w82,https://www.facebook.com/pflcenter/,https://www.yelp.com/biz/pregnancy-and-family-life-center-inverness-2?fsid=vUJbEUkyKXj-0I99Pjr05g
Baby Luv Pregnancy Center,5540 Ortega Farms Blvd,Jacksonville,Florida (FL),32244,,http://chojax.org/events/baby-luv-pregnancy-center/,https://goo.gl/maps/rg7i4wJQSWN2,https://www.facebook.com/Baby-Luv-Pregnancy-Center-212456949343953/,https://www.yelp.com/biz/baby-luv-pregnancy-jacksonville
Emergency Pregnancy Services - Arlington,6903 Merrill Rd,Jacksonville,Florida (FL),32277,,https://www.emergencypregnancyservices.org/,"https://www.google.com/maps/place/Emergency+Pregnancy+Services-Arlington/@30.352211,-81.583304,15z/data=!4m5!3m4!1s0x0:0x7449343b9c49c8fb!8m2!3d30.352211!4d-81.583304",https://www.facebook.com/Emergency-Pregnancy-Services-143586872344260/,https://www.yelp.com/biz/emergency-pregnancy-services-of-arlington-jacksonville
Emergency Pregnancy Services - Riverside,1637 King St,Jacksonville,Florida (FL),32204,,https://www.emergencypregnancyservices.org/,https://goo.gl/maps/emqhgWmZctR2,https://www.facebook.com/Emergency-Pregnancy-Services-143586872344260/,https://www.yelp.com/biz/emergency-pregnancy-service-jacksonville
First Coast Women's Services - Mandarin,11215 San Jose Blvd,Jacksonville,Florida (FL),32223,,www.fcws.org,"https://www.google.com/maps/place/First+Coast+Women's+Services/@30.1711281,-81.6287696,15z/data=!4m5!3m4!1s0x0:0xbc45627aa1c27c84!8m2!3d30.1711281!4d-81.6287696",https://www.facebook.com/fcwsprc/,https://www.yelp.com/biz/first-coast-womens-services-jacksonville
"Lifeline Resources, Inc.",3733 Southside Blvd #8,Jacksonville,Florida (FL),32216,,https://www.scaredandpregnant.org/,https://goo.gl/maps/Q13DKjGFZg72,https://www.facebook.com/LifelineResourcesInc/,
The Nest Women's Center,8264 Old Plank Road,Jacksonville,Florida (FL),32220,,http://www.thenestwomenscenter.org/,https://goo.gl/maps/HwKm8Ry5JZq,https://www.facebook.com/thenestjax/,
Women's Help Center - Jacksonville,4209 University Blvd S,Jacksonville,Florida (FL),32216,,https://pregnancyjacksonville.com/ (parent site: www.whcjax.org),https://goo.gl/maps/DNvzM4Cpozm,https://www.facebook.com/whcjax,https://www.yelp.com/biz/womens-help-center-jacksonville-2
Women's Help Center - Jacksonville Westside,4116 Blanding Blvd,Jacksonville,Florida (FL),32210,,https://pregnancyjacksonville.com/ (parent site: www.whcjax.org),"https://www.google.com/maps/place/Women's+Help+Center/@30.265131,-81.738856,15z/data=!4m5!3m4!1s0x0:0x3f4887c48c256bb4!8m2!3d30.265131!4d-81.738856",,
First Coast Women's Services - Northside,404 Owens Road,Jacksonville ,Florida (FL),32218,,www.fcws.org,"https://www.google.com/maps/place/First+Coast+Women's+Services/@30.4906387,-81.6345503,15z/data=!4m5!3m4!1s0x0:0x60f6928936b566d8!8m2!3d30.4906387!4d-81.6345503",https://www.facebook.com/fcwsprc/,
Women's Help Center - Samuel Wells,3599 University Blvd. S. #1201,Jacksonville ,Florida (FL),32216,,https://pregnancyjacksonville.com/ (parent site: www.whcjax.org),,,
Jasper Pregnancy Care Center,507 Hatley St W,Jasper,Florida (FL),32052,,"www.northfloridapregnancy.com, www.friendsofpcc.com",https://goo.gl/maps/EuNfKduQbaR2,https://www.facebook.com/PregnancyCareCenterNorthFlorida/,
Pregnancy Center of Jasper,1114 Hatley St W.,Jasper,Florida (FL),32052,,,"https://www.google.com/maps/place/Pregnancy+Care+Center/@30.518523,-82.957731,15z/data=!4m2!3m1!1s0x0:0x157fdb3b227fd131?sa=X&ved=2ahUKEwir9IL6mszvAhWsnOAKHZKXBo8Q_BIwCnoECBYQBQ",https://www.facebook.com/PregnacyCareCenterNorthFlorida,
Answers Resource Facility Inc,115 Commercial Circle,Keystone Heights,Florida (FL),32656,,www.findanswersnow.org,https://goo.gl/maps/oSk5bwPKkMB2,https://www.facebook.com/pg/findanswersnow,
Beyond Pregnancy Care Center,1541 Mill Slough Road,Kissimmee,Florida (FL),34744,,https://www.beyondpregnancycare.com/,"https://www.google.com/maps/place/Beyond+Pregnancy+Care/@28.3154258,-81.3814086,15z/data=!4m2!3m1!1s0x0:0x45162a71c9ca169a?sa=X&ved=2ahUKEwiV_Mm5_MvvAhVNTt8KHYiXCPgQ_BIwC3oECB4QBQ",https://www.facebook.com/BeyondPregnancyCC/,
JMJ Pregnancy Center,800 North Rose Avenue (new location),Kissimmee,Florida (FL),34741,,www.jmjpc.org,https://goo.gl/maps/LqYYGPdhHWo,https://www.facebook.com/JMJPregnancyCenter/,https://www.yelp.com/biz/jmj-pregnancy-center-orlando
Osceola Pregnancy Center,1340 W Columbia Ave,Kissimmee,Florida (FL),34741,,www.opchelp.org,https://goo.gl/maps/7zNkKQkgtQA2,https://www.facebook.com/OsceolaPregnancyCenter/,
Pregnancy Care Center,130 NW Hilton Avenue,Lake City,Florida (FL),32055,,"www.northfloridapregnancy.com, www.friendsofpcc.com",https://goo.gl/maps/a2N7xLPqGNv,https://www.facebook.com/PregnancyCareCenterNorthFlorida/,https://www.yelp.com/biz/pregnancy-care-center-of-lake-city-lake-city
Solutions Mobile Unit at BRIDGES - Lake Park,1411 10th Street,Lake Park,Florida (FL),33403,,https://solutionsmobileunit.org/,,https://www.facebook.com/solutionsmobileunit/?pageid=1774002079485209&ftentidentifier=2583876938497715&padding=0,
Choices Family Resource Center,225 East Royal Palm St,Lake Placid,Florida (FL),33852,,https://choicesfrc.com/,https://goo.gl/maps/NL95w5fMrxE2,https://www.facebook.com/ChoicesFRC/,
Choices Pregnancy Care Program,210 Dr J A Wiltshire Ave E,Lake Wales,Florida (FL),33853,,www.choiceslakewales.com,https://goo.gl/maps/ZrpJZ6uhErt,,
Palm Beach Women's Clinic (formerly First Care) - Lake Worth ,3965 South Jog Road,Lake Worth,Florida (FL),33467,,https://palmbeachwc.org/ and https://firstcareforlife.com/,https://goo.gl/maps/BvPXXYyzTmN2,https://www.facebook.com/FirstCareWomensClinic/,https://www.yelp.com/biz/first-care-womens-clinic-lake-worth
Solutions Mobile Unit at BRIDGES - Lake Worth West,4730 Maine Street,Lake Worth,Florida (FL),33461,,https://solutionsmobileunit.org/,,https://www.facebook.com/solutionsmobileunit/?pageid=1774002079485209&ftentidentifier=2583876938497715&padding=0,
A Woman's Choice,1234 E Lime St,Lakeland,Florida (FL),33801,,www.yourchoicelakeland.com,https://goo.gl/maps/8qM7cCwNUAq,https://www.facebook.com/pg/awomanschoicelakeland,https://www.yelp.com/biz/a-womans-choice-a-medical-program-for-women-lakeland?
Options for Women Pregnancy Help Clinic,4435 Florida National Drive,Lakeland,Florida (FL),33813,,"www.optionsforwomeninfo.com, www.optionsforwomenphc.com",https://goo.gl/maps/e4ZfdfzgNsB2,https://www.facebook.com/optionsforwomenphc/,https://www.yelp.com/biz/options-for-women-pregnancy-help-clinic-lakeland
Oasis Pregnancy Care Center,3632 Land O'Lakes Blvd #108,Land O'Lakes,Florida (FL),34639,,https://oasispregnancycenter.org/,https://goo.gl/maps/xj4iyucmnbx,https://www.facebook.com/pg/Oasis.Pregnancy.Care.Centers,https://www.yelp.com/biz/oasis-pregnancy-care-centers-land-o-lakes
Pregnancy Care Center,"1309 High Street, Building 104",Leesburg,Florida (FL),34748,,https://www.3choicespregnancy.com/ and https:// www.christiancarecenter.org/pregnancyandfamilycarecenter,https://goo.gl/maps/HVpHT6LMiwj,https://www.facebook.com/CCCLeesburg/,https://www.yelp.com/biz/christian-care-medical-center-leesburg
Guiding Star Tampa (AKA Life Choices),18560 North Dale Mabry Highway,Lutz,Florida (FL),33548,,www.guidingstartampa.org,https://goo.gl/maps/UuHtgDW1MA32,https://www.facebook.com/guidingstartampa/,https://www.yelp.com/biz/guiding-star-tampa-lutz-2
First Coast Women's Services - Baker County,368 S 5th St,MacClenny,Florida (FL),32063,,www.fcws.org,https://goo.gl/maps/h389qjX4Myy,https://www.facebook.com/fcwsprc/,
A Women's Pregnancy Center,345 NW Marion St,Madison,Florida (FL),32340,,https://womensprc.org/,https://goo.gl/maps/kMKmE1sBqso,https://www.facebook.com/pages/A-Womens-Pregnancy-Center/159156037448317,
Respect Life North Broward,5115 Coconut Creek Pkwy,Margate,Florida (FL),33063,,https://pregnancyhelpsfl.org/,https://goo.gl/maps/zXeFDy8hDcU2,https://www.facebook.com/Respect-Life-408007289239364/,https://www.yelp.com/biz/respect-life-archdiocese-of-miami-margate
A Women's Pregnancy Center of Marianna,4469A Clinton St,Marianna,Florida (FL),32446,,http://www.awpcmarianna.com/,https://goo.gl/maps/ZbtSP8Wq1n42,https://www.facebook.com/A-Womens-Pregnancy-Center-Marianna-117698544951270/,https://www.yelp.com/biz/a-womens-pregnancy-center-marianna
Tri-County Pregnancy Center,20098 N. Hwy 441,Micanopy,Florida (FL),32667,,https://www.tcpcfl.com/,https://goo.gl/maps/ietPG37jB7N2,https://www.facebook.com/Tri-County-Pregnancy-Center-181217855233746/,
Birthright,814 Melbourne Ave,Melbourne,Florida (FL),32901,,http://birthright.org/melbourne,https://goo.gl/maps/7ZMtUurzW5B2,https://www.facebook.com/BirthrightInternational/,https://www.yelp.com/biz/birthright-of-melbourne-melbourne
Agape Pregnancy Center,300 Magnolia Ave. Suite C,Merritt Island,Florida (FL),32952,,https://www.apcbrevard.com/,https://goo.gl/maps/8hWvr2TLjXNKmumx5,https://www.facebook.com/apc.helps,https://www.yelp.com/biz/alternative-pregnancy-center-merritt-island
Flagler Pregnancy Help Medical Clinic (Heartbeat of Miami),4391 W Flagler St,Miami,Florida (FL),33134,,http://www.pregnancyhelpclinics.org/en and https://heartbeatofmiami.org/,https://goo.gl/maps/TXB4JzZLehQ2,https://www.facebook.com/Heartbeatofmiami/,https://www.yelp.com/biz/flagler-pregnancy-help-medical-clinics-coral-gables
Grace Women's Care Center,10112 SW 107th Ave,Miami,Florida (FL),33176,,http://www.gracewomenscarecenter.org/,"https://www.google.com/maps/place/Grace+Women's+Care+Center/@25.6723917,-80.3677752,15z/data=!4m2!3m1!1s0x0:0xfca8b999b2485f03?sa=X&ved=2ahUKEwjVz7Tuh8zvAhX-FFkFHRq-D4AQ_BIwCnoECCAQBQ",https://www.facebook.com/gracepregnancycenter/,
Kendall Pregnancy Help Medical Clinic (Heartbeat of Miami),10100 SW 107 Court,Miami,Florida (FL),33176,,http://www.pregnancyhelpclinics.org/en and https://heartbeatofmiami.org/,https://goo.gl/maps/X3tdwqba6Qs,https://www.facebook.com/Heartbeatofmiami/,
Pregnancy Help Center - South Dade (Respect Life),3410 SW 107 Avenue,Miami,Florida (FL),33165,,http://pregnancy911.org/ and https://respectlifemiami.org/,https://goo.gl/maps/BvSNbaC9DMD2,https://www.facebook.com/respectlifemiami,https://www.yelp.com/biz/respect-life-sunset-miami
Pregnancy Help Center - North Dade (Respect Life),"1515 NW 167 St., Bldg. 4, Suite 190",Miami Gardens,Florida (FL),33169,,http://pregnancy911.org/ and https://respectlifemiami.org/,"https://www.google.com/maps/place/Respect+Life+North+Dade/@25.9427808,-80.2211646,15z/data=!4m5!3m4!1s0x0:0x727d2586f82d50cd!8m2!3d25.9427808!4d-80.2211646",https://www.facebook.com/respectlifemiami,
Life Options Clinc (formerly Pregnancy Resource Center of Milton),5775 Berryhill Road,Milton,Florida (FL),32570,,www.prcofmilton.org,"https://www.google.com/maps/place/Life+Options+Clinic/@30.6370342,-87.0777618,15z/data=!4m5!3m4!1s0x0:0xb9a0e7db6af7bfaf!8m2!3d30.6370342!4d-87.0777618",https://www.facebook.com/Pregnancy-Resource-Center-of-Milton-295858971727/,https://www.yelp.com/biz/pregnancy-resource-center-inc-of-milton-milton
Community Pregnancy Clinics - Downtown Naples,940 Fifth Ave N,Naples,Florida (FL),34102,,https://communitypregnancyclinic.com/downtown-naples-clinic/,https://goo.gl/maps/Br5o9VrSYfT2,,https://www.yelp.com/biz/community-pregnancy-clinics-naples-2
Community Pregnancy Clinics - Midtown Naples,2977 Goodlette-Frank Rd N Suite 51,Naples,Florida (FL),34103,,www.community4life.com and https://communitypregnancyclinic.com/midtown-naples-clinic/,"https://www.google.com/search?client=firefox-b-1-d&q=community%20pregnancy%20clinic%20midtown%20naples%20fl&tbs=lf:1,lf_ui:2&tbm=lcl&rflfq=1&num=10&rldimm=5620661631332496539&lqi=Cixjb21tdW5pdHkgcHJlZ25hbmN5IGNsaW5pYyBtaWR0b3duIG5hcGxlcyBmbEiT4dPqnK2AgAhaWgoaY29tbXVuaXR5IHByZWduYW5jeSBjbGluaWMQABABEAIYABgBGAIYBBgFIixjb21tdW5pdHkgcHJlZ25hbmN5IGNsaW5pYyBtaWR0b3duIG5hcGxlcyBmbJIBHG9ic3RldHJpY3NfZ3luZWNvbG9neV9jbGluaWOqASIQASoeIhpjb21tdW5pdHkgcHJlZ25hbmN5IGNsaW5pYygA&ved=2ahUKEwixisv18svvAhXuct8KHa3pA_kQvS4wAXoECAkQRA&rlst=f#rlfi=hd:;si:5620661631332496539,l,Cixjb21tdW5pdHkgcHJlZ25hbmN5IGNsaW5pYyBtaWR0b3duIG5hcGxlcyBmbEiT4dPqnK2AgAhaWgoaY29tbXVuaXR5IHByZWduYW5jeSBjbGluaWMQABABEAIYABgBGAIYBBgFIixjb21tdW5pdHkgcHJlZ25hbmN5IGNsaW5pYyBtaWR0b3duIG5hcGxlcyBmbJIBHG9ic3RldHJpY3NfZ3luZWNvbG9neV9jbGluaWOqASIQASoeIhpjb21tdW5pdHkgcHJlZ25hbmN5IGNsaW5pYygA;mv:[[26.1836891,-81.7919993],[26.1509648,-81.7957974]];tbs:lrf:!1m4!1u3!2m2!3m1!1e1!1m4!1u2!2m2!2m1!1e1!2m1!1e2!2m1!1e3,lf:1,lf_ui:2",,
PRC of SW Florida - Naples Clinic & Education Center,15205 Collier Blvd. Ste 209,Naples,Florida (FL),34119,,www.prcnaples.org  / https://supportprc.org/,https://goo.gl/maps/PvX52741jnm,https://www.facebook.com/lineallove/,https://www.yelp.com/biz/prc-clinic-naples-naples-2
Pregnancy Resource Center of Navarre,7552 Navarre Parkway Suite 6,Navarre,Florida (FL),32566,,www.prcofnavarre.com,https://goo.gl/maps/ixgSmWEfzNP2,https://www.facebook.com/Pregnancy-Resource-Center-of-Navarre-298075853884529/,
Hope Women's Centers,943 SW 71 Ave. ,North Lauderdale,Florida (FL),33068,,www.hopewomenscenters.org,https://goo.gl/maps/LC5juEgqXwP2,https://www.facebook.com/HopeWomensCenters,https://www.yelp.com/biz/hope-womens-centers-north-lauderdale
North Miami Pregnancy Help Medical Clinic (Heartbeat of Miami),660 NE 125th St,North Miami,Florida (FL),33161,,http://www.pregnancyhelpclinics.org/en and https://heartbeatofmiami.org/,https://goo.gl/maps/7eokCgVUGir,https://www.facebook.com/Heartbeatofmiami/,
"Pregnancy Solutions, Inc. (Temporarily Closed)",14400 Tamiami Trail South,North Port,Florida (FL),34287,,www.pregnancysolutions.org,https://goo.gl/maps/8Yik73Amddx,https://www.facebook.com/PregnancySolutions/,https://www.yelp.com/biz/pregnancy-solutions-north-port
Alpha Center for Women,118 N Pine Ave,Ocala,Florida (FL),34475,,www.alphacenterocala.com,https://goo.gl/maps/Lz91iYjdW8U2,https://www.facebook.com/alphaocala/,https://www.yelp.com/biz/alpha-center-for-women-ocala
Women's Pregnancy Center of Ocala,1701 E Silver Springs Blvd,Ocala,Florida (FL),34470,,"www.wpcocala.org, http://choicesocala.com/",https://goo.gl/maps/AENtgMQYfat,https://www.facebook.com/wpcocala/,https://www.yelp.com/biz/womens-pregnancy-center-ocala
Pregnancy Center of Okeechobee,808 North East Park Street,Okeechobee,Florida (FL),34972,,www.okeepregcenter.com,https://goo.gl/maps/QHLJDyv8fGA2,https://www.facebook.com/pregnancycenterofokeechobee/,https://www.yelp.com/biz/pregnancy-center-of-okeechobee-okeechobee
Emergency Pregnancy Services - Orange Park,2300 Park Avenue Suite 204,Orange Park,Florida (FL),32703,,https://www.emergencypregnancyservices.org/,"https://www.google.com/maps/place/Emergency+Pregnancy+Services-Clay+County/@30.1612862,-81.701891,15z/data=!4m2!3m1!1s0x0:0x7a764cef138c036f?sa=X&ved=2ahUKEwiiwv6UkI_tAhVxEFkFHYjECF0Q_BIwCnoECBIQAw",https://www.facebook.com/EmergencyPregnancyServices,https://www.yelp.com/biz/emergency-pregnancy-service-jacksonville
First Coast Women's Services - Clay County,105 Old Jennings Road,Orange Park,Florida (FL),32065,,www.fcws.org,https://goo.gl/maps/4LS2qbRWVYD2,https://www.facebook.com/fcwsprc/,
JMJ Pregnancy Center,1401 West Colonial Drive,Orlandao,Florida (FL),32804,,https://www.jmjpc.org/index.html,,,
Choices Women's Clinic,1851 W. Colonial Drive,Orlando,Florida (FL),32804,,www.choiceswomensclinic.com,https://goo.gl/maps/HaDPQeVL1Y52,https://www.facebook.com/pg/choiceswomensclinic,https://www.yelp.com/biz/choices-womens-clinic-orlando
First Life Center for Pregnancy,"3125 Bruton Blvd, Ste B",Orlando,Florida (FL),32805,,https://www.pregnancyanswers.org/,https://goo.gl/maps/ZApMkC5FJB62,https://www.facebook.com/First-Life-Center-for-Pregnancy-127184987318569/,https://www.yelp.com/biz/first-life-center-for-pregnancy-orlando
ThriVe Orlando Express Women's Healthcare,2025 Culver Rd,Orlando,Florida (FL),32817,,www.thriveorlando.org,https://goo.gl/maps/FmUjUaU6NqQ2,https://www.facebook.com/ThriVe-Orlando-545092385858766/,https://www.yelp.com/biz/thrive-orlando-orlando
Resources for Women - Ormond Beach,160 E Granada Blvd,Ormond Beach,Florida (FL),32176,,http://freepregtestdaytona.com/,https://goo.gl/maps/81ZK3FtfDf52,https://www.facebook.com/ResourcesForWomenDaytona/,
A Women's Resource Center,3403 St Johns Ave,Palatka,Florida (FL),32177,,http://www.sjrba.org/390033,https://goo.gl/maps/5BxS4YusGS32,https://www.facebook.com/pg/awomensresourcecente,https://www.yelp.com/biz/a-womens-resource-center-palatka
Palm Beach Women's Clinic - Palm Beach Gardens (formerly First Care),"8645 N. Military Trail, Suite 512",Palm Beach Gardens,Florida (FL),33410,,https://palmbeachwc.org/ and https://firstcareforlife.com/,"https://www.google.com/search?client=firefox-b-1-d&q=palm%20beach%20women%27s%20clinic&tbs=lf:1,lf_ui:4&tbm=lcl&rflfq=1&num=10&rldimm=4093070364998063752&lqi=ChlwYWxtIGJlYWNoIHdvbWVuJ3MgY2xpbmljIgOIAQFIm9G7gpirgIAIWjcKDndvbWVuJ3MgY2xpbmljEAIQAxgAGAEYAhgDIhlwYWxtIGJlYWNoIHdvbWVuJ3MgY2xpbmljkgEcb2JzdGV0cmljc19neW5lY29sb2d5X2NsaW5pY6oBFhABKhIiDndvbWVuJ3MgY2xpbmljKAA&ved=2ahUKEwj1_7ivhczvAhXjg-AKHThlCuEQvS4wAnoECA0QOg&rlst=f#rlfi=hd:;si:7792109770215134260,l,ChlwYWxtIGJlYWNoIHdvbWVuJ3MgY2xpbmljIgOIAQFI88KL0PSugIAIWjcKDndvbWVuJ3MgY2xpbmljEAIQAxgAGAEYAhgDIhlwYWxtIGJlYWNoIHdvbWVuJ3MgY2xpbmljkgEVcHJlZ25hbmN5X2NhcmVfY2VudGVyqgEWEAEqEiIOd29tZW4ncyBjbGluaWMoAA;mv:[[26.831031099999997,-80.0724668],[26.334415999999997,-80.1762006]]",https://www.facebook.com/FriendsofFirstCare/,
North River Care Pregnancy Center,1020 10th Ave W Suite 100,Palmetto,Florida (FL),34221,,http://northrivercare.org,"https://www.google.com/maps/place/North+River+Care/@27.5222996,-82.5754691,15z/data=!4m5!3m4!1s0x0:0x2acb35539221a71a!8m2!3d27.5222996!4d-82.5754691",,http://www.yelp.com/biz/north-river-care-pregnancy-center-palmetto
Pregnancy Options Miami (formerly Eve's Hope PRC),"9000 SW 152nd Street, Suite 105",Palmetto Bay,Florida (FL),33157,,www.pregnancyoptionsmiami.org,https://goo.gl/maps/3SGS6SrTG272,https://www.facebook.com/EvesHopePregnancyCenter/,https://www.yelp.com/biz/eves-hope-palmetto-bay
A Sheltering Tree Ministry,1616 Cincinnati Ave,Panama City,Florida (FL),32401,,http://www.sacccpc.org/Services-Pregnancy-Center.aspx,https://goo.gl/maps/rEN5nw5KaVP2,https://www.facebook.com/A-Sheltering-Tree-218701138186079/,
Pregnancy Resource Center of Panama City,701 Jenks Avenue,Panama City,Florida (FL),32401,,www.anotherheart.org,https://goo.gl/maps/TfmSzoc4iiu,https://www.facebook.com/anotherheart/,https://www.yelp.com/biz/pregnancy-resource-center-panama-city
Alpha Center,6004 Pernella Rd,Pensacola,Florida (FL),32504,,http://www.alphacenterinc.org/,https://goo.gl/maps/PywZ6Wf2mPq,https://www.facebook.com/Alpha-Center-122066801185400,https://www.yelp.com/biz/alpha-center-pensacola
Safe Harbor Pregnancy Medical Center,2280 N 9th Ave,Pensacola,Florida (FL),32503,,www.916safe.org,https://goo.gl/maps/qV5w6SvWN6z,https://www.facebook.com/SafeHarborPregnancy/,https://www.yelp.com/biz/safe-harbor-pregnancy-medical-center-pensacola
A Woman's Place Medical Clinic,8001 66th Street N,Pinellas Park,Florida (FL),33781,,www.awomansplaceclinic.com,https://goo.gl/maps/1bofCJ71zPm,https://www.facebook.com/pg/AWomansPlaceMedical,https://www.yelp.com/biz/a-womans-place-medical-clinic-pinellas-park
"Pregnancy Care Center of Plant City, Inc.",304 N. Collins St.,Plant City,Florida (FL),33563,,https://www.plantcitypregnancycenter.org/,https://goo.gl/maps/tU4JEynfELM2,https://www.facebook.com/Pregnancy-Care-Center-of-Plant-City-192035160807077/,https://www.yelp.com/biz/pregnancy-care-center-of-plant-city-plant-city
South Florida Pregnancy Resource Center,"4100 S. Hospital Drive, Suite 108",Plantation,Florida (FL),33317,,http://sflpregnancyresourcecenter.org,"https://www.google.com/maps/place/south+florida+pregnancy+resource+center/@26.1253359,-80.2042733,15z/data=!4m2!3m1!1s0x0:0x86b25728dd920d78?sa=X&ved=2ahUKEwi9_N-3oczvAhUlc98KHQd_CpgQ_BIwEnoECCIQBQ",https://www.facebook.com/southflorida.empowermentinc.7,
"Pregnancy Careline Center, Inc.","1685 Tamiami Trail, Suite 4",Port Charlotte,Florida (FL),33948,(941) 625-5576,https://www.pregnancycareline.org/,https://goo.gl/maps/e63pvFcucFr,https://www.facebook.com/pages/Pregnancy-Careline-Center/704229519587105,https://www.yelp.com/biz/pregnancy-crisis-care-line-port-charlotte
Pregnancy Solutions-Port Charlotte,3005 Caring Way,Port Charlotte,Florida (FL),33953,,www.pregnancysolutions.org,https://goo.gl/maps/MiAy6pH5SFz,https://www.facebook.com/PregnancySolutions/,https://www.yelp.com/biz/pregnancy-solutions-port-charlotte
West Pasco Pregnancy Center,8125 US-19,Port Richey,Florida (FL),34668,(727) 846-9999,www.pascopregnancy.com,https://goo.gl/maps/BUXtBXWvGYC2,https://www.facebook.com/West-Pasco-Pregnancy-Womens-Wellness-Center-103704259678646/,https://www.yelp.com/biz/west-pasco-pregnancy-center-new-port-richey-2
Care Net Pregnancy Services of the Treasure Coast,8432 S. Federal Highway,Port St. Lucie,Florida (FL),34952,,https://carenettc.com/,https://goo.gl/maps/J79do3reL2r,https://www.facebook.com/Care-Net-Pregnancy-Services-of-the-Treasure-Coast-189734567726285/,https://www.yelp.com/biz/care-net-pregnancy-services-of-the-treasure-coast-port-saint-lucie
Choices Women's Center,3018 E College Ave,Ruskin,Florida (FL),33570,,http://www.choiceswomenscenter.com/,,https://www.facebook.com/pages/Choices-Womens-Center/1521603414724529,https://www.yelp.com/biz/choices-womens-center-ruskin
The Pregnancy Centers - Sanford,1002 French Ave,Sanford,Florida (FL),32771,,https://thepregnancycenters.com/,https://goo.gl/maps/rUxoQJN6NyP2,https://www.facebook.com/ThePregnancyCenterofSanford/,https://www.yelp.com/biz/sanford-crisis-pregnancy-center-sanford
Community Pregnancy Clinics - Sarasota,1419 7th St,Sarasota,Florida (FL),34236,(941) 260-5427,http://communitypregnancyclinic.com/,https://goo.gl/maps/6vwZyvogM6m,,
My Choice Pregnancy Center,5277 N Tamiami Trail,Sarasota,Florida (FL),34234,,http://mychoicepregnancycenter.com/,https://goo.gl/maps/N81mKRcxXP82,https://www.facebook.com/mychoicepregnancycenter/,https://www.yelp.com/biz/my-choice-pregnancy-center-sarasota
Sarasota Medical Pregnancy Center,1762 Hawthorne St Ste 5,Sarasota,Florida (FL),34239,,www.sarasotapregnancy.com,https://goo.gl/maps/eT4mQP1SULS2,https://www.facebook.com/sarasotapregnancy/,https://www.yelp.com/biz/sarasota-medical-pregnancy-center-sarasota
Choices Family Resource Center,1119 US Hwy 27 S,Sebring,Florida (FL),33870,,http://choicesfrc.com,https://goo.gl/maps/vNGBtonKZjo,https://www.facebook.com/ChoicesFRC/,https://www.yelp.com/biz/choices-pregnancy-care-centers-sebring
A New Generation (Obria),7084 Mariner Blvd,Spring Hill,Florida (FL),34608,,https://purehope.org/services/,https://goo.gl/maps/zGc8BKpGG3u,https://www.facebook.com/ANewGeneration7/,https://www.yelp.com/biz/a-new-generation-spring-hill
Foundations of Life Pregnancy Center,8370 Forest Oaks Blvd.,Spring Hill,Florida (FL),34606,,https://foundationsoflife.org/contact-us/spring-hill-pregnancy-center/,https://goo.gl/maps/3u9G4DP16kz,https://www.facebook.com/FOLPregnancyCtr/,
Bay Area Pregnancy Center - St. Petersburg,4090 58th Ave N,St Petersburg,Florida (FL),33714,,www.mybapc.com,https://goo.gl/maps/n8z2kw1GH6k,https://www.facebook.com/mybapc/,
Foundations of Life Pregnancy Center,1213 16th Street N,St Petersburg,Florida (FL),33705,,https://foundationsoflife.org/contact-us/st-petersburg-pregnancy-center/,https://goo.gl/maps/BSFtNUWQH3s,https://www.facebook.com/FOLPregnancyCtr/ https://www.facebook.com/ccadoptfl/,
"Mary's Outreach for Women, Inc.",4144 Central Avenue - #A,St Petersburg,Florida (FL),33711,,https://www.marysoutreachforwomen.com/,https://goo.gl/maps/DXrYpJu4ACB2,https://www.facebook.com/pages/Marys-Outreach-for-Women/124821927572096,
Next STEPP Pregnancy Center,1210 22nd St S,St Petersburg,Florida (FL),33712,,www.nextstepp.org,https://goo.gl/maps/vyjACm4nuWH2,https://www.facebook.com/TheNextStepp,
Life Services of St. Johns County,27 Sevilla Street,St. Augustine,Florida (FL),32084,,http://elifeservices.org/,https://goo.gl/maps/WNuGdWFnFiD2,,
St Gerard Campus Pregnancy Center,1405 U.S. 1 South,St. Augustine,Florida (FL),32084,,http://www.stgerardcampus.org/Pregnancy_Center.html,https://goo.gl/maps/qDr3eSvP7nQ2,,https://www.yelp.com/biz/st-gerard-campus-inc-saint-augustine
Care Net Pregnancy Services of the Treasure Coast,965 SE Federal Highway,Stuart,Florida (FL),34994,,https://carenettc.com/,https://goo.gl/maps/h8pHYuVaNc42,,https://www.yelp.com/biz/care-net-pregnancy-services-of-the-treasure-coast-stuart
A Women's Pregnancy Center,919 W. Pensacola Street,Tallahassee,Florida (FL),32304,(850) 297-1174,http://awomenspregnancycenter.com,https://goo.gl/maps/572nborUyJ72,https://www.facebook.com/awomenspregnancycentertallahassee/,https://www.yelp.com/biz/a-womens-pregnancy-center-tallahassee-2
Pregnancy Help & Information Center,1710 South Gadsden Street,Tallahassee,Florida (FL),32301,,http://phicenter.org/,https://goo.gl/maps/jDY19QFm7SB2,https://www.facebook.com/pages/Pregnancy-Help-and-Information-Center/856464807781065,https://www.yelp.com/biz/pregnancy-help-and-information-center-tallahassee
Women's Clinic of Tallahassee,2410 Mahan Drive Unit 1,Tallahassee,Florida (FL),32308,,http://womensclinictallahassee.com/,https://goo.gl/maps/eTxPJCFqqj12,https://www.facebook.com/pg/WomensClinicTallahassee/reviews/,
A Woman's Place Medical Clinic,14492 University Cove Place,Tampa,Florida (FL),33613,,www.awomansplaceclinic.com,https://goo.gl/maps/K1Kugfefc3p,https://www.facebook.com/pg/AWomansPlaceMedical,
A Woman's Place Medical Clinic,6301 Memorial Hwy Ste 204,Tampa,Florida (FL),33615,,www.awomansplaceclinic.com,https://goo.gl/maps/gPv9Aq1CDzL2,https://www.facebook.com/pg/AWomansPlaceMedical,
Foundations of Life Pregnancy Center,6845 N Dale Mabry Hwy ,Tampa,Florida (FL),33614,,https://foundationsoflife.org/contact-us/tampa-pregnancy-center/,https://goo.gl/maps/JwDs4jcasHx,https://www.facebook.com/FOLPregnancyCtr/,
Oasis Pregnancy Care Center,14620 N Nebraska Ave Unit C,Tampa,Florida (FL),33613,,https://oasispregnancycenter.org/,https://goo.gl/maps/rDNYoHVqTPL2,https://www.facebook.com/pg/Oasis.Pregnancy.Care.Centers,https://www.yelp.com/biz/pregnancy-care-center-tampa-3?fsid=OhQhhYIGlh0M01n1n5GF1w
A Woman's Place Medical Clinic,927 E Klosterman Rd,Tarpon Springs,Florida (FL),34689,,www.awomansplaceclinic.com,"https://www.google.com/maps?ll=28.12338,-82.741187&z=16&t=m&hl=en-US&gl=US&mapclient=embed&cid=9448538998934134396",https://www.facebook.com/AWPTarpon/,https://www.yelp.com/biz/a-womans-place-medical-clinic-tarpon-springs?
"Pregnancy Solutions, Inc.",504 East Venice Avenue,Venice,Florida (FL),34285,,www.pregnancysolutions.org,https://goo.gl/maps/vYMbsaQRayH2,https://www.facebook.com/PregnancySolutions/,https://www.yelp.com/biz/pregnancy-solutions-venice
Venice Area Pregnancy Care Center,301 Bayshore Dr,Venice,Florida (FL),34285,,http://vapcc.org/,"https://www.google.com/maps/place/Venice+Area+Pregnancy+Care+Center/@27.1030134,-82.4502893,15z/data=!4m5!3m4!1s0x0:0xebf06d0c1fe56842!8m2!3d27.1030134!4d-82.4502893",https://www.facebook.com/veniceareapregnancycarecenter/,
A Caring Center for Women,1986 31st Ave Ste 100,Vero Beach,Florida (FL),32960,,https://wccfl.org/,https://goo.gl/maps/ym1so8Q4KKo,https://www.facebook.com/WomensCareCenterVeroBeach/,
Choices Family Resource Center,417 Carlton St,Wauchula,Florida (FL),33873,,https://choicesfrc.com/,https://goo.gl/maps/BKZBaGznzdC2,https://www.facebook.com/ChoicesFRC/,
Oasis - A Pregnancy Care Center,5854 Argerian Dr. Suite 101,Wesley Chapel,Florida (FL),33545,,https://oasispregnancycenter.org/,https://goo.gl/maps/vzPx2o5Jpx72,https://www.facebook.com/pg/Oasis.Pregnancy.Care.Centers,
Miracle Health (Birthline/Lifeline Pregnancy Care Center),3115 45th St,West Palm Beach,Florida (FL),33407,,https://solutionsmobileunit.org/,"https://www.google.com/maps/place/Miracle+Health-Palm+Beach+County/@26.7600691,-80.1018741,15z/data=!4m5!3m4!1s0x0:0x187c9ca63967146e!8m2!3d26.7600691!4d-80.1018741",https://www.facebook.com/solutionsmobileunit/?pageid=1774002079485209&ftentidentifier=2583876938497715&padding=0,
Tri-County Pregnancy Center,426 W. Noble Ave,Williston,Florida (FL),32696,,https://www.tcpcfl.com/,https://goo.gl/maps/QzogvmhWhGo,https://www.facebook.com/Tri-County-Pregnancy-Center-181217855233746/,https://www.yelp.com/biz/tri-county-pregnancy-center-williston
Bethany Christian Services - Winter Garden,29 W Smith St,Winter Garden,Florida (FL),34787,,https://www.bethany.org/florida,https://goo.gl/maps/Rt4waCuZmcF2,https://www.facebook.com/bethanyfans/,https://www.yelp.com/biz/bethany-christian-services-winter-garden
LifeChoice Pregnancy Resource Center,235 E Central Ave,Winter Haven,Florida (FL),33880,,www.lifechoicepregnancycenter.com,https://goo.gl/maps/jG1jhq5541r,https://www.facebook.com/LifeChoiceWH/,
The Pregnancy Centers - Winter Park,2425 Lee Rd,Winter Park,Florida (FL),32789,,https://thepregnancycenters.com/,"https://www.google.com/search?client=firefox-b-1-d&q=the%20pregnancy%20centers%20winter%20park%20fl&tbs=lf:1,lf_ui:2&tbm=lcl&rflfq=1&num=10&rldimm=16570738390681881904&lqi=CiR0aGUgcHJlZ25hbmN5IGNlbnRlcnMgd2ludGVyIHBhcmsgZmxI44y_jbewgIAIWk8KFXRoZSBwcmVnbmFuY3kgY2VudGVycxAAEAEQAhgAGAEYAhgDGAQYBSIkdGhlIHByZWduYW5jeSBjZW50ZXJzIHdpbnRlciBwYXJrIGZskgEVcHJlZ25hbmN5X2NhcmVfY2VudGVymgEjQ2haRFNVaE5NRzluUzBWSlEwRm5TVVJEY1RWNWMwTjNFQUWqAR0QASoZIhV0aGUgcHJlZ25hbmN5IGNlbnRlcnMoAA&ved=2ahUKEwi0re-Qo8zvAhVikuAKHdYeDLIQvS4wAHoECAYQNA&rlst=f#rlfi=hd:;si:16570738390681881904,l,CiR0aGUgcHJlZ25hbmN5IGNlbnRlcnMgd2ludGVyIHBhcmsgZmxI44y_jbewgIAIWk8KFXRoZSBwcmVnbmFuY3kgY2VudGVycxAAEAEQAhgAGAEYAhgDGAQYBSIkdGhlIHByZWduYW5jeSBjZW50ZXJzIHdpbnRlciBwYXJrIGZskgEVcHJlZ25hbmN5X2NhcmVfY2VudGVymgEjQ2haRFNVaE5NRzluUzBWSlEwRm5TVVJEY1RWNWMwTjNFQUWqAR0QASoZIhV0aGUgcHJlZ25hbmN5IGNlbnRlcnMoAA;mv:[[28.633194,-81.32140679999999],[28.580764,-81.38536160000001]];tbs:lrf:!1m4!1u3!2m2!3m1!1e1!1m4!1u2!2m2!2m1!1e1!2m1!1e2!2m1!1e3,lf:1,lf_ui:2",,
The Nest Women's Center,"850966 US HWY 17
",Yulee,Florida (FL),32097,,http://www.thenestwomenscenter.org/,"https://www.google.com/search?client=firefox-b-1-d&q=the%20nest%20yulee%20fl&tbs=lf:1,lf_ui:2&tbm=lcl&rflfq=1&num=10&rldimm=17208387231120221128&lqi=ChF0aGUgbmVzdCB5dWxlZSBmbFojCg50aGUgbmVzdCB5dWxlZSIRdGhlIG5lc3QgeXVsZWUgZmySARVwcmVnbmFuY3lfY2FyZV9jZW50ZXKqARYQASoSIg50aGUgbmVzdCB5dWxlZSgA&ved=2ahUKEwiUiLnioczvAhUNd98KHdLRAjAQvS4wAXoECA0QRA&rlst=f#rlfi=hd:;si:17208387231120221128,l,ChF0aGUgbmVzdCB5dWxlZSBmbFojCg50aGUgbmVzdCB5dWxlZSIRdGhlIG5lc3QgeXVsZWUgZmySARVwcmVnbmFuY3lfY2FyZV9jZW50ZXKqARYQASoSIg50aGUgbmVzdCB5dWxlZSgA;mv:[[30.6553923,-81.5952387],[30.310652,-81.79868739999999]];tbs:lrf:!1m4!1u3!2m2!3m1!1e1!1m4!1u2!2m2!2m1!1e1!2m1!1e2!2m1!1e3,lf:1,lf_ui:2",https://www.facebook.com/thenestjax/,
Pregnancy Care Center of Zephyrhills,37607 Tall Pines Dr,Zephyrhills,Florida (FL),33542,,http://www.pcczephyrhills.org/,https://goo.gl/maps/GF4VqggLcYn,https://www.facebook.com/pages/biz/33542/Pregnancy-Care-Center-of-Zephyrhills-157621664249738/,https://www.yelp.com/biz/pregnancy-care-center-zephyrhills-2?fsid=vUJbEUkyKXj-0I99Pjr05g
Life Choices Medical Clinic,441 Maitland Ave,Altamonte Springs,Florida (FL),32701,,www.lifechoicesfl.com,"https://www.google.com/maps/place/Life+Choices+Medical+Clinic/@28.65558,-81.365571,15z/data=!4m5!3m4!1s0x0:0x52e8ad4678faabad!8m2!3d28.65558!4d-81.365571",https://www.facebook.com/LifeChoicesWomensCenter/,
Pregnancy Resource Clinic,"10515 FGCU Blvd S, Fort Myers, FL 33965",Estero,Florida (FL),33965,(239) 940-1559,https://communitypregnancyclinic.com,,https://www.facebook.com/CommunityPregnancyClinics,
Pregnancy Resource Clinic Estero Clinic,9911 Corkscrew Rd #105,Estero,Florida (FL),33928,(239) 317-0015,https://www.prcnaples.org/,,https://www.facebook.com/PRCofSWFlorida/,https://www.yelp.com/biz/prc-estero-clinic-estero?osq=pregnancy
Community Pregnancy Clinics,8660 College Pkwy Ste 200,Fort Myers,Florida (FL),33919,(239) 689-1543,https://communitypregnancyclinic.com/,,https://www.facebook.com/CommunityPregnancyClinics/,https://www.yelp.com/biz/community-pregnancy-clinics-fort-myers?osq=pregnancy
Pregnancy & Medical Resource Center,8890 Salrose Ln Unit 104,Fort Myers,Florida (FL),33912,(239) 433-1929,http://pregnancyfortmyers.com,,http://www.facebook.com/VerityFL/,
Pregnancy Resource Center North Clinic,13770 Plantation Rd. Unit 3,Fort Myers,Florida (FL),33912,(239) 990-8186,https://www.prcnaples.org/,"https://www.google.com/maps/place/PRC+North+Clinic/@26.5424449,-81.8474934,15z/data=!4m5!3m4!1s0x0:0xb82311c7151860a5!8m2!3d26.5424449!4d-81.8474934",https://www.facebook.com/PRCofSWFlorida/,https://www.yelp.com/biz/north-clinic-fort-myers?osq=crisis+pregnancy+center
Emergency Pregnancy Services,6903 Merrill Road,Jacksonville,Florida (FL),32277,,http://www.emergencypregnancyservices.org/,,,
First Coast Women’s Services,404 Owens Rd,Jacksonville,Florida (FL),32218,,http://fcws.org,,,
Women’s Help Center,6210 Samuel Wells Dr. #1201,Jacksonville,Florida (FL),32216,,http://pregnancyjacksonville.com,,,
First Coast Women’s Services,224 3rd St N,Jacksonville Beach,Florida (FL),32250,,http://fcws.org,https://goo.gl/maps/S2VB4EFtHkD2,https://www.facebook.com/fcwsprc/,https://www.yelp.com/biz/first-coast-womens-services-beaches-jacksonville-beach
A Woman's Pregnancy Center,4469A Clinton Street,Marianna,Florida (FL),32446,(850) 526-4673,http://www.awpcmarianna.com/,,,http://www.yelp.com/biz/a-womens-pregnancy-center-marianna
Pregnancy Resource Center - Education Center,15205 Collier Blvd #207,Naples,Florida (FL),34119,(239) 513-9775,https://supportprc.org/,,https://www.facebook.com/PRCofSWFlorida/,https://www.yelp.com/biz/prc-clinic-naples-naples-2?osq=Pregnancy+resource+center
Grace House Pregnancy Resource Ctr.,307 N Orange Avenue,New Smyrna Beach,Florida (FL),32168,(386) 957-4811,https://gracehouseprc.org/,,https://www.facebook.com/GraceHouseNSB/,https://www.yelp.com/biz/grace-house-pregnancy-resource-center-deland?osq=grace+house+Pregnancy+Center
pregnancy help clinics,660 NE 125th st North Miami fl 33161,NORTH MIAMI,Florida (FL),33161,(305) 685-6010,http://www.pregnancyhelpclinics.org/en/contact-us,,,
Women’s Help Center,4116 Blanding Blvd,Orange Park,Florida (FL),32210,,http://pregnancyjacksonville.com,,,
A Woman's Place,14492 University Cove Pl,Tampa,Florida (FL),33613,(813) 931-1804,https://www.awomansplaceclinic.com/,,,https://m.yelp.com/biz/a-womans-place-medical-clinic-tampa
Knight's Women's Center,2002 E. Fletcher Avenue,Tampa,Florida (FL),33612,(813) 910-3280,https://www.ccdosp.org/knights-womens-center/,https://goo.gl/maps/zYx8Ksvz9kT2,https://www.facebook.com/FOLPregnancyCtr/,
Care Net Pregnancy Center of Indian River County,1503 24th Street,Vero Beach,Florida (FL),32960,(772) 569-7939,http://www.carenetirc.com,https://goo.gl/maps/hxfjypuURyn,https://www.facebook.com/carenetirc/,https://www.yelp.com/biz/care-net-pregnancy-centers-of-indian-river-county-vero-beach
Women's Care Center,1986 31st Ave,Vero Beach,Florida (FL),32960,(772) 257-5390,http://www.womenscarecenter.org/locations/vero-beach/,,https://m.facebook.com/WomensCareCenterVeroBeach/,
Choices Women's Clinic,100 Carrigan Avenue,Oviedo,Florida (FL),32765,(407) 605-2520,https://www.choiceswomensclinic.com/,https://goo.gl/maps/N1vRF1JPnW2Lv3A28,https://www.facebook.com/choiceswomensclinic/,
Mosaic Sexual Health Clinic,2610 W. Tennessee Street,Tallahassee,Florida (FL),32304,(850) 765-4955,https://mosaicclinictally.com/,"https://www.google.com/search?client=firefox-b-1-d&q=mosaic%20tallahassee&tbs=lf:1,lf_ui:2&tbm=lcl&rflfq=1&num=10&rldimm=8733697135402590877&lqi=ChJtb3NhaWMgdGFsbGFoYXNzZWVIsI-FpPqxgIAIWhoQABgAGAEiEm1vc2FpYyB0YWxsYWhhc3NlZZIBHG9ic3RldHJpY3NfZ3luZWNvbG9neV9jbGluaWOaASNDaFpEU1VoTk1HOW5TMFZKUTBGblNVTjVhUzF0YzBoQkVBRaoBDhABKgoiBm1vc2FpYygA4AEA&ved=2ahUKEwjgttbQjvj7AhVBmuAKHV3mCsAQvS56BAgTEAE&sa=X&rlst=f#rlfi=hd:;si:8733697135402590877,l,ChJtb3NhaWMgdGFsbGFoYXNzZWVIsI-FpPqxgIAIWhoQABgAGAEiEm1vc2FpYyB0YWxsYWhhc3NlZZIBHG9ic3RldHJpY3NfZ3luZWNvbG9neV9jbGluaWOaASNDaFpEU1VoTk1HOW5TMFZKUTBGblNVTjVhUzF0YzBoQkVBRaoBDhABKgoiBm1vc2FpYygA4AEA;mv:[[30.4771072,-84.22129489999999],[30.449901899999997,-84.34063359999999]];tbs:lrf:!1m4!1u3!2m2!3m1!1e1!1m4!1u2!2m2!2m1!1e1!2m1!1e2!2m1!1e3!3sIAE,lf:1,lf_ui:2",https://www.facebook.com/mosaic.tally/,
Candice Brown,20075 oakdale avenue,Brooksville,Florida (FL),34601,(863) 221-9670,anewgen.org,,,