Name ,Address,City,State,Zip Code,Phone Number,Website,Google Business Page,Facebook,Yelp
Alpha's Glory Crisis Pregnancy Center,"219 W Bel Air Ave, Suite 2",Aberdeen,Maryland (MD),21001,,http://hwww.aberdeenprc.org/,,,
Pregnancy Clinic Ministry,934 West Street,Annapolis,Maryland (MD),21401,,www.pregnancyclinic.org,,,
Birthright of Annapolis,"269 Peninsula Farm Rd., Bldg. 1",Arnold,Maryland (MD),21012,,https://www.icarol.info/ResultDetails.aspx?org=2046&agencynum=169301&sitenum=55289407,"https://www.google.com/maps/place/Birthright+of+Annapolis/@39.055803,-76.515799,15z/data=!4m2!3m1!1s0x0:0xfc2fa63a96c42fb8?sa=X&ved=2ahUKEwjLxfvczY_kAhVjxFkKHc8rD00Q_BIwCnoECA4QCA",,
Baltimore Pregnancy Center,7311 Hartford Rd,Baltimore,Maryland (MD),21234,,,,,
Center for Pregnancy Concerns,528 East 22nd Street,Baltimore,Maryland (MD),21201,,www.centerforpregnancyconcernsorg,,,"Pregnancy Tests, Ultrasound (Onsite)"
Center for Pregnancy Concerns,328 N Howard St ,Baltimore,Maryland (MD),21201,,,,,"Pregnancy Tests, Ultrasound (Onsite)"
Pregnancy Center North,6805 York Rd #2,Baltimore,Maryland (MD),21212,,"www.pcnorth.org, www.PCNministry.org",,,
Pregnancy Center West,5411 Old Frederick Road Suite 1,Baltimore,Maryland (MD),21229,,www.pregnancycenterwest.org,,,
Rock-a-My-Baby Pregnancy Crisis Ctr,1501 North Dukeland St,Baltimore,Maryland (MD),21223,,,,,
Women's Care Center,7625 Belair Rd,Baltimore,Maryland (MD),21236,,http://womenscarecenterfoundation.org/locations/baltimore/,,,
Birthright,38 E Gordon St,Bel Air,Maryland (MD),21014,,https://www.birthrightharfordcounty.org/,"https://www.google.com/maps/place/Birthright+Of+Bel+Air+%E2%9D%A4/@39.5396401,-76.3545737,17z/data=!3m1!4b1!4m5!3m4!1s0x89c7ddd281124ff9:0x8566d3aa9ab0cb2d!8m2!3d39.539636!4d-76.352385",https://www.facebook.com/BirthrightBelAir/,
Shirley Grace Pregnancy Center,10226 Old Ocean City Blvd Unit 2,Berlin,Maryland (MD),21811,,www.spregnancycenter.org,"https://www.google.com/maps/place/Shirley+Grace+Pregnancy+Center/@38.3368217,-75.2113502,17z/data=!3m1!4b1!4m5!3m4!1s0x89b927027513971d:0x87218697adaf6e3a!8m2!3d38.3368217!4d-75.2091615",https://www.facebook.com/shirleygracepc/,https://www.yelp.com/biz/shirley-grace-pregnancy-center-berlin
Bowie Crofton Pregnancy Clinic,4341 Northview Dr,Bowie,Maryland (MD),20716,,www.pregnancyclinic.org,,,
Columbia Pregnancy Center,8945 Guilford Rd Suite 130,Columbia,Maryland (MD),21046,,www.columbia-pregnancy.org,"https://www.google.com/maps/place/Columbia+Pregnancy+Center/@39.2145853,-76.8716203,15z/data=!4m2!3m1!1s0x0:0x2164d323d74afe5?hl=en&sa=X&ved=0ahUKEwjpguaFy_nbAhXk6oMKHdgaAUMQ_BIImwEwCg",https://www.facebook.com/ColumbiaPregCenter/,https://www.yelp.com/biz/columbia-pregnancy-center-columbia-2
Bethany Christian Services - Maryland,"2130 Priest Bridge Dr, Ste 1",Crofton,Maryland (MD),21114,,https://bethany.org/locations/us/maryland/crofton /// https://impregnant.org/,"https://www.google.com/maps/place/Bethany+Christian+Services/@38.9888877,-76.6928253,15z/data=!4m5!3m4!1s0x0:0x5e78ac14aec3b840!8m2!3d38.9888877!4d-76.6928253",https://www.facebook.com/bethanyfans,
Gabriel Network,2137 Defense Highway Ste. 10B,Crofton,Maryland (MD),21114,,,,,
1st Way Life Center,310 Race St,Cumberland,Maryland (MD),21501,,https://www.times-news.com/news/slice_of_life/st-way-pregnancy-support-center-holding-open-house/article_330238a3-29dd-575c-b2f1-e920ea1d224c.html,"https://www.google.com/maps/place/First+Way+Pregnancy+Support+Center/@39.6344624,-78.7602937,15z/data=!4m2!3m1!1s0x0:0x270790c9cfecf36?sa=X&ved=2ahUKEwigrZ2Auo_kAhVquVkKHbiHDssQ_BIwE3oECA4QCA",,
Choices Pregnancy Center,8221 Teal Drive Suite 408,Easton,Maryland (MD),21601,,www.copcshore.org,,,
Cecil County Pregnancy Center,126 E. High St,Elkton,Maryland (MD),21921,,www.ccpregnancycenter.org,,,"Pregnancy Tests, Ultrasound (Onsite)"
Heritage Pregnancy & Family Health Center,103 East Main Street,Elkton,Maryland (MD),21921,,www.heirtagePFHC.com,"https://www.google.com/maps/place/Heritage+Pregnancy+and+Family+Health+Center/@39.6080165,-75.8317764,17z/data=!3m1!4b1!4m5!3m4!1s0x89c7af5d7a33d3ff:0x336080b5c1bd18bb!8m2!3d39.6080165!4d-75.8295877",https://www.facebook.com/pg/HeritagePFHC/about/,
Catoctin Pregnancy Center,2 E Main St,Emmitsburg,Maryland (MD),21727,,,,,
Center for Pregnancy Concerns,442 Eastern Blvd,Essex,Maryland (MD),21221,,www.centerforpregnancyconcerns.org,,,
Forestville Pregnancy Center (1629),3426 Donnell Drive,Forestville,Maryland (MD),20747,,,,,
Birthright,250 W Patrick St,Frederick,Maryland (MD),21701,,,,https://www.facebook.com/birthrightoffrederick/,
Care Net Pregnancy Center of Frederick,707 N Market St,Frederick,Maryland (MD),21701,,www.carenetfrederick.org,,https://www.facebook.com/carenetfrederick,
Shady Grove Pregnancy Center,16220 Frederick Rd Ste 118,Gaithersburg,Maryland (MD),20877,,www.pregnancy-options.org,,,http://www.yelp.com/biz/shady-grove-pregnancy-center-gaithersburg
Hagerstown Bible Church,203 Summit Ave,Hagerstown,Maryland (MD),21740,,www.hapconline.com,,,
First Baptist Church - Beauty for Ashes,3600 Brightseat Road,Landover,Maryland (MD),20706,,,,,
LaPlata Catherine Foundation,115A LaGranje Ave,LaPlata,Maryland (MD),20646,,www.catherinefoundation.org,,,
El Shaddi Care Center,"#231, 317 Spectrum Ave",Laurel,Maryland (MD),20879,,,,,
Laurel Pregnancy Center,"415 Main St, Ste 4",Laurel,Maryland (MD),20707,,www.laurelpregnancycenter.org,,,
Care Net Pregnancy Center of Southern Maryland,25482 Pt. Lookout Rd. - Ste. 201A,Leonardtown,Maryland (MD),20650,(301) 475-5333,www.carenetsomd.org,,https://www.facebook.com/carenetsomd/,
Care Net Pregnancy Center of Southern Maryland,21562 Thames Ave,Lexington Park,Maryland (MD),20653,,www.carenetsomd.org,,,
Mountain Top CPC,314 S. 2nd St.,Mountain Lake Park,Maryland (MD),21550,,,,,
Nanjemny Catherine Foundation,4375 Port Tabacco Road,Nanjemny,Maryland (MD),20662,,www.catherinefoundation.org,,,
Birthright of Prince Frederick,301 Steeple Chase Dr Ste 405,Prince Frederick,Maryland (MD),20678,,http://www.birthrightpf.com/,"https://www.google.com/maps/place/Birthright+of+Prince+Frederick/@38.5516462,-76.5902238,15z/data=!4m2!3m1!1s0x0:0x7fb55c3b1327fcb0?sa=X&ved=2ahUKEwje2pLgjJLkAhXvpVkKHbU-D2oQ_BIwCnoECA8QCA",https://www.facebook.com/Birthright-of-Prince-Frederick-206574432799227/,https://www.yelp.com/biz/birthright-of-prince-frederick-prince-frederick
Care Net Pregnancy Center of Southern Maryland,"2196 Solomons Island Rd., Ste 3",Prince Frederick,Maryland (MD),20678,,www.carenetsomd.org,,,
Alpha Pregnancy Center,301 Main St #1B,Reisterstown,Maryland (MD),21136,,www.alpha-pregnancycenter.org,,,
Rockville Pregnancy Clinic,12530 Parklawn Dr Suite 170,Rockville,Maryland (MD),20852,,www.rockvillepregnancyclinic.org,,https://www.facebook.com/RockvilleWomensCenter/,
Eastern Shore Pregnancy Center,1300 South Division St,Salisbury,Maryland (MD),21804,(410) 546-5433,https://www.easternshorepregnancycenter.org/,,https://m.facebook.com/espcsalisbury/,
Severna Park Pregnancy Clinic (2943),650 Ritchie Hwy #307,Severna Park,Maryland (MD),21146,,http://pregnancyclinic.org/,,,
Centro Topeyak Women’s Center,12247 Georgia Ave ,Silver Spring,Maryland (MD),20902,,http://centrotepeyac.org/en/,,https://www.facebook.com/centrotepeyac/,
Forestville Pregnancy Center,"3611 Branch Avenue, Suite 102",Temple Hills,Maryland (MD),20748,,www.forestvillepregnancycenter.org,,https://www.facebook.com/ForestvillePregnsncyCenter,"Pregnancy Tests, Ultrasound (Onsite)"
The Christle Lighthouse PCC,"6507 Old Branch Ave, Ste 102",Temple Hills,Maryland (MD),20748,,,,,
Catherine Foundation,3065 Old Washington Rd,Waldorf,Maryland (MD),20601,,www.catherinefoundation.org,,,