Name ,Address,City,State,Zip Code,Phone Number,Website,Google Business Page,Facebook,Yelp
Alternatives Pregnancy Center - East Metro,14221 E 4th Ave Bldg 2 #220,Aurora,Colorado (CO),80011,,https://youhavealternatives.org/request-an-appointment/,,,
Bethany Christian Services - Aurora,"2821 S. Parker Road, Suite 425",Aurora,Colorado (CO),80014,,https://impregnant.org/ // https://bethany.org/locations/us/colorado/aurora,"https://www.google.com/maps/place/Bethany+Christian+Services/@39.6652727,-104.8611047,15z/data=!4m2!3m1!1s0x0:0xedae28358a250044?sa=X&ved=2ahUKEwjw-diXrI_tAhWRmOAKHaTNDuIQ_BIwDHoECBoQAw",https://www.facebook.com/bethanyfans,
Colorado Pregnancy Centers,1072 Chambers Ct,Aurora,Colorado (CO),80011,,,,,
A Caring Pregnancy Resource center of NE CO - Brush,214 Cameron Street,Brush,Colorado (CO),80723,,https://neco-cpc.org/,,https://www.facebook.com/A-Caring-Pregnancy-Resource-Center-of-Northeast-Colorado-589990651059537/,
Buena Vista Pregnancy Center,28350 County Road 317 Suite #12,Buena Vista,Colorado (CO),81236,(719) 395-6703,http://www.bvpregnancycenter.com/,"https://www.google.com/maps/place/Buena+Vista+Pregnancy+Center/@38.829807,-106.1231396,17z/data=!3m1!4b1!4m5!3m4!1s0x0:0xf9a4427f4057cb50!8m2!3d38.829807!4d-106.1209509",,
Eastern Plains Women's Resource Center,228 W Front St,Byers,Colorado (CO),80103,,http://www.epwrc.org/,"https://www.google.com/maps/place/Eastern+Plains+Women's+Resource/@39.709712,-104.226196,15z/data=!4m2!3m1!1s0x0:0x7978a6caf3eaa98d?sa=X&ved=2ahUKEwivtKHF-ufmAhVvx1kKHZYoCgwQ_BIwCnoECA4QCA",,
Canon City Pregnancy Center,614 Yale pl,Canon City,Colorado (CO),81212,,https://www.ccpcenter.com/,"https://www.google.com/maps/place/Canon+City+Pregnancy+Center/@38.4421462,-105.2413154,15z/data=!4m2!3m1!1s0x0:0x99f06793d6adedda?sa=X&ved=2ahUKEwjcktbr7-XmAhXGrFkKHbq8CRgQ_BIwCnoECAsQCA",https://www.facebook.com/CanonCityPregnancyCenter,
Bethany Christian Services - Colorado Springs,"4820 Rusina Road, Suite B",Colorado Springs,Colorado (CO),80907,,https://impregnant.org/ /// https://bethany.org/,"https://www.google.com/maps/place/Bethany+Christian+Services/@38.9009922,-104.8296471,15z/data=!4m5!3m4!1s0x0:0x619c9f81fb173d41!8m2!3d38.9009922!4d-104.8296471",https://www.facebook.com/bethanyfans,
Colorado Springs Pregnancy Center,3925 Centennial Blvd,Colorado Springs,Colorado (CO),80907,(719) 623-2870,https://www.cspregnancycenter.com/,,http://www.facebook.com/westsidepregnancycenter/,https://www.yelp.com/biz/colorado-springs-pregnancy-center-colorado-springs-2?osq=Colorado+Springs+Pregnancy+Center
Colorado Springs Pregnancy Center - Central,3700 Galley Road,Colorado Springs,Colorado (CO),80909,,https://www.cspregnancycenter.com/,,,https://www.yelp.com/biz/colorado-springs-pregnancy-center-colorado-springs-3?fsid=VOiRpFZP6uNZt6zRigmTTQ
Colorado Springs Pregnancy Center - Westside,3925 N. Centennial Blvd #100,Colorado Springs,Colorado (CO),80907,(719) 623-2870,https://www.cspregnancycenter.com/,,https://facebook.com/westsidepregnancycenter/,https://www.yelp.com/biz/colorado-springs-pregnancy-center-colorado-springs-2?osq=Colorado+Springs+Pregnancy+Center
Save the Storks,4050 Lee Vance View,Colorado Springs,Colorado (CO),80918,(866) 639-0479,https://savethestorks.com/,,https://www.facebook.com/SaveTheStorks,
Montezuma CPC: Heart to Heart,213 W North Street,Cortez,Colorado (CO),81321,,https://www.hearttoheartcpc.com/,"https://www.google.com/maps/place/Heart+To+Heart+Pregnancy+Center/@37.3495527,-108.5885931,15z/data=!4m2!3m1!1s0x0:0x94ee87c11303d558?sa=X&ved=2ahUKEwjAjv-NgejmAhXPm-AKHcvxAZAQ_BIwCnoECAsQCA",,
Hope Pregnancy Center (formerly Yampa Valley Pregnancy Center),538 Breeze St.,Craig,Colorado (CO),81625,,https://www.yvcenter4hope.org/,"https://www.google.com/maps/place/Hope+Pregnancy+Center/@40.514797,-107.5509486,17z/data=!4m12!1m6!3m5!1s0x40658bb9e599bc99:0xb3359960a97eb794!2sHope+Pregnancy+Center!8m2!3d40.5147929!4d-107.5487599!3m4!1s0x40658bb9e599bc99:0xb3359960a97eb794!8m2!3d40.5147929!4d-107.5487599?hl=en",https://www.facebook.com/yvcenter4hope/,
Choices (formerly Teller Pregnancy Resource Center),411 N. C Street,Cripple Creek,Colorado (CO),80813,,https://whatchoices.com/,,https://www.facebook.com/pages/Teller-Pregnancy-Resource-Center/501576436680932,https://www.yelp.com/biz/teller-pregnancy-resource-center-cripple-creek?fsid=kgVjWGAGNXXVqgMt-ThUMQ
Pregnancy Resource Center,523 Dodge St,Delta,Colorado (CO),81416,,https://www.prcdelta.com/,"https://www.google.com/maps/place/Pregnancy+Resource+Center/@38.7403,-108.074,15z/data=!4m5!3m4!1s0x0:0x177d070a90b95fb9!8m2!3d38.7403!4d-108.074",https://www.facebook.com/DeltaPregnancyResourceCenter/,
Alternatives Pregnancy Center - Auraria Campus,1060 St Francis Way,Denver,Colorado (CO),80204,,https://youhavealternatives.org/request-an-appointment/,"https://www.google.com/maps?ll=39.745077,-105.005976&z=16&t=m&hl=en-US&gl=US&mapclient=embed&q=Tivoli+900+Auraria+Pkwy+Denver,+CO+80204",,
Birthline Inc of Colorado,2346 Gilpin St,Denver,Colorado (CO),80205,,https://birthlinecolorado.org/index.html,,,
Caring Hands Pregnancy Center,2707 W Mississippi Ave,Denver,Colorado (CO),80219,,https://pregnancydenver.com/,,https://www.facebook.com/CaringHandsPC/,https://www.yelp.com/biz/caring-hands-pregnancy-center-denver?fsid=vUJbEUkyKXj-0I99Pjr05g
Marisol Health - Denver East,3894 Olive Street,Denver,Colorado (CO),80207,,https://marisolhealth.com/,"https://www.google.com/maps/place/Marisol+Health/@39.7709616,-104.9064683,15z/data=!4m2!3m1!1s0x0:0xf53f1536ff78cf9d?sa=X&ved=2ahUKEwjMpqvygOjmAhWkVN8KHfJTAFMQ_BIwCnoECAsQCA",,
Women's Resource Center of the Rockies,350 Lake Dillon Dr,Dillon,Colorado (CO),80435,,http://www.wrcoftherockies.org,"https://www.google.com/maps/place/Women's+Resource+Center+of+the+Rockies/@39.629095,-106.04708,15z/data=!4m2!3m1!1s0x0:0x83243de83df3532?sa=X&ved=2ahUKEwjF7dHMp-jmAhVKVd8KHf5BDpMQ_BIwCnoECA0QCA",https://www.facebook.com/WRCRockies/,https://www.yelp.com/biz/womens-resource-center-of-the-rockies-dillon
Durango Pregnancy Center,"1315 Main Ave, Ste 230",Durango,Colorado (CO),81301,,https://www.durangopregnancy.com/,"https://www.google.com/maps/place/Durango+Pregnancy+Center/@37.2783132,-107.8795348,15z/data=!4m5!3m4!1s0x0:0x1e4d438b72b4d5a3!8m2!3d37.2783132!4d-107.8795348",,
Life Choices - Estes Park,1182 Graves Ave,Estes Park,Colorado (CO),80517,,No website,"https://www.google.com/maps/place/1182+Graves+Ave,+Estes+Park,+CO+80517/@40.3691573,-105.5025795,17z/data=!4m13!1m7!3m6!1s0x876965dfb82d6595:0xf327a5ba05952d81!2s1182+Graves+Ave,+Estes+Park,+CO+80517!3b1!8m2!3d40.369066!4d-105.5027027!3m4!1s0x876965dfb82d6595:0xf327a5ba05952d81!8m2!3d40.369066!4d-105.5027027",,
Life's Options Pregnancy Center (formerly Mountain Area Preg. Center),"3721 Evergreen Pkwy, Ste 12",Evergreen,Colorado (CO),80439,,http://lifesoptionspc.org/,"https://www.google.com/maps/place/Life's+Options+Pregnancy+Center/@39.6484227,-105.3421464,15z/data=!4m2!3m1!1s0x0:0xc390ffda38b9552a?sa=X&ved=2ahUKEwj-9I2V_-fmAhUH2FkKHa90DxUQ_BIwCnoECA0QCA",https://www.facebook.com/pages/Mountain-Area-Pregnancy-Center/104224549644029,https://www.yelp.com/biz/mountain-area-pregnancy-center-evergreen
Alpha Center,1212 S College Ave,Fort Collins,Colorado (CO),80524,,http://thealphacenter.org/,,,
Pregnancy Resource Center,1131 Grand Ave,Glenwood Springs,Colorado (CO),81601,,https://www.pregnancycolorado.org/,"https://www.google.com/maps/place/Pregnancy+Resource+Center+(Glenwood+Springs)/@39.541664,-107.325279,15z/data=!4m2!3m1!1s0x0:0x3d2911beea5c6162?sa=X&ved=2ahUKEwjqstHWm-jmAhWSrFkKHWCZAiwQ_BIwCnoECA4QCA",,
Pregnancy Resource Connection,3 Ten Mile Drive ,Granby,Colorado (CO),80446,,https://www.pregnancyresourceconnection.org/,"https://www.google.com/maps/place/Pregnancy+Resource+Connection/@40.0773518,-105.9288508,15z/data=!4m5!3m4!1s0x0:0xeafc39e2e1a0aabf!8m2!3d40.0773518!4d-105.9288508",,
The Pregnancy Center - Main Street,930 Main St,Grand Junction,Colorado (CO),81507,,https://pregnancy-center.org/,"https://www.google.com/search?client=firefox-b-1-d&q=pregnancy+center+grand+junction+co&npsic=0&rflfq=1&rlha=0&rllag=39074364,-108558712,774&tbm=lcl&ved=2ahUKEwiQh6SCpejmAhXPmOAKHbGTCv4QtgN6BAgIEAQ&tbs=lrf:!1m4!1u3!2m2!3m1!1e1!1m4!1u2!2m2!2m1!1e1!2m1!1e2!2m1!1e3!3sIAE,lf:1,lf_ui:2&rldoc=1#rlfi=hd:;si:10608105437231052961;mv:[[39.103949044441634,-108.53661724955447],[39.0615756229853,-108.62416455180056],null,[39.08276551516992,-108.58039090067751],14]",https://www.facebook.com/thepregnancycentergj/,
The Pregnancy Center of Grand Junction,704 Elm Ave,Grand Junction ,Colorado (CO),81507,,,"https://www.google.com/search?client=firefox-b-1-d&q=pregnancy+center+grand+junction+co&npsic=0&rflfq=1&rlha=0&rllag=39074364,-108558712,774&tbm=lcl&ved=2ahUKEwiQh6SCpejmAhXPmOAKHbGTCv4QtgN6BAgIEAQ&tbs=lrf:!1m4!1u3!2m2!3m1!1e1!1m4!1u2!2m2!2m1!1e1!2m1!1e2!2m1!1e3!3sIAE,lf:1,lf_ui:2&rldoc=1#rlfi=hd:;si:15284013858871877463;mv:[[39.12233277016874,-108.51996609599001],[39.037582571546615,-108.6950607004822],null,[39.07997039642135,-108.60751339823611],13]",,
Lighthouse Pregnancy Center,"144 N. Main Street, Suite D",Gunnison,Colorado (CO),81230,,https://lighthousegunnison.org/,"https://www.google.com/maps/place/Lighthouse+Pregnancy+Center/@38.545379,-106.9263651,15z/data=!4m2!3m1!1s0x0:0x7d502eb513955b10?sa=X&ved=2ahUKEwjP-efR_-fmAhWwg-AKHWRMC4wQ_BIwDXoECAgQCA",,
A Caring Pregnancy Resource Ctr of NE CO - Holyoke,246 S. Interocean Ave Ste 204,Holyoke,Colorado (CO),80734,,https://neco-cpc.org/,,,
Arkansas Valley Pregnancy Center,118 W 4th St,La Junta,Colorado (CO),81050,,http://myavpc.com/,,https://www.facebook.com/Arkansas-Valley-Pregnancy-Center-129537717077037/,
Marisol Health - Lafayette (formerly Real Choices Pregnancy Care Center),1285 Centaur Village Dr,Lafayette,Colorado (CO),80026,,https://marisolhealth.com/,,,
Alternatives Pregnancy Center - West Metro: Lakewood,"441 Wadsworth Boulevard, Suite 225",Lakewood,Colorado (CO),80226,,https://youhavealternatives.org/request-an-appointment/,,,https://www.yelp.com/biz/alternatives-pregnancy-center-denver-2
Care Net Pregnancy Center of SE Colorado,201 E Oak,Lamar,Colorado (CO),81052,,https://www.facebook.com/CNPCSEC/,"https://www.google.com/maps/place/Care+Net+Pregnancy+Center/@38.0863472,-102.6173807,15z/data=!4m5!3m4!1s0x0:0x85e3dd2b2600f335!8m2!3d38.0863472!4d-102.6173807",https://www.facebook.com/CNPCSEC/,
Safe Harbor Pregnancy Resource Center,640 E Ave.,Limon,Colorado (CO),80828,,,"https://www.google.com/maps/place/Safe+Harbor+Pregnancy+Resource/@39.2671107,-103.6879119,15z/data=!4m2!3m1!1s0x0:0x2d5ed3effc6d822d?sa=X&ved=2ahUKEwjCxt7So-jmAhUGwlkKHRM_DJoQ_BIwCnoECA4QCA",https://www.facebook.com/safeharborprc/,https://www.yelp.com/biz/safe-harbor-pregnancy-resource-center-limon
Life Choices - Longmont,20 West Mountain View Ave,Longmont,Colorado (CO),80501,,https://lifechoices.org/,"https://www.google.com/maps/place/Life+Choices/@40.1815099,-105.0941477,15z/data=!4m2!3m1!1s0x0:0x5f5297ee9c1faaa5?sa=X&ved=2ahUKEwj2qJqK--fmAhXxp1kKHcmuAocQ_BIwCnoECAwQCA",,
Birthline of Loveland,"1511 E. 11th St, Suite 160",Loveland,Colorado (CO),80537,,https://www.birthlineloveland.org/,,,
Life Choices - Loveland,902 Redwood Dr.,Loveland,Colorado (CO),80538,,https://lifechoices.org/,"https://www.google.com/maps?ll=40.408183,-105.062813&z=12&t=m&hl=en-US&gl=US&mapclient=embed&cid=1463359483610565202",,
Life Choices Family Resource Center,155 Merchant Drive,Montrose,Colorado (CO),81401,,https://lifechoicesmontrose.org/,"https://www.google.com/maps/place/Life+Choices/@38.4905513,-107.8948114,15z/data=!4m2!3m1!1s0x0:0x983fac190c4864e9?sa=X&ved=2ahUKEwiMxc2h_efmAhVxp1kKHaVkARAQ_BIwDHoECAoQCA",,
Aspire Medical Services and Education (formerly THRIVE),602 South 8th St,Pagosa Springs,Colorado (CO),81147,,http://aspirepagosa.org/,"https://www.google.com/maps/place/Aspire+Medical+Services+and+Education/@37.2582132,-107.0168646,15z/data=!4m5!3m4!1s0x0:0xd8ee0dd8053aa97f!8m2!3d37.2582132!4d-107.0168646",https://www.facebook.com/PagosaPregnancyCenter/?fref=ts,
A Caring Pregnancy Center,500 Colorado Ave.,Pueblo,Colorado (CO),81004,(719) 544-9312,https://acpcpueblo.org,,https://www.facebook.com/acpcpueblo/,
Salida Pregnancy Center,215 E 3rd St,Salida,Colorado (CO),81201,,www.salidapregnancycenter.com/,,https://www.facebook.com/Salida-Pregnancy-Resource-Center-133925569993358/,https://www.yelp.com/biz/salida-buena-vista-pregnancy-centers-salida?osq=salida+preg
Selah,1560 Pine Grove Rd Suite D,Steamboat Springs,Colorado (CO),80487,,https://selahsteamboat.com/,"https://www.google.com/maps/place/Selah/@40.4650671,-106.8218476,15z/data=!4m2!3m1!1s0x0:0x473c31cd74d0b897?sa=X&ved=2ahUKEwiv8PvJpOjmAhVnqlkKHXq3Bg0Q_BIwCnoECA4QCA",https://www.facebook.com/SelahSteamboat/,
A Caring Pregnancy Resource Ctr of NE CO - Sterling,118 Main Street #208,Sterling,Colorado (CO),80751,,https://neco-cpc.org/,,,
Hope Pregnancy Center,1532 Santa Fe Trail,Trinidad,Colorado (CO),81082,,,"https://www.google.com/maps/place/Hope+Pregnancy+Center/@37.1571588,-104.5116788,15z/data=!4m2!3m1!1s0x0:0xe004dd89609009d1?sa=X&ved=2ahUKEwjNj87l-ufmAhWjrFkKHRKDBwsQ_BIwCnoECAsQCA",,
The Resource Center - Windsor,424 Main Street,Windsor,Colorado (CO),80550,(970) 833-1679,http://tests4greeley.com/,"https://www.google.com/maps/place/The+Resource+Center+for+Pregnancy+and+Personal+Health/@40.4801534,-104.903627,15z/data=!4m2!3m1!1s0x0:0xd3c75d5fc769881?sa=X&ved=2ahUKEwjhgO2PoujmAhVnvFkKHYQkChsQ_BIwCnoECA4QCA",,
Choices (formerly Teller Pregnancy Resource Center,228 S Baldwin St,Woodland Park,Colorado (CO),80863,,,,,https://www.yelp.com/biz/teller-pregnancy-resource-center-woodland-park?fsid=AjHl-dxKOeX3TcGtvjWPTQ
A Caring Pregnancy Resource Ctr of NE CO - Yuma,529 N. Albany Suite 1205,Yuma,Colorado (CO),80759,,https://neco-cpc.org/,,,
Boulder Pregnancy Resource Center,"2334 Broadway, Suite D",Boulder,Colorado (CO),80304,(303) 960-7915,https://boulderpregnancyresourcecenter.com/,,,
My Choice Greeley, 822 14th Street , Greeley,Colorado (CO),80631,(970) 353-2673,http://www.mychoicegreeley.com/,"https://www.google.com/maps/place/The+Resource+Center/@40.4167108,-104.692255,15z/data=!4m5!3m4!1s0x0:0x27f1034561392dfd!8m2!3d40.4167108!4d-104.692255",,
My Choice Boulder, 1575 Folsom St Millenium Commuter Lounge,Boulder,Colorado (CO),80302,(303) 494-3282,http://mychoiceboulder.com/,,,
MyChoice Resource Center,8380 Zuni St.,Denver,Colorado (CO),80221,(720) 323-5138,mychoicecolorado.com,,,
Marisol Health,3894 Olive St.,Denver,Colorado (CO),80207,(303) 731-6130,marisolhealth.com,,,
Alternatives Pregnancy Center - Clinic,"23 Inverness Way E., Suite 101b","Englewood, CO",Colorado (CO),80112,(303) 295-2288,youhavealternatives.org,,,
Bella Health and Wellness,180 E Hampden Ave,Englewood,Colorado (CO),80113,(303) 789-4968,bellawellness.org,,https://www.facebook.com/Bella.BeWhole/,https://www.yelp.com/biz/bella-health-wellness-englewood