Name ,Address,City,State,Zip Code,Phone Number,Website,Google Business Page,Facebook,Yelp
Care Pregnancy Center of Lenawee,308 N. Broad Street,Adrian,Michigan (MI),49221,,www.cpclenawee.com,,,
Lakeshore Pregnancy Center - Allegan,114 Chestnut Street,Allegan,Michigan (MI),49010,,www.lpcenters.com,,https://www.facebook.com/LakeshorePregnancyCenter/,
Positive Options of Allendale,4623 Lake Michigan Dr,Allendale,Michigan (MI),49401,,www.lpcenters.com,,https://www.facebook.com/LakeshorePregnancyCenter/,
Pregnancy Services of Gratiot County,303 W. Superior St.,Alma,Michigan (MI),48801,,https://www.pregnancyservicesgratiot.com/,,https://www.facebook.com/pg/pregnancyservicesofgratiotcounty/,
Options Pregnancy Center,526 W Chisholm St,Alpena,Michigan (MI),49707,,https://optionspregnancycenter.org/,,https://www.facebook.com/optionspregnancycenteralpena/,
ArborWoman,24 Frank Lloyd Wright Dr Lobby L Suite 2200,Ann Arbor,Michigan (MI),48105,,www.arborwoman.com,,,
"Crossroads Care Center, Inc",3205 South Blvd,Auburn Hills,Michigan (MI),48326,,https://www.crossroadscarecenter.org/,,https://www.facebook.com/CrossroadsCareMI/?ref=ts,
Positive Alternatives,132 E Huron Ave,Bad Axe,Michigan (MI),48413,,http://www.mypositivealternative.com/,"https://www.google.com/maps/place/Positive+Alternatives/@43.8021275,-83.0327081,17z/data=!4m8!1m2!2m1!1sPositive+Alternatives%091037+S+Van+Dyke%09Bad+Axe!3m4!1s0x88268e841267dd87:0x11f240bbbaf2abce!8m2!3d43.8021275!4d-83.0305194",https://www.facebook.com/pages/Positive-Alternatives/475632249147216,
Alternatives of Battle Creek,"1346 W. Columbia Ave., Suite 106",Battle Creek,Michigan (MI),49015,,,,,
Beacon of Hope Pregnancy Care Center,2360 Midland Rd.,Bay City,Michigan (MI),48706,,,,,
Michiana Life Resource Center and Pregnancy Care Center,671 McAllister Ave,Benton Harbor,Michigan (MI),49022,,,,,
Options Pregnancy Resource Center,119 Linden St,Big Rapids,Michigan (MI),49307,,www.carenetberkleydetroit.org,,https://www.facebook.com/carenetpregnancycenterberkleydetroit/,https://www.yelp.com/biz/care-net-pregnancy-information-center-berkley
Care Net of Big Rapids (3186),218 S. Warren Ste C1,Big Rapids,Michigan (MI),49307,,http://www.carenetbigrapids.org,,,
Sound Choices Medical Clinic,"14321 Northland Drive,",Big Rapids,Michigan (MI),49307,,,,,
Pregnancy Help Center,7743 Grand River Ave. #101,Brighton,Michigan (MI),48114,(810) 494-5433,http://www.pregnancyhelpclinic.com/,,,
"Life Resources of Northern MI, Inc.",419 N Lake St,Cadillac,Michigan (MI),49601,,www.liferesourcesnm.org,,,
Sound Choices Medical Clinic,909 S Carmel St #1,Cadillac,Michigan (MI),49601,,,,,
Positive Alternatives,1596 E Caro Rd,Caro,Michigan (MI),48723,,,,,https://www.yelp.com/biz/positive-alternatives-caro
Alpha Family Center of Cedar Springs,6 N First St,Cedar Springs,Michigan (MI),49319,,,,,
AA Crisis Pregnancy Center,217 N Bailey,Cheboygan,Michigan (MI),49721,,,,,
Hope Pregnancy Center,3557 E Colonville Rd,Clare,Michigan (MI),48617,,,,,
Compassion Pregnancy Center,37540 S Gratiot Suite 100,Clinton Township,Michigan (MI),48036,,www.compassionpregnancy.org,,https://www.facebook.com/CompassionPregnancyCenter/,
"Heartfelt Family Services, Inc.",42627 Garfield Suite 214,Clinton Township,Michigan (MI),48038,,,,,
Beginnings Care for Life Center,16 N Clay St ,Coldwater,Michigan (MI),49036,,,,,
Lennon Pregnancy Center,24275 Ann Arbor Trail,Dearborn Heights,Michigan (MI),48127,(313) 277-5637,https://www.lennoncenter.org/,,https://www.facebook.com/thelennoncenter/,https://www.yelp.com/biz/lennon-pregnancy-center-dearborn-heights
Care Net Pregnancy Center Detroit,13864 Grand River Ave.,Detroit,Michigan (MI),48227,,www.carenetberkleydetroit.org,,https://www.facebook.com/carenetpregnancycenterberkleydetroit/,https://www.yelp.com/biz/care-net-pregnancy-information-center-berkley
Detroit Pregnancy Test & Help Center,933 Seven Mile Road,Detroit,Michigan (MI),48235,,,,,
Pregnancy Aid Detroit,15847 8 Mile Rd ,East Point,Michigan (MI),48021,,http://www.pregnancyaiddetroit.org/,,,https://www.yelp.com/biz/pregnancy-aid-detroit
Bethany Christian Services,612 W Lake Lansing Rd Suite 600,East Lansing,Michigan (MI),48823,,https://impregnant.org/ /// https://bethany.org/locations/us/michigan/east-lansing,"https://www.google.com/maps/place/Bethany+Christian+Services/@42.7597888,-84.4915225,15z/data=!4m5!3m4!1s0x0:0x86c43c1f47bf7240!8m2!3d42.7597888!4d-84.4915225",https://www.facebook.com/bethanyfans,
Pregnancy Services,1045 E Grand River Ave,East Lansing,Michigan (MI),48823,,https://pregnancylansing.com/,https://www.google.com/maps?q=Pregnancy+Services+1045+E+Grand+River+Ave+East+Lansing+MI&um=1&ie=UTF-8&sa=X&ved=0ahUKEwjftuTF0PnbAhWyxFkKHXhwCU0Q_AUICigB,https://www.facebook.com/pg/pregnancy.choices.7/about/,https://www.yelp.com/biz/pregnancy-services-of-east-lansing-east-lansing
Harbor Lights Pregnancy & Information Center,310 Newman St,East Tawas,Michigan (MI),48730,,,,,
Pregnancy Services of Delta Cty,1801 Ludington St.,Escanaba,Michigan (MI),49829,,,,,
A Woman's Pregnancy Choice,31700 W 12 Mile Rd Ste 102,Farmington Hills,Michigan (MI),48334,,http://www.womanspregnancychoice.com/,,,
The Listen Center,508 N Adelaide St,Fenton,Michigan (MI),48430,,,,,
Answer Center for Women,2414 Hemphill Rd,Burton,Michigan (MI),48529,,,,,
Pregnancy Resource Center Of Flint,3404 Saginaw St,Flint,Michigan (MI),48503,,www.flintcps.org,,,
Heartbeat of Greater Flint,320 E 4th St,Flint,Michigan (MI),48502,,,,,
Bethany Christian Services - Fremont,6995 W 48th St.,Fremont,Michigan (MI),49412,,https://impregnant.org/,"https://www.google.com/maps/place/Bethany+Christian+Services/@43.4676158,-85.973441,15z/data=!4m2!3m1!1s0x0:0x329db6c1ad4173e0?sa=X&ved=2ahUKEwjiy4DDqI_tAhUKTd8KHcN6BqYQ_BIwCnoECBIQAw",https://www.facebook.com/bethanyfans,
New Life Pregnancy Resource Ctr,705 S Otsego Ave,Gaylord,Michigan (MI),49735,,www.gaylordnewlife.com,,https://www.facebook.com/newlifeprc.gaylord,
Positive Options of Grand Haven,"700 Washington, Ste 130",Grand Haven,Michigan (MI),49417,,www.lpcenters.com,,,
Alpha Women's Center of Grand Rapids,1725 Division Ave S,Grand Rapids,Michigan (MI),49507,,www.alphawc.org,,,
Bethany Christian Services - Grand Rapids,901 Eastern Ave NE,Grand Rapids,Michigan (MI),49503,,https://impregnant.org/ // https://bethany.org/locations/us/michigan/grand-rapids,"https://www.google.com/search?client=firefox-b-1-d&q=Bethany%20Christian%20Services%20-%20Grand%20Rapids&tbs=lf:1,lf_ui:4&tbm=lcl&rflfq=1&num=10&rldimm=12682224284222337856&lqi=CilCZXRoYW55IENocmlzdGlhbiBTZXJ2aWNlcyAtIEdyYW5kIFJhcGlkcyIDiAEBWkUKGmJldGhhbnkgY2hyaXN0aWFuIHNlcnZpY2VzIidiZXRoYW55IGNocmlzdGlhbiBzZXJ2aWNlcyBncmFuZCByYXBpZHM&ved=2ahUKEwiVnaHNqI_tAhVFTt8KHQdeCccQvS4wAHoECAEQDA&rlst=f",https://www.facebook.com/bethanyfans,
"HELP Pregnancy Crisis Aid, Inc.",705 Bridge St NW,Grand Rapids,Michigan (MI),49504,,www.helppregnancy.org,,,
Pregnancy Resource Center,"2438 28th St SW, Suite A",Grand Rapids,Michigan (MI),49504,,,,,
Pregnancy Resource Center,415 Cherry St SE,Grand Rapids,Michigan (MI),49503,,http://www.prcgr.org/,,,
Alpha Family Center of Greenville,705 N Hillcrest St,Greenville,Michigan (MI),48838,,,,,
Sawyer Care Clinic,330 Fortress St,Gwinn,Michigan (MI),49841,,,,,
Holy Family Healthcare,301 N Center St,Hartford,Michigan (MI),49057,,www.holyfamilyhealthcare.org,,,
My Alpha Place,838 W Green St,Hastings,Michigan (MI),49058,,,,,
Bethany Christian Services - Holland,11335 James St ,Holland,Michigan (MI),49424,,https://impregnant.org/ /// https://bethany.org/locations/us/michigan/holland,"https://www.google.com/maps/place/Bethany+Christian+Services/@42.8130747,-86.0617311,15z/data=!4m5!3m4!1s0x0:0x18d57a2b880efad8!8m2!3d42.8130747!4d-86.0617311",https://www.facebook.com/bethanyfans,
Lakeshore Pregnancy Center - Holland,339 S River Ave.,Holland,Michigan (MI),49423,,www.lpcenters.com,,,
Life Outreach Center,300B Quincy St,Hancock,Michigan (MI),49930,,,,,
Positive Solutions Informed Choices,330 Lovell St,Ionia,Michigan (MI),48846,,https://www.psicionia.org/schedule-appointment,"https://www.google.com/maps/place/Positive+Solutions+%E2%80%A2+Informed+Choices/@42.9866912,-85.0447392,15z/data=!4m2!3m1!1s0x0:0x69a7ea913f7d66dd?sa=X&ved=2ahUKEwi_ibuE4JLkAhWBnFkKHT44AOoQ_BIwCnoECAoQCA",https://www.facebook.com/PositiveSolutionsInformedChoices/,
Walk of Life Pregnancy Services,1018 Cedar Ave,Iron Mountain,Michigan (MI),49801,,http://www.wolpregnancyservices.com/,,https://www.facebook.com/pages/Walk-of-Life-Pregnancy-Services/161891603838721,https://www.yelp.com/biz/walk-of-life-pregnancy-services-iron-mountain
New Beginnings Pregnancy Support Services,126 W Aurora St,Ironwood,Michigan (MI),49938,,,"https://www.google.com/maps/place/New+Beginnings+Pregnancy+Support+Services/@46.4532601,-90.1709367,15z/data=!4m2!3m1!1s0x0:0x7056a5927f373467?sa=X&ved=2ahUKEwjM_oiCx5nkAhVDrVkKHYI5BYkQ_BIwCnoECA8QCA",https://www.facebook.com/NewBeginningspregnancy/,
"Birthline of Jackson, Inc.",1000 E Porter St. Ste 1,Jackson,Michigan (MI),49202,,http://www.birthlinejackson.org,,https://www.facebook.com/birthlinejackson,
Center for Women,500 Lansing Ave,Jackson,Michigan (MI),49201,,,,,
Alternatives,"4200 W. Michigan Ave., Suite 100",Kalamazoo,Michigan (MI),49006,,http://www.alternativescc.org/Locations/Kalamazoo,,,
Bethany Christian Services - Kalamazoo,6687 Seeco Drive,Kalamazoo,Michigan (MI),49009,,https://impregnant.org/ /// https://bethany.org/locations/us/michigan/southwest-michigan,"https://www.google.com/maps/place/Bethany+Christian+Services/@42.2927424,-85.6808904,15z/data=!4m5!3m4!1s0x0:0xe0d3c43a56ff6783!8m2!3d42.2927424!4d-85.6808904",https://www.facebook.com/bethanyfans,
Shared Pregnancy Women's Center,831 N Washington Ave,Lansing,Michigan (MI),48906,,,,,
Pregnancy Resource Center of Lapeer,1715 Imlay City Road,Lapeer,Michigan (MI),48446,,,,,
Pregnancy Center Lincoln Park,1760 Fort St,Lincoln Park,Michigan (MI),48146,(313) 386-4005,http://pregnancyhelplincolnpark.com,,http://m.facebook.com/profile.php?id=100043103607061&refsrc=deprecated&_rdr,http://yelp.to/0x8U28u6Upb
AAA,"32080 Schoolcraft,",Livonia,Michigan (MI),48150,,https://aaapregnancyinfo.org/index.php,"https://www.google.com/maps/place/AAA+Pregnancy+Resource+Center/@42.383555,-83.3605329,15z/data=!4m2!3m1!1s0x0:0x6edce183a521a673?sa=X&ved=2ahUKEwikh8Pc6ZLkAhUoU98KHd4zB9sQ_BIwCnoECAsQCA",https://www.facebook.com/aaapregnancyctr,https://www.yelp.com/biz/aaa-pregnancy-resource-center-livonia-2
Wee Care,32540 Schoolcraft St #20,Livonia,Michigan (MI),48150,,,,,
Alpha Family Center of Lowell,519 E. Main St.,Lowell,Michigan (MI),49331,,,,,
West Shore Pregnancy & Family Support,603 E Tinkham Ave,Ludington,Michigan (MI),49431,,www.wspcc.org,,https://www.facebook.com/WSPregFamSup/,
Bethany Christian Services ,18000 W Nine Mile Rd Suite #950,Southfield,Michigan (MI),48075,,https://impregnant.org/ // https://bethany.org/locations/us/michigan/southeast-michigan,"https://www.google.com/maps/place/Bethany+Christian+Services/@42.5173879,-83.1116239,15z/data=!4m5!3m4!1s0x0:0x56d5f891a0baef28!8m2!3d42.5173879!4d-83.1116239",https://www.facebook.com/bethanyfans,
Lighthouse Pregnancy Care Center,215 Maple St,Manistee,Michigan (MI),49660,,https://www.lighthousepcc.org/,,,
Care Clinic,1213 N 3rd St,Marquette,Michigan (MI),49855,(906) 228-2273,www.careclinicmqt.org,,,
Melvindale Crisis Pregnancy Center,17729 Flint,Melvindale,Michigan (MI),48122,,,,,
Pregnancy Aid of Midland Cty,1025 Wheeler St,Midland,Michigan (MI),48642,,,,,
Pregnancy Resource Center of Mid-Michigan,4818 N Saginaw Rd,Midland,Michigan (MI),48640,,www.prcmidland.org,,,
His Love Family Resource (2622),421 Shepard St.,Mio,Michigan (MI),48647,,http://www.mipregnancyresources.org,,,
Heartbeat of Monroe,123 W First St,Monroe,Michigan (MI),48161,,www.heartbeatofmonroe.org,,,
Life Choices of Central Michigan,904 E Preston Street,Mt Pleasant,Michigan (MI),48858,(989) 773-6008,http://www.lifechoicescm.com,,http://www.facebook.com/Life-Choices-of-Central-Michigan-164113563602478,
Bethany Christian Services,175 West Apple Avenue ,Muskegon,Michigan (MI),49440,,https://bethany.org/locations/us/michigan/muskegon /// https://impregnant.org/,"https://www.google.com/maps/place/Bethany+Christian+Services/@43.2339733,-86.2480401,15z/data=!4m5!3m4!1s0x0:0x2315f5191bcd621b!8m2!3d43.2339733!4d-86.2480401",https://www.facebook.com/bethanyfans,
Muskegon Pregnancy Services,1775 Wells Ave,Muskegon,Michigan (MI),49442,,,,,
Insight Pregnancy Services,1007 W Main St ,Fremont,Michigan (MI),49412,(231) 335-2413,www.insightpregnancy.com,https://g.co/kgs/wS89Qt,https://www.facebook.com/InsightPregnancy,https://m.yelp.com/biz/insight-pregnancy-services-fremont
Life Plan,527 E Main St ,Niles,Michigan (MI),49120,,www.pccniles.com,,,
Pregnancy Resource Center,224 N Ball St,Owosso,Michigan (MI),48867,,,,,
Oxford Pregnancy Center,35 N Washington St,Oxford,Michigan (MI),48371,(248) 969-2177,www.oxfordpregnancycenter.org,,https://www.facebook.com/opc35/,https://www.yelp.com/biz/oxford-pregnancy-center-oxford
Pregnancy Care Center of Petoskey,"2206 Mitchell Park Dr, Suite 9",Petoskey,Michigan (MI),49770,,www.petoskeypcc.org,,,
Next Step Women and Teens Crisis Pregnancy Center,263 Cesar E. Chavez,Pontiac,Michigan (MI),48342,,https://womenandteens.org/,,,
Portland Crisis Pregnancy Information,845 Ionia Rd,Portland,Michigan (MI),48875,,,,,
Pregnancy Care Center,25545 5 Mile Rd,Redford,Michigan (MI),48239,,,,,
Redford Pregnancy Care Center,25545 W. Five Mile Rd.,Redford,Michigan (MI),48239,(313) 952-2147,http://www.redfordpcc.com/,,http://none,
ICU Mobile Detroit,2310 Dutton Rd,Rochester,Michigan (MI),48306,,ww.icubirthchoice.com,,,
Cradles of Grace,5821 Arbol Court NE,Rockford,Michigan (MI),49341,,,Adoption- keep,,
"Abortion Alternatives Information, Inc.",705 Hoyt Ave,Saginaw,Michigan (MI),48607,,,,,
Pregnancy Counseling Center,916 Gratiot Ave,Saginaw,Michigan (MI),48602,,,,,
Pregnancy Resource Center of Mid-Michigan - Saginaw,723 Emerson,Saginaw,Michigan (MI),48607,,www.prcmidland.org,,,
Care Net Pregnancy Center of EUP,1420 Ashmun St,Sault St Marie,Michigan (MI),49783,,www.euppregnancyoptions.org,,,
Birthright,8076 21 Mile Rd.,Shelby Township,Michigan (MI),48317,,,"https://www.google.com/maps/place/Birthright+of+Macomb+County/@42.640554,-83.032112,15z/data=!4m5!3m4!1s0x0:0xc04d2f10748b0a1!8m2!3d42.640554!4d-83.032112",,
Mother and Unborn Baby Care,24500 Southfield Rd.,Southfield,Michigan (MI),48075,(248) 559-7440,https://www.maubc.org/,,https://www.facebook.com/motherandunbornbabycare/,
Problem Pregnancy Center,24500 Southfield Road,Southfield,Michigan (MI),48075,,http://www.problempregnancycenter.com/,,,https://www.yelp.com/biz/problem-pregnancy-center-southfield
Northline Women's Health Center,15675 Northline Rd.,Southgate,Michigan (MI),48195,(734) 282-3600,http://www.northlinewomenshealthcenter.com/,,,
Birthright,2700 Niles Ave,St Joseph,Michigan (MI),49085,,,"https://www.google.com/maps/place/Birth+Right/@42.08701,-86.485731,15z/data=!4m5!3m4!1s0x0:0x4bd2fbc5e6ca4bcb!8m2!3d42.08701!4d-86.485731",https://www.facebook.com/pages/Birthright/169585673054993,
Abigayle Ministries,12313 - 19 Mile Rd,Sterling Heights,Michigan (MI),48313,,,,,
Sturgis Pregnancy Helpline,1125 N. Nottawa,Sturgis,Michigan (MI),49091,,,,,
Guiding Hand Pregnancy Refuge,16994 Telegraph Road,Taylor,Michigan (MI),48180,,,,,
Three Rivers Pregnancy Helpline Center,172 E Michigan Ave,Three Rivers,Michigan (MI),49093,,www.pregnancyhelpline.org,,,
Bethany Christian Services - Traverse City,"1055 Carriage Hill Dr, Ste 2",Traverse City,Michigan (MI),49686,,https://impregnant.org/  // https://bethany.org/locations/us/michigan/traverse-city,"https://www.google.com/maps/place/Bethany+Christian+Services/@44.7193603,-85.5966567,15z/data=!4m2!3m1!1s0x0:0x6b12e89105815610?sa=X&ved=2ahUKEwi_jbfNqY_tAhVMSzABHTqUB_QQ_BIwDHoECBUQAw",https://www.facebook.com/bethanyfans,
Thrive Medical Clinic ,"121 S. Garfield, Ste. C",Traverse City,Michigan (MI),49686,,www.pregnancycarecentertc.org,,,
Birth Choice Pregnancy Resource Center,3990 W. Walton Blvd. Ste A,Waterford,Michigan (MI),48329,,,,,
Caring Pregnancy Center ,335 E. Houghton Ave.,West Branch,Michigan (MI),48661,,,,,
Options Resource Clinic/Caring Pregnancy Ctr,"575 Court Street, Ste 4",West Branch,Michigan (MI),48661,,www.chooselifeconnection.org,,,
Pregnancy Resource Center,"2438 28th St SW, #A",Wyoming,Michigan (MI),49519,,www.prcforlife.org,,,
Family Life Services,2950 Packard Rd,Ypsilanti,Michigan (MI),48108,,"www.flscenter.com, http://familylifeservicesclinic.com/",,,
Spero Center (Formerly Blue Water Pregnancy Care Center) ,1211 Griswold St.,Port Huron,Michigan (MI),48060,(810) 985-4673,https://sperocenter.com/,https://web.bluewaterchamber.com/Health-and-Medicine/Spero-Pregnancy-Center-1512,https://www.facebook.com/Spero-Center-102776663093994/,https://www.yelp.com/biz/spero-center-port-huron
Madison Family Planning,26040 John R Rd,Madison Heights,Michigan (MI),48071,(586) 243-0747,,,,
Women's Care Center,621 E Main St,Niles,Michigan (MI),49120,(269) 684-4040,https://supportwomenscarecenter.org/locations/niles/,,,https://www.yelp.com/biz/womens-care-center-niles
Spero Center / Blue Water Babies,1211 Griswold St,Port Huron,Michigan (MI),48060,(810) 985-4673,sperocenter.com,,https://m.facebook.com/100063767160918/,