Name ,Address,City,State,Zip Code,Phone Number,Website,Google Business Page,Facebook,Yelp
"'The Pregnancy Help Center of San Gabriel Valley,",902 E Main Street,Alhambra,California (CA),91801,(626) 309-0788,https://pregnancyhelpsgv.org/,,,https://yelp.to/Dlpi2MtU8qb
Obria Medica Clinics,120 N Janss St.,Anaheim,California (CA),92805,,https://www.obria.org/locations/anaheim-ca/,"https://www.google.com/maps?ll=33.834364,-117.920918&z=15&t=m&hl=en-US&gl=US&mapclient=embed&q=120+N+Janss+St+Anaheim,+CA+92805",,
Calaveras Pregnancy Center - A Door of Hope,"571 Stanislaus Ave., Suite J",Angels Camp,California (CA),95222,,https://cdohope.org/,"https://www.google.com/maps/place/Calaveras+Door+of+Hope+Pregnancy+Center/@38.076234,-120.5523677,17z/data=!3m1!4b1!4m5!3m4!1s0x80909595775aecfd:0x2bb0de735a3b13e1!8m2!3d38.076234!4d-120.550179",https://www.facebook.com/cdohope/info,
Tree of Life Pregnancy Support Center - Atascadero,"7730 Morro Road, Suite 106",Atascadero,California (CA),93422,,http://www.treeoflifepsc.com/contact,"https://www.google.com/maps/place/Tree+of+Life+Pregnancy+Support+Center/@35.475436,-120.6704617,17z/data=!3m1!4b1!4m5!3m4!1s0x80ece82da09f25df:0x78093aa86839d9c6!8m2!3d35.475436!4d-120.668273",https://www.facebook.com/Tree-of-Life-Pregnancy-Support-Center-127534295259/,https://www.yelp.com/biz/tree-of-life-pregnancy-support-center-atascadero
Bakersfield Pregnancy Center,1801 18th St,Bakersfield,California (CA),93301,,http://wehelpyou.org/,"https://www.google.com/maps/place/Bakersfield+Pregnancy+Center/@35.375128,-119.0248647,17z/data=!3m1!4b1!4m5!3m4!1s0x80ea698cd32e5d11:0x7a5eb90239f9fe91!8m2!3d35.375128!4d-119.022676",https://www.facebook.com/bakersfieldpregnancycenter/,https://www.yelp.com/biz/bakersfield-pregnancy-center-bakersfield
Barstow Pregnancy Center,521 E Williams,Barstow,California (CA),92311,,https://pregnancycenterbarstow.com/,"https://www.google.com/maps/place/Barstow+Pregnancy+Center/@34.8978008,-117.0242338,17z/data=!3m1!4b1!4m5!3m4!1s0x80c47c82962f50e3:0xfb3217347e84b726!8m2!3d34.8978008!4d-117.0220451",https://www.facebook.com/BarstowPregnancyCenter/,
Birthright of Brentwood,857 2nd St - Ste D,Brentwood,California (CA),94513,,http://birthright.org/brentwood,"https://www.google.com/maps/place/Birthright+of+Brentwood/@37.935099,-121.6978407,17z/data=!3m1!4b1!4m5!3m4!1s0x808ffeeaba079803:0x81486cd408746cee!8m2!3d37.935099!4d-121.695652",https://www.facebook.com/brentwoodbirthright/,https://www.yelp.com/biz/birthright-international-brentwood?osq=birthright
Women's Resource Clinic,115 W. 2nd Avenue,Chico,California (CA),95926,(530) 897-6101,https://www.womensresourceclinic.org/,"https://www.google.com/maps/place/Women's+Resource+Clinic/@39.738422,-121.8489047,17z/data=!3m1!4b1!4m5!3m4!1s0x808327984ce4902d:0x30a4d694510774e2!8m2!3d39.738422!4d-121.846716",https://www.facebook.com/Womens-Resource-Clinic-134223569935367,https://www.yelp.com/biz/womens-resource-clinic-chico
Birthright of Chico,1280 E. 9th Street #B,Chico,California (CA),95928,(530) 345-9711,http://birthright.org/chico,"https://www.google.com/maps/place/Birthright/@39.761074,-121.8494398,17z/data=!3m1!4b1!4m5!3m4!1s0x8082d87a51db96d5:0x3dc4cff6820d563a!8m2!3d39.761074!4d-121.8472511",https://www.facebook.com/pages/Birthright/161442607209854,https://www.yelp.com/biz/abortion-alternatives-birthright-chico
Trinity Pregnancy Resource Center,350 Trinity Avenue,Chowchilla,California (CA),93610,,http://tprcenter.org/,https://www.google.com/maps?q=Trinity+Pregnancy+Resource+Center+209+S+4th+St+Chowchilla+CA&um=1&ie=UTF-8&sa=X&ved=0ahUKEwiN6I_vpKncAhUnmuAKHaZJAvcQ_AUICigB,https://www.facebook.com/pages/Trinity-Pregnancy-Resource-Center/123051944734392,https://www.yelp.com/biz/trinity-pregnancy-resource-center-chowchilla
Birthline of Chula Vista,1220 3rd Ave #1,Chula Vista,California (CA),91911,,http://birthlineofsandiego.org/,"https://www.google.com/maps/place/Birthline+of+San+Diego+County/@32.6094347,-117.0698959,17z/data=!3m1!4b1!4m5!3m4!1s0x80d94e87de76a839:0xfa220252995061c7!8m2!3d32.6094347!4d-117.0677072",https://www.facebook.com/BirthlineSD/,https://www.yelp.com/biz/birthline-of-san-diego-county-chula-vista
Silent Voices,"355 ""K"" St, Ste H",Chula Vista,California (CA),91911,,https://www.silentvoices.org/,"https://www.google.com/maps/place/Silent+Voices/@32.6235873,-117.0779459,17z/data=!3m1!4b1!4m5!3m4!1s0x80d94e76ed481159:0x162f8fa171889e49!8m2!3d32.6235873!4d-117.0757572",https://www.facebook.com/Silent-Voices-International-126129034087817/,https://www.yelp.com/biz/silent-voices-international-chula-vista
Grace Elliot Center,2817 N Wilmington,Compton,California (CA),90222,,http://www.graceelliottcenter.org/,"https://www.google.com/maps/place/The+Grace+Elliott+Center/@33.9177601,-118.2417561,17z/data=!3m1!4b1!4m5!3m4!1s0x80c2cbba61cc624d:0xd3ec4e48ae6c0f7b!8m2!3d33.9177601!4d-118.2395674",,https://www.yelp.com/biz/grace-elliott-pre-natal-clinic-compton
Birthright of Concord,3106 Clayton Road,Concord,California (CA),94519,,http://birthright.org/concord,"https://www.google.com/maps/place/Birthright+of+Concord/@37.9733256,-122.0240065,17z/data=!3m1!4b1!4m5!3m4!1s0x808567338d23d465:0xbf60bde0a5418ed2!8m2!3d37.9733256!4d-122.0218178",https://www.facebook.com/pages/Birthright/159840180707187,https://www.yelp.com/biz/birthright-concord
Options for Women of CA,"5167 Clayton Road, Suite H",Concord,California (CA),94512,,https://optionshealth.org/,"https://www.google.com/maps/place/Options+for+Women+of+California/@37.955875,-121.9687767,17z/data=!3m1!4b1!4m5!3m4!1s0x80855e39ab9566a9:0xb3869ceb81abbdbc!8m2!3d37.955875!4d-121.966588",https://www.facebook.com/friendsofofw/,https://www.yelp.com/biz/options-for-women-of-california-concord
Corona Life Services,"623 N Main St, Ste D6",Corona,California (CA),92880,,https://www.clspregnancy.com/ and https://coronalife.org/,"https://www.google.com/maps/place/Corona+Life+Services/@33.888027,-117.5631998,15z/data=!4m2!3m1!1s0x0:0x3c93322e54d33a90?sa=X&ved=2ahUKEwiyqZySuOzvAhWkdN8KHeqRA_UQ_BIwGnoECDIQBQ",,
Pregnancy Care Center,110 W Washington Blvd,Crescent City,California (CA),95531,,https://optionsforpregnancy.com/free-clinic/the-pregnancy-care-center-of-crescent-city/,"https://www.google.com/maps/place/Pregnancy+Care+Center+of+Crescent+City/@41.7725304,-124.2081005,15.97z/data=!4m5!3m4!1s0x54d0661c9d22ffd3:0x9129ffb5110fdc2c!8m2!3d41.7731141!4d-124.2038659",,https://www.yelp.com/biz/pregnancy-care-center-crescent-city
Mountain Pregnancy Center,461 S Dart Canyon Rd,Crestline,California (CA),92325,,http://mtnpregnancy.org/,https://www.google.com/maps?q=Mountain+Pregnancy+Center+461+S+Dart+Canyon+Rd+Crestline+CA&um=1&ie=UTF-8&sa=X&ved=0ahUKEwiRiIzfqKncAhUuVd8KHU_TDK8Q_AUICigB,https://www.facebook.com/realized.hope/,https://www.yelp.com/biz/mountain-pregnany-center-crestline
Dawnings Pregnancy Resource Center,682 S 1st Ave,Dinuba,California (CA),93618,,http://www.dawningsprc.com/,"https://www.google.com/maps/place/Dawnings+Pregnancy+Resource+Center+of+Dinuba/@36.5407267,-119.3844522,17z/data=!3m1!4b1!4m5!3m4!1s0x80951e65523a9d0b:0x400022a6e70343ed!8m2!3d36.5407267!4d-119.3822635",https://www.facebook.com/Dawnings-Pregnancy-Resource-Center-Of-Dinuba-155337634490651/?rf=854389531263234,
Living Help Center,8345 Firestone Blvd #300,Downey,California (CA),90241,,https://www.livinghelpcenter.org/,"https://www.google.com/maps/place/LivingHelp+Center/@33.9395948,-118.1312581,15z/data=!4m2!3m1!1s0x0:0x499c3fe5e2e9c6c2?sa=X&ved=0ahUKEwjYy8ejy_nbAhWhzIMKHX2vDcYQ_BIIbzAK",https://www.facebook.com/LivingHelp-Center-757821554314692/,https://www.yelp.com/biz/livinghelp-center-downey
Foothills Pregnancy Resource Center,"924 Buena Vista St, Suite 202",Duarte,California (CA),91010,,http://www.foothillsprc.org/,"https://www.google.com/maps/place/Foothills+Pregancy+Resource/@34.141769,-117.9794314,17z/data=!3m1!4b1!4m5!3m4!1s0x80c2d9037f173cc5:0x2a4a4dec64f8a2b3!8m2!3d34.141769!4d-117.9772427",https://www.facebook.com/Foothills-Pregnancy-Resource-Center-735374859898949/,https://www.yelp.com/biz/foothill-pregnancy-resource-center-duarte
Pregnancy Care Clinic,677 S Magnolia Ave,El Cajon,California (CA),92020,,http://www.unplannedparenthood.org/,"https://www.google.com/maps/place/Pregnancy+Care+Clinic/@32.787923,-116.9641497,17z/data=!3m1!4b1!4m5!3m4!1s0x80d959eac8c0e86d:0xfe76c1d6b4f1dea0!8m2!3d32.787923!4d-116.961961",https://www.facebook.com/ecpcc.org/,https://www.yelp.com/biz/pregnancy-care-clinic-el-cajon
Real Hope Center,"548 W Main St, Suite B",El Centro,California (CA),92243,,https://www.elcentropregnancy.org/contact-us,"https://www.google.com/maps/place/Real+Hope+Center/@32.7932282,-115.5579796,17z/data=!3m1!4b1!4m5!3m4!1s0x80d760c145da3577:0x3a6118a7b1559249!8m2!3d32.7932282!4d-115.5557963",https://www.facebook.com/realhopecenter/,
Birth Choice of Imperial Valley,"229 S 8th St, Ste C",El Centro,California (CA),92243,,http://www.birthchoice-elcentro.com/,"https://www.google.com/maps/place/Birth+Choice/@32.7911728,-115.5633613,17z/data=!3m1!4b1!4m5!3m4!1s0x80d7672e148cb683:0x2a2ffa5307920a1d!8m2!3d32.7911728!4d-115.561178",https://www.facebook.com/Birth-Choice-Of-Imperial-Valley-515765045103569/,
COLFS Medical Clinic (Culture of Life Family Services),362 W Mission Ave Unit 105,Escondido,California (CA),92025,,https://www.colfs.org/,"https://www.google.com/maps/place/Colfs+Medical+Clinic+-+Escondido/@33.1292674,-117.0933049,17z/data=!3m1!4b1!4m5!3m4!1s0x80dbf4bd355f660d:0x5ab291f364f82df0!8m2!3d33.1292674!4d-117.0911162",https://www.facebook.com/colfs.sd/about,https://www.yelp.com/biz/colfs-medical-clinic-escondido-escondido
Alternatives Medical Clinic,257 E 2nd Ave,Escondido,California (CA),92025,,http://alternativespregnancycareclinic.org/,"https://www.google.com/maps/place/Alternatives+Medical+Clinic/@33.1218958,-117.0803402,17z/data=!3m1!4b1!4m5!3m4!1s0x80dbf362917ececd:0xcc2bcd0464e9c053!8m2!3d33.1218958!4d-117.0781515",https://www.facebook.com/alternativesmc/,http://www.yelp.com/biz/alternatives-womens-center-escondido
Pregnancy Care Center of the North Coast,2390 Myrtle Ave,Eureka,California (CA),95501,,http://www.pcceureka.org/,"https://www.google.com/maps/place/Pregnancy+Care+Center/@40.7856498,-124.133794,17z/data=!3m1!4b1!4m5!3m4!1s0x54d3ffb40f185411:0x84442c811f2ceb7c!8m2!3d40.7856498!4d-124.1316053",https://www.facebook.com/Pregnancy-Care-Center-of-the-North-Coast-288042150449/,https://www.yelp.com/biz/pregnancy-care-center-eureka
J. Rophe Medical,"1626 Myrtle Avenue, Suite C",Eureka,California (CA),95501,,https://www.jrophemedical.org/,"https://www.google.com/maps/place/J+Rophe+Medical/@40.7944753,-124.1386659,17z/data=!3m1!4b1!4m5!3m4!1s0x54d3ffb7eb336a79:0x38713c1ecf92e352!8m2!3d40.7944753!4d-124.1364772",,https://www.yelp.com/biz/j-rophe-medical-eureka
Hope Clinic for Women (formerly Fallbrook PRC),125 E. Hawthorne St.,Fallbrook,California (CA),92828,,https://www.hopefallbrook.com/,"https://www.google.com/maps/place/Fallbrook+Pregnancy+Resource+Center/@33.382621,-117.2530907,17z/data=!3m1!4b1!4m5!3m4!1s0x80dc7e966ee2d76b:0xe4e062f509392d72!8m2!3d33.382621!4d-117.250902",http://www.facebook.com/Fallbrook-Pregnancy-Resource-Center-230257626995521/,http://www.yelp.com/biz/fallbrook-pregnancy-resource-center-fallbrook
Fallbrook Pregnancy Resource Center,221 N Pico Ave,Fallbrook,California (CA),92028,(760) 728-4105,http://www.fallbrookprc.com/,,http://www.facebook.com/Fallbrook-Pregnancy-Resource-Center-230257626995521/,http://www.yelp.com/biz/fallbrook-pregnancy-resource-center-fallbrook
Assure Pregnancy Clinic,"    17057 Foothill Blvd., Suite 204",Fontana,California (CA),92335,,https://assurepregnancy.org/,"https://www.google.com/maps/place/Assure+Pregnancy+Clinic/@34.1059048,-117.4351867,17z/data=!3m1!4b1!4m5!3m4!1s0x80c34c9255555555:0xb62e80d4103bbb2b!8m2!3d34.1059048!4d-117.432998",https://d.facebook.com/AssurePregnancyClinic/?__tn__=%2AsH-R,https://www.yelp.com/biz/assure-pregnancy-clinic-fontana-2
The Vine Pregnancy Center,3105 Mount Pinos Way,Frazier Park,California (CA),93225,,https://thevinepregnancycenter.org/,"https://www.google.com/maps/place/The+Vine+Pregnancy+Center/@34.8213864,-118.9479125,17z/data=!4m8!1m2!2m1!1sThe+Vine+Pregnancy+Center+3604+Arroyo+Trail+Unit+A+Frazier+Park+CA!3m4!1s0x80e9ee03f2561f91:0x7322d50b439821c4!8m2!3d34.8215619!4d-118.9457696",https://www.facebook.com/thevinepregnancycenter/,
Pregnancy Care Center - Tower District Clinic,1127 E. Olive Ave.,Fresno,California (CA),93728,,http://pregnancycarecenter.com/ / http://www.care4mybody.com,"https://www.google.com/maps/place/Pregnancy+Care+Center/@36.7579482,-119.7973822,15z/data=!4m5!3m4!1s0x0:0xbc08e43af5d0488e!8m2!3d36.7579482!4d-119.7973822",https://www.facebook.com/pregnancycarecenterfresno/,https://www.yelp.com/biz/pregnancy-care-center-fresno-2
Pregnancy Care Center - North Satellite Clinic,7005 N. Maple 101-B,Fresno,California (CA),93720,,http://pregnancycarecenter.com/,,,https://www.yelp.com/biz/pregnancy-care-center-fresno-3
Bethany Christian Services,2610 West Shaw Lane Suite 103,Fresno,California (CA),93711,,https://www.bethany.org/fresno  / https://impregnant.org/,"https://www.google.com/maps/place/Bethany+Christian+Services/@36.8086549,-119.842503,17z/data=!3m1!4b1!4m5!3m4!1s0x809466322fdbefed:0x261cf7cd72693d40!8m2!3d36.8086549!4d-119.8403197",https://www.facebook.com/pages/Bethany-Christian-Services/401899230017304,https://www.yelp.com/biz/bethany-christian-services-fresno
Informed Choices,"66 First St., Suite A",Gilroy,California (CA),95020,,http://www.informed-choices.org/ and http://www.life-advocates.com/,"https://www.google.com/maps?q=Informed+Choices+66+First+St.,+Suite+A+Gilroy+CA&um=1&ie=UTF-8&sa=X&ved=0ahUKEwiZ6rH5wqncAhUSNd8KHducBTEQ_AUICigB",https://www.facebook.com/info.informedchoices/,https://www.yelp.com/biz/informed-choices-gilroy
Avenues Pregnancy Clinic,1911 W. Glenoaks Blvd. ,Glendale,California (CA),91201,(323) 913-1975,http://avenuespc.org/,"https://www.google.com/maps/place/Avenues+Pregnancy+Clinic/@34.1744235,-118.2960342,17z/data=!3m1!4b1!4m5!3m4!1s0x80c2c0015e41b8f7:0x355394ad9b11c142!8m2!3d34.1744235!4d-118.2938455",https://www.facebook.com/CPCSCal,https://www.yelp.com/biz/avenues-pregnancy-clinics-glendale
Network Medical Women’s Center,185 S Patterson Ave,Goleta,California (CA),93111,(805) 967-9096,http://networkmedical.org/,,,
LivingWell Medical Clinic,105 Catherine Lane,Grass Valley,California (CA),95945,(530) 272-6800,http://livingwellmedicalclinic.com/,"https://www.google.com/maps/place/LivingWell+Medical+Clinic/@39.2303007,-121.0498163,17z/data=!3m1!4b1!4m5!3m4!1s0x809b706a29f69309:0xc1bccb90be739dc6!8m2!3d39.2303007!4d-121.0476276",https://www.facebook.com/LivingWellMedicalClinic/,https://www.yelp.com/biz/livingwell-medical-clinic-grass-valley
Lifeline CPC,1447 Grand Ave,Grover Beach,California (CA),93433,,https://www.lifelinepregnancycenter.org/,"https://www.google.com/maps/place/LifeLine+Pregnancy+Center/@35.1213259,-120.6155692,17z/data=!3m1!4b1!4m5!3m4!1s0x80ec5ec9e2761055:0xe7d35505f6f48e88!8m2!3d35.1213259!4d-120.6133805",https://www.facebook.com/www.lifelinepregnancycenter.org/,https://www.yelp.com/biz/lifeline-a-crisis-pregnancy-center-grover-beach
Crossroads Pregnancy Center,"206 W Lacey Blvd, Ste A",Hanford,California (CA),93230,,www.crossroadscpc.com/,"https://www.google.com/maps/place/Crossroads+Pregnancy+Center/@36.3280528,-119.6502997,17z/data=!3m1!4b1!4m5!3m4!1s0x8094c378f4072de9:0x9d55ab880f07cc82!8m2!3d36.3280528!4d-119.6481164",https://www.facebook.com/crossroadscpchanford,https://www.yelp.com/biz/crossroads-pregnancy-center-hanford
Birth Choice of Hemet,3989 W Stetson Ave #200,Hemet,California (CA),92545,,https://birthchoicecenters.org/,"https://www.google.com/maps/place/Birth+Choice+of+Hemet/@33.7282,-117.0131102,15z/data=!4m2!3m1!1s0x0:0xa0da8e024ad418d9?sa=X&ved=2ahUKEwjhtOTz8d3vAhV0GVkFHbxCB18Q_BIwEnoECCMQBQ",,
Call For Life Pregnancy Help Center,15800 Main St. Suite 240,Hesperia,California (CA),92345,,http://www.call-4-life.com/,"https://www.google.com/maps/place/15800+Main+St,+Hesperia,+CA+92345/@34.4243201,-117.3195797,17z/data=!4m6!3m5!1s0x80c367823590d39f:0x958d0bdb1b6168d7!8m2!3d34.4242505!4d-117.3173901!10e3",https://www.facebook.com/callforlifehd/,
Hollister Pregnancy Center,483 5th St,Hollister,California (CA),95023,,https://www.hollisterpregnancycenter.com/,"https://www.google.com/maps/place/Hollister+Pregnancy+Center/@36.8512663,-121.4076335,17z/data=!3m1!4b1!4m5!3m4!1s0x8091f7d3d91d5ad1:0xba9718188b822ccd!8m2!3d36.8512663!4d-121.4054448",https://www.facebook.com/hollisterpregnancycenter/,https://www.yelp.com/biz/hollister-pregnancy-center-hollister
Horizon Pregnancy Clinic - Huntington Beach,15061 Springdale St # 109,Huntington Beach,California (CA),92649,,https://www.horizonpc.org/abortion-pill-reversal/,"https://www.google.com/maps/place/Horizon+Pregnancy+Clinic/@33.743756,-118.0249278,15z/data=!4m5!3m4!1s0x0:0x361e49de45d341d4!8m2!3d33.743756!4d-118.0249278",,
Los Angeles Pregnancy Services,3045 E Florence Ave Ste A,Huntington Park,California (CA),90255,,http://www.lapregnancyservices.org/,"https://www.google.com/maps/place/Los+Angeles+Pregnancy+Services/@33.9732737,-118.2160946,17z/data=!3m1!4b1!4m5!3m4!1s0x80c2c936258973ef:0xcf2aca04db40f0ed!8m2!3d33.9732737!4d-118.2139059",,https://www.yelp.com/biz/los-angeles-pregnancy-services-huntington-park
Refuge Pregnancy Center,81557 Dr. Carreon Blvd,Indio,California (CA),92201,,https://www.refugepregnancycenter.org/,"https://www.google.com/maps/place/Refuge+Pregnancy+Center/@33.7066957,-116.2591915,14z/data=!4m8!1m2!2m1!1sRefuge+Pregnancy+Center+44-901+Golf+Center+Pkwy+Suite+7+Indio+CA!3m4!1s0x80daf7a10599f399:0xfbd523d7337298e3!8m2!3d33.7066957!4d-116.241682",https://www.facebook.com/rpcindio/,https://www.yelp.com/biz/refuge-pregnancy-center-indio
Amador Pregnancy Help Center,1001 Broadway Ste 102,Jackson,California (CA),95642,,https://amadorpregnancyhelpcenter.com/,"https://www.google.com/maps/place/Amador+Pregnancy+Help+Center/@38.342512,-120.7627535,17z/data=!3m1!4b1!4m5!3m4!1s0x809a7bc573aa1c0f:0x59d23f25683772dc!8m2!3d38.342512!4d-120.7627535",https://www.facebook.com/APHCJackson/,https://www.yelp.com/biz/amador-pregnancy-help-center-jackson
Kerman Care Center ,681 S. Madera Ave. Suite 107,Kerman,California (CA),93630,,https://kermancarecenter.org/,"https://www.google.com/maps/place/Turning+Point+Pregnancy+Care+Center/@36.7248385,-120.0628028,17z/data=!3m1!4b1!4m5!3m4!1s0x80947a2c068d03f9:0x9d7dc95bd5e19978!8m2!3d36.7248385!4d-120.0606141",https://www.facebook.com/turningpointkerman/,
La Habra Life Center,"860 E La Habra Blvd, Ste 150",La Habra,California (CA),90631,,http://www.lahabralifecenter.org,"https://www.google.com/maps/place/La+Habra+Life+Center/@33.9315231,-117.9382669,17z/data=!3m1!4b1!4m5!3m4!1s0x80dd2acbafa2e55d:0x96ed138423902377!8m2!3d33.9315231!4d-117.9360782",https://www.facebook.com/LaHabraLifeCenter/,https://www.yelp.com/biz/la-habra-life-center-whittier
Bethany Christian Services - La Mirada,"16700 Valley View Ave, Ste 210",La Mirada,California (CA),90638,,https://www.bethany.org/la-mirada // https://impregnant.org/,"https://www.google.com/maps/place/Bethany+Christian+Services/@33.8798931,-118.0300806,17z/data=!3m1!4b1!4m5!3m4!1s0x80dd2c867bb6921b:0x38c7e4970b0146aa!8m2!3d33.8798931!4d-118.0278919",https://www.facebook.com/bethanyfans,https://www.yelp.com/biz/bethany-christian-services-la-mirada
A Women's Care Center,1840 N Hacienda Blvd Unit 13,La Puente,California (CA),91744,,http://www.optionslapuente.org/,"https://www.google.com/maps/place/Options,+A+Women%E2%80%99s+Care+Center/@34.050899,-117.9446297,17z/data=!3m1!4b1!4m5!3m4!1s0x80c332ba30858963:0xa66925149a7b3e9b!8m2!3d34.050899!4d-117.942441",https://www.facebook.com/Options-A-Womens-Care-Center-116132025064677/,https://www.yelp.com/biz/options-a-womens-care-center-la-puente
Elsinore Valley Pregnancy Resource Center,"31735 Riverside Drive, Suite A",Lake Elsinore,California (CA),92530,,https://www.evprc.org/,"https://www.google.com/maps/place/Elsinore+Valley+Pregnancy+Resource+Center/@33.680703,-117.370486,17z/data=!3m1!4b1!4m5!3m4!1s0x80dc975cbdf6b273:0xe57810db1ed4e887!8m2!3d33.680703!4d-117.370486",https://www.facebook.com/EVPRC/,https://www.yelp.com/biz/elsinore-valley-pregnancy-resource-center-lake-elsinore-2
Birth Choice of Lake Elsinore,231 N. Main Street,Lake Elsinore,California (CA),92530,,https://birthchoicecenters.org/,"https://www.google.com/maps/place/231+N+Main+St,+Lake+Elsinore,+CA+92530/@33.6704892,-117.3281508,18z/data=!3m1!4b1!4m5!3m4!1s0x80dc9a26269f6a05:0xe535ff8c91cea008!8m2!3d33.6704159!4d-117.3267474?shorturl=1",,
Care Net Women's Resource Center of North County,44733 10th Street West,Lancaster,California (CA),93534,,http://avcarenet.com/,"https://www.google.com/maps/place/Care+Net+Women's+Resource+Center+of+North+County/@34.6962875,-118.1483087,15z/data=!4m5!3m4!1s0x0:0xfb9c8ced2020f6ba!8m2!3d34.6962875!4d-118.1483087",https://www.facebook.com/avcarenet,https://www.yelp.com/biz/care-net-womens-resource-center-lancaster
Next Step (formerly Valley Pregnancy Center),"4200 East Ave, Ste 104",Livermore,California (CA),94550,,https://www.next-step.org/,"https://www.google.com/maps/place/Next+Step/@37.6922563,-121.9310943,15z/data=!4m5!3m4!1s0x0:0xb66ed0aac49ab9c7!8m2!3d37.6922563!4d-121.9310943",,https://www.yelp.com/biz/livermore-pregnancy-resource-center-livermore
Directions Medical Clinic (Formerly PRC of Lodi),942 East Pine Street,Lodi,California (CA),95240,,https://www.dmcforwomen.org/contact/,"https://www.google.com/search?q=stockton%20pregnancy%20clinic%20lodi&client=firefox-b-1-d&ei=Z9ZtYOKmDY6d_QaOlb1A&oq=stockton+pregnancy+clinic+lodi&gs_lcp=Cgdnd3Mtd2l6EAMyBQghEKABMgUIIRCgAToHCAAQRxCwAzoICCEQFhAdEB5Q4XtYqH9g24ABaAFwAngBgAHyAYgB0QaSAQUyLjIuMpgBAKABAaoBB2d3cy13aXrIAQPAAQE&sclient=gws-wiz&ved=2ahUKEwjfwv_uv-zvAhXCg-AKHUA5Cf0QvS4wAHoECAkQNA&uact=5&tbs=lf:1,lf_ui:2&tbm=lcl&rflfq=1&num=10&rldimm=3960523563047533658&lqi=Ch5zdG9ja3RvbiBwcmVnbmFuY3kgY2xpbmljIGxvZGlaOwoZc3RvY2t0b24gcHJlZ25hbmN5IGNsaW5pYyIec3RvY2t0b24gcHJlZ25hbmN5IGNsaW5pYyBsb2RpkgEVcHJlZ25hbmN5X2NhcmVfY2VudGVyqgEhEAEqHSIZc3RvY2t0b24gcHJlZ25hbmN5IGNsaW5pYygA&rlst=f#rlfi=hd:;si:3960523563047533658,l,Ch5zdG9ja3RvbiBwcmVnbmFuY3kgY2xpbmljIGxvZGlaOwoZc3RvY2t0b24gcHJlZ25hbmN5IGNsaW5pYyIec3RvY2t0b24gcHJlZ25hbmN5IGNsaW5pYyBsb2RpkgEVcHJlZ25hbmN5X2NhcmVfY2VudGVyqgEhEAEqHSIZc3RvY2t0b24gcHJlZ25hbmN5IGNsaW5pYygA;mv:[[38.156182799999996,-121.2505192],[37.9710132,-121.31780040000001]];tbs:lrf:!1m4!1u3!2m2!3m1!1e1!1m4!1u2!2m2!2m1!1e1!2m1!1e2!2m1!1e3!3sIAE,lf:1,lf_ui:2",https://www.facebook.com/dmcforwomen/,
Pregnancy & Parenting Support Center,"1137 N H Street, Suite K",Lompoc,California (CA),93436,,https://lompocpsc.wixsite.com/psclompoc,"https://www.google.com/maps/place/Pregnancy+%26+Parenting+Support+Center/@34.6564925,-120.4593809,15z/data=!4m5!3m4!1s0x0:0x5925def9b96469df!8m2!3d34.6564925!4d-120.4593809",https://www.facebook.com/LompocPPSC/,https://www.yelp.com/biz/pregnancy-support-center-lompoc
Horizon Pregnancy Clinic Long Beach,261 E Willow S St Unit C ,Long Beach,California (CA),90806,(714) 897-7500,https://www.horizonpc.org,,,https://www.yelp.ca/biz/horizon-pregnancy-clinic-long-beach
Centro Sagrada Familia,3340 Opal Street,Los Angeles,California (CA),90023,,,"https://www.google.com/maps/place/Centro+Sagrada+Familia/@34.0226455,-118.207881,17z/data=!3m1!4b1!4m5!3m4!1s0x80c2cf4cc9ddd283:0x5ac9efd599a4af70!8m2!3d34.0226455!4d-118.2056923",,
Guadalupe Clinic,3020 Wilshire Blvd #219,Los Angeles,California (CA),90010,,https://drbaggot.wordpress.com/,"https://www.google.com/maps/place/Guadalupe+Medical+Center/@34.061256,-118.2895767,17z/data=!3m1!4b1!4m5!3m4!1s0x80c2c7775958ff67:0xe57a83e0dfe0152d!8m2!3d34.061256!4d-118.287388",https://www.facebook.com/guadalupemedicalcenter/,https://www.yelp.com/biz/guadalupe-medical-center-los-angeles-2
Los Angeles Pregnancy Services,2524 West 7th St,Los Angeles,California (CA),90057,,https://lapregnancyservices.org/,"https://www.google.com/maps/place/Los+Angeles+Pregnancy+Services/@34.0584586,-118.2842187,17z/data=!3m1!4b1!4m5!3m4!1s0x80c2c776004ce1b3:0xafd7de8d767fe48b!8m2!3d34.0584586!4d-118.28203",,https://www.yelp.com/biz/los-angeles-pregnancy-services-los-angeles
Doors of Hope Pregnancy Resource Center,"500 E Almond Ave, #5A",Madera,California (CA),93637,,www.​doorsofhope​.org,"https://www.google.com/maps/place/Doors+Of+Hope+Parenting+%26+Pregnancy+Resource+Center/@36.9453049,-120.0540875,17z/data=!3m1!4b1!4m5!3m4!1s0x80940c90fd095ee5:0x5c6f4e71bd3bcf2d!8m2!3d36.9453049!4d-120.0518988",,https://www.yelp.com/biz/doors-of-hope-ppc-madera
Pregnancy Help Center of Manteca,401 N Main St,Manteca,California (CA),95336,,http://www.omgpregnant.org/,"https://www.google.com/maps/place/Pregnancy+Help+Center+of+Manteca/@37.8027685,-121.2191642,17z/data=!3m1!4b1!4m5!3m4!1s0x809041b332d4ad6f:0xe5860ff61e96bb8a!8m2!3d37.8027685!4d-121.2169755",https://www.facebook.com/PregnancyHelpCenterofManteca/,https://www.yelp.com/biz/pregnancy-help-center-of-manteca-manteca
Helping Hands Pregnancy & Parenting Center,"5072 Bullion St, Suite B",Mariposa,California (CA),95338,,http://www.pregnancyoakhurst.com/,"https://www.google.com/maps/place/Mariposa+Helping+Hands+Pregnancy+%26+Parenting+Center/@37.4880521,-119.9664878,15z/data=!4m2!3m1!1s0x0:0x6d0cdca7abd9aaa0?sa=X&ved=2ahUKEwiK65TF8uzvAhVSh-AKHW8wDCIQ_BIwCnoECBwQBQ",https://www.facebook.com/pages/Helping-Hands-Pregnancy-Parenting-Center/153076201395171,
Alpha Pregnancy Help Center,700 Loughborough Dr. Suite A,Merced,California (CA),95348,,https://alphaphc.com/home,"https://www.google.com/maps/place/Alpha+Pregnancy+Help+Center/@37.322354,-120.4820907,17z/data=!3m1!4b1!4m5!3m4!1s0x809143b342a0491f:0xcd852d6ddbb47f8c!8m2!3d37.322354!4d-120.479902",https://m.facebook.com/AlphaPHC,https://www.yelp.com/biz/alpha-pregnancy-help-center-merced
Pregnancy Counseling Center,10211 Sepulveda Blvd,Mission Hills,California (CA),91345,,https://www.pregnanthelp4u.org/ca/home/,"https://www.google.com/maps/place/Pregnancy+Counseling+Center/@34.2557637,-118.4699682,17z/data=!3m1!4b1!4m5!3m4!1s0x80c2908a3dd2feb9:0xa6cb1cab4411278c!8m2!3d34.2557637!4d-118.4677795",,https://www.yelp.com/biz/pregnancy-counseling-center-mission-hills
Modesto Pregnancy Center (aka First Choice Health Serivces),"2801 Coffee Road, Suite A5",Modesto,California (CA),95355,,http://firstchoicehs.org/ and https://www.modestopc.org/services,"https://www.google.com/maps/place/Modesto+Pregnancy+Center/@37.6800227,-120.9786175,17z/data=!3m1!4b1!4m5!3m4!1s0x809051365f5a8361:0x6e71e16740e6037c!8m2!3d37.6800227!4d-120.9764288",https://www.facebook.com/Modesto-Pregnancy-Center-114004764089/,https://www.yelp.com/biz/modesto-pregnancy-center-modesto
Bethany Christian Services - Modesto,3048 Hahn Dr,Modesto,California (CA),95350,,"https://www.bethany.org/modesto, www.preghelp.com","https://www.google.com/maps/place/Bethany+Christian+Services/@37.684438,-121.046896,17z/data=!3m1!4b1!4m5!3m4!1s0x809051ad58da2585:0x6ce50f4a4e1d9a1b!8m2!3d37.684438!4d-121.044702",https://www.facebook.com/bethanyfans,https://www.yelp.com/biz/modesto-pregnancy-center-modesto
Compassion Pregnancy Center & Clinic,640 Cass St,Monterey,California (CA),93940,(831) 373-8535,https://montereycpc.com/,"https://www.google.com/maps/place/Compassion+Pregnancy+Center+%26+Clinic+of+the+Monterey+Bay/@36.5954271,-121.8970928,17z/data=!3m1!4b1!4m5!3m4!1s0x808de425c9750653:0xb62f9d1501bd3d7f!8m2!3d36.5954271!4d-121.8949041",http://www.facebook.com/cpcinmonterey/,https://www.yelp.com/biz/compassion-pregnancy-center-and-clinic-monterey?osq=compassion+pregnancy+clinic
East Los Angeles Pregnancy Center,2342 S Atlantic Blvd,Monterey Park,California (CA),91754,,http://eastlapregnancy.com/,"https://www.google.com/maps/place/East+Los+Angeles+Pregnancy+Center/@34.0364182,-118.1500306,17z/data=!3m1!4b1!4m5!3m4!1s0x80c2cf9a0c609143:0x91e143024b2d0d2b!8m2!3d34.0364182!4d-118.1478419",https://www.facebook.com/EastLosAngelesPregnancyCenter/,https://www.yelp.com/biz/east-la-pregnancy-center-monterey-park
RealOptions Obria Medical Clinic Mountain View,298 San Antonio Road,Mountain View,California (CA),94040,,https://www.realoptions.net/,,https://www.facebook.com/realoptions.moutainview/,https://www.yelp.com/biz/realoptions-obria-medical-clinic-mountain-view-mountain-view
Choices Mt. Shasta,215 W Alma St,Mt Shasta,California (CA),96067,,https://choicesmtshasta.me/about/,"https://www.google.com/maps/place/Choices+Pregnancy+And+Parenting+Support/@41.3140493,-122.318171,17z/data=!3m1!4b1!4m5!3m4!1s0x54cde7282040e04d:0x8b84d1f6a7b5a253!8m2!3d41.3140493!4d-122.3159823",https://www.facebook.com/choicesmountshasta/,
Birthright of Napa,1447 4th St,Napa,California (CA),94559,,https://birthright.org/napa/,"https://www.google.com/maps/place/Birthright+of+Napa/@38.2950968,-122.2878283,15z/data=!4m5!3m4!1s0x0:0x4e7632f5097f4984!8m2!3d38.2950968!4d-122.2878283",,
Open Arms Pregnancy Clinic,"9535 Reseda Blvd, Suite 303",Northridge,California (CA),43725,,https://www.openarmspregnancy.com/,"https://www.google.com/maps?q=Open+Arms+Pregnancy+Clinic+9535+Reseda+Blvd,+Suite+303+Northridge+CA&um=1&ie=UTF-8&sa=X&ved=0ahUKEwjD1enV77XcAhWBhOAKHYkyBsoQ_AUICigB",https://www.facebook.com/pages/biz/pregnancy_childbirth_service-northridge/Open-Arms-Pregnancy-Clinic-253717724753132/,https://www.yelp.com/biz/open-arms-pregnancy-clinic-northridge
Marin Pregnancy Clinic,1320-A Grant Ave,Novato,California (CA),94945,,http://marinpregnancyclinic.org/,"https://www.google.com/maps/place/Marin+Pregnancy+Clinic/@38.108855,-122.5764317,17z/data=!3m1!4b1!4m5!3m4!1s0x8085bb7c7e85b9df:0x161b04324f17e35d!8m2!3d38.108855!4d-122.574243",https://www.facebook.com/MarinPregnancyClinic,https://www.yelp.com/biz/marin-pregnancy-clinic-novato
Helping Hands Pregnancy & Parenting Center,40356 Oak Parkway A & B,Oakhurst,California (CA),93644,,http://www.pregnancyoakhurst.com/contact-us/,"https://www.google.com/maps/place/Helping+Hands+Pregnancy+Center/@37.3358976,-119.6664833,17z/data=!3m1!4b1!4m5!3m4!1s0x8094276375a6e389:0x7ca4623921e02587!8m2!3d37.3358976!4d-119.6642946",https://www.facebook.com/pages/Helping-Hands-Pregnancy-Parenting-Center/153076201395171,https://www.yelp.com/biz/helping-hands-pregnancy-and-parenting-center-oakhurst
Real Options Obria Medical Clinics (formerly Support Circle),"400 30th St, Ste 401",Oakland,California (CA),94609,,https://locator.obria.org/schedule-appointment/5faedd49c8de4108dae93cd0 and https://supportcircle.org/abortion-info-oakland/,"https://www.google.com/maps/place/Support+Circle+Pregnancy+Clinics+Oakland/@37.8192619,-122.2670038,17z/data=!4m8!1m2!2m1!1sSupport+Circle+Pregnancy+Clinics+400+30th+St,+Ste+401+Oakland+CA!3m4!1s0x808f875557232177:0xb6d2b17ac44e7080!8m2!3d37.8192747!4d-122.2648175",https://www.facebook.com/supportcircleclinics,https://www.yelp.com/biz/support-circle-pregnancy-clinics-oakland
Life Choices Pregnancy Clinic of Ojai Valley,"1320 Maricopa Highway, Suite C",Ojai,California (CA),93023,,http://www.ojailifechoices.org/,"https://www.google.com/maps/place/Life+Choices+Pregnancy+Clinic/@34.4430138,-119.2675164,17z/data=!3m1!4b1!4m5!3m4!1s0x80e9a5123953f42d:0x636ed5f67ca09007!8m2!3d34.4430138!4d-119.2653277",https://www.facebook.com/ojailifechoices/,https://www.yelp.com/biz/life-choices-pregnancy-clinic-of-ojai-valley-ojai
LivingWell Pregnancy Centers,"2010 N. Tustin St., Suite C",Orange,California (CA),92865,,www.living-well.org,"https://www.google.com/maps?q=LivingWell+Pregnancy+Centers+2010+N+Tustin+St,+Ste+D+Orange+CA&um=1&ie=UTF-8&sa=X&ved=0ahUKEwi6kd2GgbbcAhVDT98KHcm4BB0Q_AUICigB",https://www.facebook.com/livingwellpregnancycenters/,https://www.yelp.com/biz/livingwell-pregnancy-centers-orange
Caring For Women Pregnancy Resource Center,2362 Lincoln Street,Oroville,California (CA),95966,,https://caringforwomen.life/,"https://www.google.com/maps/place/Caring+For+Women+Pregnancy/@39.5052381,-121.555557,17z/data=!3m1!4b1!4m5!3m4!1s0x809cb4339be3a9eb:0x82b0e0fbf07bd8e6!8m2!3d39.5052381!4d-121.5533683",https://www.facebook.com/Caring-for-Women-Pregnancy-Resource-Center-308561202527500/,https://www.yelp.com/biz/caring-for-women-pregnancy-resource-center-oroville
Life Centers of Ventura County,600A North A St,Oxnard,California (CA),93003,,https://www.vclifecenters.com/,"https://www.google.com/maps/place/Life+Centers+of+Ventura+County/@34.2081869,-119.1804979,17z/data=!3m1!4b1!4m5!3m4!1s0x80e84c31e04f9d99:0x93b13d11d19602c4!8m2!3d34.2081869!4d-119.1783092",https://www.facebook.com/freepregnancyhelp4U/,https://www.yelp.com/biz/life-centers-of-ventura-county-oxnard
Birth Choice of the Desert,74303 CA-111 #1A,Palm Desert,California (CA),92260,(760) 895-4044,https://birthchoicecenters.org/,"https://www.google.com/maps/place/Birth+Choice+of+the+Desert/@33.709914,-116.2814807,17z/data=!3m1!4b1!4m5!3m4!1s0x80daf8295ab8d51b:0xfffce72c4c105058!8m2!3d33.709914!4d-116.279292",https://www.facebook.com/BirthChoiceoftheDesert/,https://www.yelp.com/biz/birth-choice-of-the-desert-la-quinta
Women's Clinic of the Antelope Valley,"1334 E Palmdale Blvd, Suite E",Palmdale,California (CA),93550,(661) 947-0400,http://www.womensclinicav.com,"https://www.google.com/maps/place/Women's+Clinic+of+The+Antelope+Valley/@34.579195,-118.1063631,17z/data=!3m1!4b1!4m5!3m4!1s0x80c257be4a9f9b9d:0x6193bf19b1d5ff18!8m2!3d34.579195!4d-118.1041744",http://www.facebook.com/womensclinicav,http://www.yelp.com/biz/womens-clinic-of-the-antelope-valley-palmdale
Care Net Pregnancy Center of Paradise,6585 Clark Road Ste. 320,Paradise,California (CA),95969,,http://www.carenetparadise.org/,"https://www.google.com/maps/place/Care+Net+Pregnancy+Center/@39.7762295,-121.5955481,17z/data=!3m1!4b1!4m5!3m4!1s0x809cd49797c9d493:0x6ab8f73c2ab8b531!8m2!3d39.7762295!4d-121.5933594",https://www.facebook.com/carenetparadise/,https://www.yelp.com/biz/care-net-pregnancy-center-of-paradise-paradise-2
Obria Medical Clinic,445 N Lake Ave,Pasadena,California (CA),91101,(626) 440-9400,https://www.obria.org/locations/pasadena-ca/?utm_source=google&utm_medium=organic&utm_campaign=gmb,,https://www.facebook.com/pages/Obria-Medical-Clinics-Pasadena/1671066573148413,https://www.yelp.com/biz/obria-medical-clinics-pasadena-pasadena-2?osq=obria+medical+clinics
Tree of Life Pregnancy Support Center - Paso Robles ,"211 Oak Hill Road, Suite 118",Paso Robles,California (CA),93446,,https://www.treeoflifepsc.com/,"https://www.google.com/maps/place/211+Oak+Hill+Rd,+Paso+Robles,+CA+93446/@35.6142322,-120.6800311,17z/data=!3m1!4b1!4m5!3m4!1s0x80ecc511de7c28cd:0x18172fb41859cd77!8m2!3d35.6142322!4d-120.6778424",,
Birthright of Petaluma,1330 Commerce St. #C,Petaluma,California (CA),94954,,https://birthright.org/petaluma,"https://www.google.com/maps/place/Birthright+of+Petaluma/@38.2564426,-122.6442633,17z/data=!3m1!4b1!4m5!3m4!1s0x8085b46c52535de1:0x123842af220800eb!8m2!3d38.2564426!4d-122.6420746",https://www.facebook.com/BirthrightInternational/,https://www.yelp.com/biz/birthright-of-petaluma-petaluma
Pregnancy Counseling Services,3105 Cedar Ravine Rd Suite 103,Placerville,California (CA),95667,(530) 626-6720,http://www.pregnancycounselingservices.org/,"https://www.google.com/maps/place/Pregnancy+Counseling+Services+of+El+Dorado+County/@38.7293329,-120.8010447,17z/data=!3m1!4b1!4m5!3m4!1s0x809a50b42296f43d:0x8a2d00d11b562683!8m2!3d38.7293329!4d-120.798856",https://www.facebook.com/Pregnancycounselingservices/,https://www.yelp.com/biz/pregnancy-counseling-services-placerville-2
CHOICES Women's Resource Center,3560 W Temple Ave Ste H,Pomona,California (CA),91768,,http://choicescenter.org/,"https://www.google.com/maps/place/CHOICES+Women's+Resource+Center/@34.0485819,-117.8129661,17z/data=!3m1!4b1!4m5!3m4!1s0x80c32c1ee2579325:0x12781bbbc8ec25d9!8m2!3d34.0485819!4d-117.8107774",https://www.facebook.com/cwrcInfo/,https://www.yelp.com/biz/choices-womens-resource-center-pomona
Porterville Pregnancy Resource Center,64 West Putnam Ave,Porterville,California (CA),93257,,www.portervilleprc.com,"https://www.google.com/maps/place/Porterville+Pregnancy+Resource+Center/@36.0693693,-119.0197721,17z/data=!3m1!4b1!4m5!3m4!1s0x80eab841245930f3:0x8f7531245d17144e!8m2!3d36.0693693!4d-119.0175834",https://www.facebook.com/PortervillePregnancyResorceCenter/,https://www.yelp.com/biz/porterville-pregnancy-resource-center-porterville
Life Choices,"13412 Pomerado Rd, Suite C",Poway,California (CA),92064,,http://www.sdlifechoices.org/,"https://www.google.com/maps/place/Life+Choices+Poway/@32.9590807,-117.0652651,17z/data=!3m1!4b1!4m5!3m4!1s0x80dbfa3a3182b69b:0xd04d9bca0ac317ce!8m2!3d32.9590807!4d-117.0630764",https://www.facebook.com/LifeChoicesPoway/,https://www.yelp.com/biz/life-choices-pregnancy-counseling-centers-poway
Ramona Pregnancy Care Clinic,"1530 Main St, Ste 6",Ramona,California (CA),92065,,http://www.ramonapregnancy.org/,"https://www.google.com/maps/place/Ramona+Pregnancy+Care+Clinic/@33.036771,-116.8793097,17z/data=!3m1!4b1!4m5!3m4!1s0x80dbe8a677903fdd:0x7f8117502686312!8m2!3d33.036771!4d-116.877121",https://www.facebook.com/pages/Ramona-Pregnancy-Care-Clinic/878720838813908,https://www.yelp.com/biz/ramona-pregnancy-care-clinic-ramona-3
LifeNet Family Resource and Pregnancy Center,525 Rio St.,Red Bluff,California (CA),96080,,https://www.lifenettehama.org/,"https://www.google.com/maps/place/LifeNet+Family+Resource+and+Pregnancy+Center/@40.1764924,-122.2330603,15z/data=!4m5!3m4!1s0x0:0xb944ed6274492443!8m2!3d40.1764924!4d-122.2330603",https://www.facebook.com/LifeNet.Tehama/,
Care Net Redding,2460 Athens Ave,Redding,California (CA),96001,(530) 246-7075,http://carenetredding.org/,"https://www.google.com/maps/place/Care+Net+Pregnancy+Center/@40.5739617,-122.3791056,17z/data=!3m1!4b1!4m5!3m4!1s0x54d2ecebc9b30a5d:0x9a9d1193def9afb!8m2!3d40.5739617!4d-122.3769169",https://www.facebook.com/carenetnorcal/,
Life Light Pregnancy Help Center,"3050 VICTOR AVE, #C",Redding,California (CA),96002,,http://lifelightcenter.org/,"https://www.google.com/maps/place/Life+Light+Pregnancy+Help+Center/@40.564941,-122.3644927,17z/data=!3m1!4b1!4m5!3m4!1s0x54d2ec983f89f54b:0x85a2da508d3e7df9!8m2!3d40.564941!4d-122.362304",https://www.facebook.com/lifelightcenter/,
Real Options Obria Medical Clinics - Redwood City (formerly Support Circle),801 Brewster Ave Unit 210,Redwood City,California (CA),94063,,https://www.realoptions.net/,"https://www.google.com/maps/place/RealOptions+Obria+Medical+Clinics+of+Redwood+City/@37.4881612,-122.2337365,15z/data=!4m5!3m4!1s0x0:0x17f9efe705795315!8m2!3d37.4881612!4d-122.2337365",,
Ridgecrest Pregnancy Care Center,341 E Ridgecrest Blvd ,Ridgecrest,California (CA),93555,,https://optionsforpregnancy.com/free-clinic/ridgecrest-pregnancy-care-center/,"https://www.google.com/maps/place/Pregnancy+Care+Center/@35.6204758,-117.6678623,15.36z/data=!4m5!3m4!1s0x80c16cbf34b163cb:0x31b84a87ac48033c!8m2!3d35.622173!4d-117.663471",,
Riverside Life Services,3727 McCray Street,Riverside,California (CA),92506,,http://www.riversidelifeservices.org/,https://www.google.com/maps?q=Riverside+Life+Services+3727+McCray+Street+Riverside+CA&um=1&ie=UTF-8&sa=X&ved=0ahUKEwit1oPTirbcAhVFTd8KHREeDeQQ_AUICigB,https://www.facebook.com/riversidelifeservices/,https://www.yelp.com/biz/riverside-life-services-riverside
Heartline Pregnancy Counseling,6881 Brockton Ave,Riverside,California (CA),92506,,https://heartlinepregnancycounseling.com/1/,"https://www.google.com/maps/place/Heartline+Pregnancy+Counseling/@33.9488493,-117.3993036,17z/data=!3m1!4b1!4m5!3m4!1s0x80dcb1ad81af9f2b:0xc3efa5db91307ef3!8m2!3d33.9488493!4d-117.3971149",https://m.facebook.com/Heartline-Ministries-449716311762735/,https://www.yelp.com/biz/heartline-pregnancy-counseling-riverside
Pregnancy Counseling Center of Rohnert Park,1331 Medical Center Dr.,Rohnert Park,California (CA),94928,(707) 588-9176,,,,http://www.yelp.com/biz/pregnancy-counseling-center-rohnert-park
Guadalupe Pregnancy Services,1168 San Gabriel Blvd. #E-F,Rosemead,California (CA),91770,(626) 872-2483,http://www.pregnancy-gps.org/,"https://www.google.com/maps/place/GPS-Guadalupe+Pregnancy+Services/@34.0430648,-118.0878685,17z/data=!3m1!4b1!4m5!3m4!1s0x80c2d04103c08a73:0xacd223fc35ae8851!8m2!3d34.0430648!4d-118.0856798",https://www.facebook.com/GPS-Guadalupe-Pregnancy-Services-167756716568687/,
Sierra Pregnancy & Health,"1212 Coloma Way, Ste. A",Roseville,California (CA),95661,,http://www.sierraph.org/,"https://www.google.com/maps/place/Sierra+Pregnancy+%26+Health/@38.7366215,-121.2731359,17z/data=!3m1!4b1!4m5!3m4!1s0x809b1ef985994383:0x51ed97a705e62afb!8m2!3d38.7366215!4d-121.2709472",https://www.facebook.com/SierraPH.org/,https://www.yelp.com/biz/sierra-pregnancy-and-health-roseville
Sac Valley Pregnancy Clinic,2316 Bell Executive Lane,Sacramento,California (CA),95825,,https://svpclinic.com/ and https://saclife.org/,"https://www.google.com/maps/place/Sac+Valley+Pregnancy+Clinic/@38.597116,-121.40984,15z/data=!4m2!3m1!1s0x0:0xc9006ff9e0c4d6f4?sa=X&ved=2ahUKEwjKyrzz__HvAhVRhuAKHV_uABkQ_BIwEnoECCYQBQ",https://www.facebook.com/SacramentoLifeCenter/,https://www.yelp.com/biz/sacramento-life-center-sacramento
Alternatives Pregnancy Center,1111 Howe Ave #610,Sacramento,California (CA),95825,(916) 880-4040,http://alternativespc.org,,http://www.facebook.com/AlternativesPC/,http://yelp.com/biz/alternatives-pregnancy-center-sacramento
Andrea San Miguel,2206 I Street #2,Sacramento,California (CA),95816,(619) 861-0062,,,,
Confidence Pregnancy Center,"780 E. Romie Lane, Suite C",Salinas,California (CA),93901,,https://pregnancysalinas.com/,"https://www.google.com/maps/place/Confidence+Pregnancy+Center/@36.6584058,-121.642451,17z/data=!3m1!4b1!4m5!3m4!1s0x808df862b1c86379:0xf4dfab2d6f91aa47!8m2!3d36.6584058!4d-121.6402623",https://www.facebook.com/pregnancysalinas/,https://www.yelp.com/biz/confidence-pregnancy-center-salinas
Pregnancy & Family Resource Center,"114 E. Airport Drive, Ste. 105",San Bernadino,California (CA),92408,,https://sbpregnancychoices.com/,"https://www.google.com/maps/place/Pregnancy+%26+Family+Resource+Center/@34.0673653,-117.2857544,15z/data=!4m5!3m4!1s0x0:0xacf065489fcde4ff!8m2!3d34.0673653!4d-117.2857544",https://www.facebook.com/pregnancyfamily/,
Pregnancy Resource Center,416 Avenida de la Estrella,San Clemente,California (CA),92672,,http://www.prcmedicalclinic.com/,"https://www.google.com/maps/place/Pregnancy+Resource+Center+Medical+Clinic/@33.4296532,-117.6166634,17z/data=!3m1!4b1!4m5!3m4!1s0x80dcf40bfdf39763:0xe0b091645d477158!8m2!3d33.4296532!4d-117.6144747",https://www.facebook.com/PRCSanClemente/,https://www.yelp.com/biz/pregnancy-resource-center-medical-clinic-san-clemente
San Diego Pregnancy Care Clinic,4130 Alpha Street,San Diego,California (CA),92113,,http://www.unplannedparenthood.org/,"https://www.google.com/maps/place/Pregnancy+Care+Clinic/@32.6923545,-117.1047387,15z/data=!4m2!3m1!1s0x0:0x3095c68f9622bfc3?sa=X&ved=2ahUKEwjonOzCwrjcAhWRNd8KHY0sDwMQ_BIwCnoECAoQCw",,https://www.yelp.com/biz/san-diego-pregnancy-care-clinic-san-diego
Birthline of San Diego,"3660 Clairemont Dr, Suite 4",San Diego,California (CA),92117,,http://birthlineofsandiego.org/,"https://www.google.com/maps?q=Birthline+of+San+Diego+3660+Clairemont+Dr,+Suite+4+San+Diego+CA&um=1&ie=UTF-8&sa=X&ved=0ahUKEwiMyd_ljbbcAhVnn-AKHTVRDf8Q_AUICigB",https://www.facebook.com/BirthlineSD/,https://www.yelp.com/biz/birthline-of-san-diego-san-diego-2
College Area Pregnancy Serivices (CAPS) - College Area Clinic,6663 El Cajon Blvd Suite L,San Diego,California (CA),92115,,https://capspregnancyclinics.org/,"https://www.google.com/maps/place/CAPS+Pregnancy+Clinics/@32.7674927,-117.0572375,17z/data=!3m1!4b1!4m5!3m4!1s0x80d956eccff25567:0xc0fc658daeba2293!8m2!3d32.7674927!4d-117.0550488",https://www.facebook.com/capspregnancyclinics/,https://www.yelp.com/biz/caps-pregnancy-clinics-san-diego-5
Turning Point Pregnancy Resource Center,7340 Miramar Rd #204,San Diego,California (CA),92126,,https://mmpregnancy.com/,"https://www.google.com/maps/place/Turning+Point+Pregnancy+Resource+Center/@32.883788,-117.1575997,17z/data=!3m1!4b1!4m5!3m4!1s0x80dc071582b3a159:0xa1129e60ec498e16!8m2!3d32.883788!4d-117.155411",https://www.facebook.com/TPPRC/jobs/214986469044335,https://www.yelp.com/biz/turning-point-pregnancy-resource-center-san-diego
College Area Pregnancy Services (CAPS) - Downtown Area Clinic,2903 Fourth Avenue,San Diego,California (CA),92103,,https://capspregnancyclinics.org/contact-us/,"https://www.google.com/maps/search/Downtown+Area+Clinic+2903+Fourth+Avenue+San+Diego+CA/@32.7295097,-117.1782042,14z/data=!3m1!4b0",https://www.facebook.com/capspregnancyclinics/,https://www.yelp.com/biz/caps-pregnancy-clinics-san-diego-5
College Area Pregnancy Services (CAPS) - Beach Area Clinic,1856 Garnet Ave,San Diego,California (CA),92109,(619) 337-8080,https://capspregnancyclinics.org/,"https://www.google.com/maps/place/CAPS+Pregnancy+Clinics/@32.8016616,-117.238861,17z/data=!3m1!4b1!4m5!3m4!1s0x80dc01c7684e2171:0x7a3a2866c3dd9c11!8m2!3d32.8016616!4d-117.2366723",https://www.facebook.com/capspregnancyclinics/,https://yelp.to/qTKq/3zHOrNXq6L
College Area Pregnancy Services (CAPS) - Mesa Area Clinic,"3750 Convoy St., Suite 118",San Diego ,California (CA),92111,,https://capspregnancyclinics.org/,"https://www.google.com/search?client=firefox-b-1-d&tbs=lf:1,lf_ui:2&tbm=lcl&q=3750+Convoy+St.+Mesa+Clinic+San+Diego&rflfq=1&num=10&sa=X&ved=2ahUKEwjto-L0uezvAhWyUt8KHcRxBCEQjGp6BAgGEGQ&biw=1608&bih=863#rlfi=hd:;si:8874565461021671909,l,CiUzNzUwIENvbnZveSBTdC4gTWVzYSBDbGluaWMgU2FuIERpZWdvSLjO3OjgsoCACFpTChVtZXNhIGNsaW5pYyBzYW4gZGllZ28QAxAEEAUQBhgAGAEYAhgDGAQYBRgGIiQzNzUwIGNvbnZveSBzdCBtZXNhIGNsaW5pYyBzYW4gZGllZ2-SARVwcmVnbmFuY3lfY2FyZV9jZW50ZXKqARMQASoPIgttZXNhIGNsaW5pYygA;mv:[[32.835299899999995,-117.1526776],[32.8106463,-117.1667741]]",,
Alpha Pregnancy Center,5070 Mission St,San Francisco,California (CA),94112,,https://www.alphapc.org/,"https://www.google.com/maps/place/Alpha+Pregnancy+Center/@37.7172114,-122.4406321,15z/data=!4m2!3m1!1s0x0:0xa5e5ebad023b422b?sa=X&ved=2ahUKEwi126XWw7jcAhUJUt8KHUL6C5sQ_BIwCnoECAoQCw",https://www.facebook.com/Alpha-Pregnancy-Center-83160739328/,https://www.yelp.com/biz/alpha-pregnancy-center-san-francisco
Birthright of San Jose,"1210 S. Bascom Ave., Suite 129",San Jose,California (CA),95128,,https://birthrightsanjose.org/,"https://www.google.com/maps/place/Birthright+of+San+Jose/@37.3039623,-121.9313208,15z/data=!4m5!3m4!1s0x0:0xb617bc4eb0f211a5!8m2!3d37.3039623!4d-121.9313208",https://www.facebook.com/sanjosebirthright/,https://www.yelp.com/biz/birthright-of-san-jose-san-jose-4
GHS Women's Center (Guadalupe Hope Society),"100 O'Connor Drive, Suite 1",San Jose,California (CA),95128,,http://ghswomenscenter.com/,"https://www.google.com/maps/place/GHS+Women's+Center/@37.3236086,-121.9408212,17z/data=!3m1!4b1!4m5!3m4!1s0x808fcb731d7c2999:0x7b03dbefc6a64db!8m2!3d37.3236086!4d-121.9386325",https://www.facebook.com/ghswomenscenter/,https://www.yelp.com/biz/ghs-womens-center-san-jose
RealOptions East San Jose ,12 North White Road Suite #1,San Jose,California (CA),95127,,https://www.realoptions.net/ and https://www.obria.org/locations/east-san-jose-ca/,"https://www.google.com/maps?ll=37.366382,-121.828104&z=9&t=m&hl=en-US&gl=US&mapclient=embed&cid=15813344744718017249",,
RealOptions Central San Jose (Obria),1671 The Alameda Suite #101,San Jose,California (CA),95126,,https://www.realoptions.net/ and https://www.obria.org/locations/central-san-jose-ca/,"https://www.google.com/maps?ll=37.33643,-121.918306&z=7&t=m&hl=en-US&gl=US&mapclient=embed&cid=12681566713800275059",,
Birthright of San Lorenzo,1048 Grant Ave,San Lorenzo,California (CA),94580,,www.birthrightofsanlorenzo.com/,"https://www.google.com/maps/place/Birthright+of+San+Lorenzo/@37.6791648,-122.1395732,17z/data=!3m1!4b1!4m5!3m4!1s0x808f904e515b0c29:0x38aa60d46a07acc9!8m2!3d37.6791648!4d-122.1373845",https://www.facebook.com/BirthrightSLZ/,https://www.yelp.com/biz/birthright-of-san-lorenzo-san-lorenzo
Tree of Life Pregnancy Support Center - San Luis Obispo,1329 Chorro Street,San Luis Obispo,California (CA),93406,,https://www.treeoflifepsc.com/,"https://www.google.com/maps/place/Tree+of+Life+Pregnancy+Support+Center/@35.2777404,-120.6612491,15z/data=!4m2!3m1!1s0x0:0xc3970c8bf7d3f961?sa=X&ved=2ahUKEwjv1OfsrPnvAhWFGFkFHSeUCj8Q_BIwDHoECBkQBQ",,
Birth Choice Care Center,277 S. Rancho Santa Fe Rd.,San Marcos,California (CA),92078,(760) 744-1313,https://birthchoice.net/,"https://www.google.com/maps/place/Birth+Choice/@33.1432902,-117.2006455,15z/data=!4m2!3m1!1s0x0:0xf474e605928634ce?sa=X&ved=2ahUKEwin__DZjY_tAhXtRt8KHbtEDeAQ_BIwDHoECBcQBQ",https://www.facebook.com/birthchoicesanmarcos/,https://www.yelp.com/biz/birth-choice-san-marcos-4
Obria,"2001 E. First St., Suite 209",Santa Ana,California (CA),92705,,https://www.obria.org/locations/santa-ana-ca/,"https://www.google.com/maps/place/Obria+Medical+Clinics/@33.746024,-117.838698,15z/data=!4m5!3m4!1s0x0:0xa058a4885388c0ce!8m2!3d33.7460241!4d-117.8386983?hl=en-US",,
SCV Pregnancy Center,25174 Rye Canyon Rd,Santa Clarita,California (CA),91355,,https://www.scvpc.org/,"https://www.google.com/maps/place/SCV+Pregnancy+Center/@34.4411828,-118.5770509,17z/data=!3m1!4b1!4m5!3m4!1s0x80c28716c0f08a49:0xc31bcf57906a4bd6!8m2!3d34.4411828!4d-118.5748569",http://www.facebook.com/scvpregnancycenter/,
Care Net Pregnancy & Resource Center Santa Maria,"201 S Miller, Ste 101",Santa Maria,California (CA),93454,(805) 928-9285,https://www.carenetsm.com/,"https://www.google.com/maps/place/Care+Net+Pregnancy+%26+Resource/@34.9518814,-120.4317799,15z/data=!4m5!3m4!1s0x0:0x1ff52d5005fb4bca!8m2!3d34.9518814!4d-120.4317799",,http://www.yelp.com/biz/care-net-pregnancy-and-resource-center-santa-maria
Bridges Pregnancy Clinic and Care Center,"750 Mendocino Ave, Suite 1",Santa Rosa,California (CA),95401,(707) 575-9000,http://bridgespregnancyclinic.org/,"https://www.google.com/maps/place/Bridges+Pregnancy+Clinic+and+Care+Center/@38.4471015,-122.7170257,15z/data=!4m2!3m1!1s0x0:0x21104b1755129849?sa=X&ved=2ahUKEwib_Oux9d3vAhXdD1kFHe4CCSoQ_BIwDnoECB8QBQ",http://www.facebook.com/pg/PCCsonomacounty/reviews/,http://www.yelp.com/biz/bridges-pregnancy-clinic-and-care-center-santa-rosa-2
Life Pregnancy Services,7983 Covert Lane,Sebastopol,California (CA),95472,,,"https://www.google.com/maps/place/Life+Pregnancy+Services/@38.4034115,-122.8392253,15z/data=!4m2!3m1!1s0x0:0xcf00efbec541998b?sa=X&ved=2ahUKEwj1jOzR-ezvAhXwYN8KHdsKB9IQ_BIwCnoECBUQAw",,
Community Pregnancy Clinic,2045 Royal Ave Suite 208,Simi Valley,California (CA),93065,,https://cpcsimi.org/welcome/clinic-hours-location,"https://www.google.com/maps/place/Community+Pregnancy+Clinic/@34.2615037,-118.7577275,15z/data=!4m2!3m1!1s0x0:0xaa43ec3dc83b7827?sa=X&ved=2ahUKEwjFqtbZuuzvAhWGY98KHd2qBskQ_BIwE3oECCYQBQ",,
Foothill Pregnancy Center,427 N. Hwy 49,Sonora,California (CA),95370,,www.fpcsonora.com/,"https://www.google.com/maps/place/Foothill+Pregnancy+Center/@37.9913748,-120.3836241,15z/data=!4m5!3m4!1s0x0:0xc2b89e147476fc20!8m2!3d37.9913748!4d-120.3836241",https://www.facebook.com/Foothill-Pregnancy-Center-13930958302​4/,https://www.yelp.com/biz/foothill-pregnancy-center-sonora
Directions Medical Clinic - Stockton (Formerly PRC of Stockton),"829 Rosemarie LN, Suite B",Stockton,California (CA),95207,,https://www.dmcforwomen.org/contact/,"https://www.google.com/maps/place/Directions+Medical+Clinic/@37.9885823,-121.3163848,17z/data=!4m13!1m7!3m6!1s0x80900dac82c0a757:0x766af84d4d1237e6!2s829+Rosemarie+Ln,+Stockton,+CA+95207!3b1!8m2!3d37.9885823!4d-121.3141961!3m4!1s0x80900dabd636c49d:0x17f654a9ea7a8aaa!8m2!3d37.9885823!4d-121.3141961",,
MAMA Crisis Pregnancy Center,472 Richmond Rd,Susanville,California (CA),96130,,,"https://www.google.com/maps/place/Mama-Crisis+Pregnancy+Center/@40.4117558,-120.6607202,15z/data=!4m2!3m1!1s0x0:0xda5fc2b3d1268954?sa=X&ved=2ahUKEwiMy6GtrZnkAhVjUd8KHe2eCUwQ_BIwCnoECA4QCA",https://www.facebook.com/pages/category/Religious-Organization/MAMAs-Crisis-Pregnancy-Center-1024847827602534/,
Family Life Pregnancy Center,112 S Curry Street,Tehachapi,California (CA),93651,,https://familylifepc.org/,"https://www.google.com/maps/place/Family+Life+Pregnancy+Center/@35.1317014,-118.4489961,15z/data=!4m2!3m1!1s0x0:0xc1cc9483de29ba62?sa=X&ved=2ahUKEwjQ4YemwuzvAhULhOAKHZpVDTIQ_BIwCnoECBkQBQ",https://www.facebook.com/FamilyLifePregnancyCenterofTehachapi/,
Birth Choice of Temecula,41750 Winchester Road Ste O,Temecula,California (CA),92590,, www.birthchoicecenters.org,"https://www.google.com/maps/place/Birth+Choice+of+Temecula/@33.517412,-117.168103,15z/data=!4m2!3m1!1s0x0:0x7818e45d9c352631?sa=X&ved=2ahUKEwjwqPKl8d3vAhVsFlkFHa2xCYoQ_BIwEnoECCQQBQ",https://www.facebook.com/birthchoicetemecula/,
Pregnancy Help Center of the San Gabriel Valley,5626 N Rosemead Blvd,Temple City,California (CA),91780,,https://pregnancyhelpsgv.com/,"https://www.google.com/maps/place/Pregnancy+Help+Center+of+San+Gabriel+Valley/@34.1019488,-118.0732513,15z/data=!4m5!3m4!1s0x0:0x116468664c922728!8m2!3d34.1019488!4d-118.0732513",,
Ohana Health (formerly Conejo Pregnancy Center),"80 E Hillcrest Dr, Suite 130",Thousand Oaks,California (CA),91360,,https://ohanahealthclinic.com/,"https://www.google.com/maps/place/Ohana+Health/@34.1807517,-118.8747466,15z/data=!4m5!3m4!1s0x0:0xac0a2e90c020edbe!8m2!3d34.1807517!4d-118.8747466",,
Pregnancy Help Center,1311 Crenshaw Blvd. Suite A,Torrance,California (CA),90501,(310) 320-8976,http://www.phctorrance.org,"https://www.google.com/maps/place/Pregnancy+Help+Center/@33.8350779,-118.3292133,15z/data=!4m5!3m4!1s0x0:0x73c213a2d211f1f2!8m2!3d33.8350779!4d-118.3292133",http://www.facebook.com/phctorrance/,http://yelp.to/qTKq/g4q3hn3kJL
Pregnancy Resource Center of Tracy,1039 N. Central Avenue,Tracy,California (CA),95376,,http://www.tracyprc.org/,"https://www.google.com/maps/place/Pregnancy+Resource+Center-Tracy/@37.7393665,-121.4284167,17z/data=!3m1!4b1!4m5!3m4!1s0x80903d3cfc7365a1:0xf491fb547ea08130!8m2!3d37.7393665!4d-121.426228",https://www.facebook.com/PregnancyResourceCenterofTracy/,https://www.yelp.com/biz/crisis-pregnancy-center-of-tracy-tracy
Care Pregnancy Resource Center - Tulare,236 South N Street,Tulare,California (CA),93274,,https://carepregnancycenter.com/,"https://www.google.com/maps/place/Care+Pregnancy+Resource+Center/@36.2066625,-119.3413913,15z/data=!4m5!3m4!1s0x0:0x6c11e5081ae49fda!8m2!3d36.2066625!4d-119.3413913",,
Turlock Pregnancy and Health Center,134 Regis St. Suite B,Turlock,California (CA),95382,,https://turlockphc.com/,"https://www.google.com/maps/place/Turlock+Pregnancy+and+Health+Center/@37.5190884,-120.8508465,15z/data=!4m2!3m1!1s0x0:0xd44297976ec76258?sa=X&ved=2ahUKEwj_18fsrfnvAhVuKVkFHQk_DNAQ_BIwDHoECCIQBQ",,
Mendo Lake Women's Clinic (formerly Center for Life Choices),"425 South Orchard Avenue, Suite D",Ukiah,California (CA),95482,,https://mendolakewomensclinic.com/,"https://www.google.com/maps/place/Mendo+Lake+Women's+Clinic/@39.1484273,-123.1983096,15z/data=!4m5!3m4!1s0x0:0xd5ff1b023b31ccd1!8m2!3d39.1484273!4d-123.1983096",,
RealOptions Union City (Obria),33523 Western Ave.,Union City,California (CA),94587,,https://www.realoptions.net/ and https://www.obria.org/locations/union-city-ca/,"https://www.google.com/maps?ll=37.591997,-122.035202&z=9&t=m&hl=en-US&gl=US&mapclient=embed&cid=14794466641875122717",,
Alpha Clinics - Vacaville,1005 Alamo Dr.,Vacaville,California (CA),95687,(707) 449-8991,http://www.rupregnant.org/ and https://www.supportalphaclinics.org/,"https://www.google.com/maps/place/Alpha+Pregnancy+Clinics/@38.357648,-122.0055363,15z/data=!4m5!3m4!1s0x0:0x5bbad49248a985d7!8m2!3d38.357648!4d-122.0055363",https://www.facebook.com/AlphaPCNCVacaville/,https://www.yelp.com/biz/alpha-pregnancy-clinic-vacaville
Alpha Pregnancy Clinic of Northern California,138 S Orchard Avenue,Vacaville,California (CA),95688,(707) 449-8991,http://www.rupregnant.org/,,https://www.facebook.com/AlphaPCNCVacaville/,https://www.yelp.com/biz/alpha-pregnancy-clinic-vacaville
Ventura County Pregnancy Center,1732 Palma Dr #103,Ventura,California (CA),93003,,https://venturacpc.org/,"https://www.google.com/maps/place/Ventura+County+Pregnancy+Center/@34.2572313,-119.2271624,15z/data=!4m5!3m4!1s0x0:0xed028307a7bc436a!8m2!3d34.2572313!4d-119.2271624",,
Rose of Sharon PRC,14725 7th Street #600,Victorville,California (CA),92395,,https://roseofsharonprc.org/,"https://www.google.com/maps/place/Rose+of+Sharon+Pregnancy+Resource+Center/@34.5175482,-117.310917,15z/data=!4m2!3m1!1s0x0:0x812523fa9f258126?sa=X&ved=2ahUKEwj6rdTY_vHvAhXxYN8KHZ0qD44Q_BIwDHoECCMQBQ",,
Care Pregnancy Resource Center - Visalia,916 W. Main Street,Visalia,California (CA),93291,,https://carepregnancycenter.com/,"https://www.google.com/maps/place/Care+Pregnancy+Resource+Center/@36.3303811,-119.3016526,15z/data=!4m2!3m1!1s0x0:0x2bac6dc353e3907?sa=X&ved=2ahUKEwjqkvvstezvAhUDm-AKHW50D5oQ_BIwCnoECB4QBQ",https://www.facebook.com/carepregnancycentervisalia,https://www.yelp.com/biz/care-pregnancy-center-visalia
Pathway Health Clinic (formerly Pregnancy Resource Center),"1830 Hacienda Drive, Suite 8",Vista,California (CA),92081,,https://pathway-healthclinic.com/,"https://www.google.com/maps/place/Pathway+Health+Clinic/@33.1858005,-117.2801528,15z/data=!4m5!3m4!1s0x0:0x58e603bb94c07680!8m2!3d33.1858005!4d-117.2801528",,
Guadalupe Pregnancy Outreach,"217 East Lake St, 2nd Floor",Watsonville,California (CA),95077,,https://gpocares.org/,"https://www.google.com/maps/place/Guadalupe+Pregnancy+Outreach/@36.9139577,-121.7555664,15z/data=!4m5!3m4!1s0x0:0xa9955197a4cf35e0!8m2!3d36.9139577!4d-121.7555664",,
Whittier Pregnancy Center - Painter Ave (aka Whittier Life Center),7743 Painter Avenue Suite C,Whittier,California (CA),90602,,https://whittierpregnancycenter.org/,"https://www.google.com/search?client=firefox-b-1-d&tbs=lf:1,lf_ui:2&tbm=lcl&q=Whittier+pregnancy+Center+whittier+ca&rflfq=1&num=10&ved=2ahUKEwjihbXusPnvAhVKnOAKHS5CCF0QtgN6BAgKEAc#rlfi=hd:;si:10441150433661570331,l,CiVXaGl0dGllciBwcmVnbmFuY3kgQ2VudGVyIHdoaXR0aWVyIGNhSOHZ-O_lgICACFpcChl3aGl0dGllciBwcmVnbmFuY3kgY2VudGVyEAAQARACGAAYARgCGAMYBCIld2hpdHRpZXIgcHJlZ25hbmN5IGNlbnRlciB3aGl0dGllciBjYSoICAIQABABEAKSARxvYnN0ZXRyaWNzX2d5bmVjb2xvZ3lfY2xpbmlj;mv:[[33.9816345,-117.9819815],[33.939578499999996,-118.05134629999998]]",,
Whittier Pregnancy Center - Greenleaf Ave (aka Whittier Life Center),7654 Greenleaf Avenue,Whittier,California (CA),90602,,https://whittierpregnancycenter.org/,"https://www.google.com/search?client=firefox-b-1-d&tbs=lf:1,lf_ui:2&tbm=lcl&q=Whittier+pregnancy+Center+whittier+ca&rflfq=1&num=10&ved=2ahUKEwjihbXusPnvAhVKnOAKHS5CCF0QtgN6BAgKEAc#rlfi=hd:;si:6261074888043563597,l,CiVXaGl0dGllciBwcmVnbmFuY3kgQ2VudGVyIHdoaXR0aWVyIGNhSOjowbyzrICACFpcChl3aGl0dGllciBwcmVnbmFuY3kgY2VudGVyEAAQARACGAAYARgCGAMYBCIld2hpdHRpZXIgcHJlZ25hbmN5IGNlbnRlciB3aGl0dGllciBjYSoICAIQABABEAKSAQ5tZWRpY2FsX2NsaW5pYw;mv:[[33.9816345,-117.9819815],[33.939578499999996,-118.05134629999998]]",,
Obria Medical Clinics,16147 E. Whittier Blvd.,Whittier,California (CA),90603,,https://www.obria.org/locations/whittier-ca/,"https://www.google.com/maps/place/Obria+Medical+Clinics+-+Whittier/@33.942093,-118.1170964,11z/data=!4m8!1m2!2m1!1sObria!3m4!1s0x80c2d4c484e0d5f3:0x12cf6be97cb4111e!8m2!3d33.9418315!4d-117.9856975?hl=en-US",,
Harbor Pregnancy Help Center,705 W Pacific Coast Hwy,Wilmington,California (CA),90744,,https://sites.google.com/site/harborpregnancyhc/,"https://www.google.com/maps/place/Harbor+Pregnancy+Help+Center/@33.7908904,-118.2711629,15z/data=!4m5!3m4!1s0x0:0x966ecb6cd2e3fb8c!8m2!3d33.7908904!4d-118.2711629",https://www.facebook.com/Harbor-Pregnancy-Help-Center-1389264678008557/,https://www.yelp.com/biz/harbor-pregnancy-help-center-wilmington
Pregnancy Support Group - Woodland Women's Center,120 Court Street,Woodland,California (CA),95695,(530) 661-6333,http://www.pregnancysupportgroup.info,,http://www.facebook.com/pregnancysupportgroup?ref=hl,http://www.yelp.com/biz/pregnancy-support-group-of-woodland-woodland
Choices Yreka,409 N. Main St.,Yreka,California (CA),96097,,https://www.facebook.com/choicesyreka,"https://www.google.com/maps/place/Choices+Yreka/@41.7353906,-122.6348644,15z/data=!4m2!3m1!1s0x0:0xaf5af241099f3155?sa=X&ved=2ahUKEwjF85D4tuzvAhWtnOAKHYAoDFkQ_BIwDHoECBkQBQ",,
A Woman's Friend Pregnancy Resource Clinic,961 Live Oak Blvd,Yuba City,California (CA),95991,(530) 741-0556,https://awomansfriend.org/,"https://www.google.com/maps/place/A+Woman's+Friend+Pregnancy+Resource+Clinic/@39.1430241,-121.6227037,17z/data=!3m1!4b1!4m5!3m4!1s0x809b537326ea69f9:0x88ccfc67208cc6b4!8m2!3d39.14302!4d-121.620515",https://www.facebook.com/awomansfriendprc/?ref=br_rs,
Yucaipa Valley Pregnancy Counseling Center,32999 Yucaipa Blvd. #105,Yucaipa,California (CA),92399,,https://www.facebook.com/Yucaipa-Valley-Pregnancy-Counseling-Center-346591988751146/,"https://www.google.com/maps/place/Yucaipa+Valley+Pregnancy/@34.0331167,-117.0839127,14.9z/data=!4m5!3m4!1s0x0:0x81224ae617cd1cd7!8m2!3d34.0333707!4d-117.0849877",https://www.facebook.com/pages/category/Social-Service/Yucaipa-Valley-Pregnancy-Counseling-Center-346591988751146/,https://www.yelp.com/biz/yucaipa-valley-pregnancy-counseling-center-yucaipa-2
High Desert Pregnancy Clinic,"56669 29 Palms Hwy, Ste D",Yucca Valley,California (CA),92284,,https://hdpc.me/,"https://www.google.com/maps/place/High+Desert+Pregnancy+Cinic/@34.1201738,-116.4279432,15z/data=!4m2!3m1!1s0x0:0xffd8688355a270a2?sa=X&ved=2ahUKEwitk43l8uzvAhVjU98KHXKJB8gQ_BIwC3oECBkQBQ",https://www.facebook.com/highdesertpregnancyclinic/,