Name ,Address,City,State,Zip Code,Phone Number,Website,Google Business Page,Facebook,Yelp
Alpha Pregnancy Center,2129 Whispering Pines Road,Albany,Georgia (GA),31707,,www.alphapregnancycenter.net,,https://www.facebook.com/AlbanyAPC/,https://www.yelp.com/biz/alpha-pregnancy-care-center-albany-2
Hands of Hope Pregnancy & Resources Center,111 Habitat St.,Americus,Georgia (GA),31709,,https://americuspregnancy.org/,"https://www.google.com/maps/place/Hands+of+Hope+Pregnancy+%26+Resources+Center/@32.071014,-84.23927,15z/data=!4m2!3m1!1s0x0:0x7719a1b9fc4d46c8?sa=X&ved=0ahUKEwiWpoGg2YHcAhWIi1QKHbvfCKIQ_BIIfjAK",https://www.facebook.com/handsofhopeprc/,https://www.yelp.com/biz/hands-of-hope-pregnancy-and-resources-center-americus
Athens Pregnancy Center,767 Oglethorpe Avenue,Athens,Georgia (GA),30606,(678) 753-3180,http://athenspregnancycenter.org/,"https://www.google.com/maps/place/Athens+Pregnancy+Center/@33.9619312,-83.4127516,15z/data=!4m2!3m1!1s0x0:0x54a4ca96f4614643?sa=X&ved=2ahUKEwibuP6gjI_tAhXjYN8KHa3CChQQ_BIwCnoECBgQBQ",http://www.facebook.com/athpregcenter/,http://www.yelp.com/biz/athens-pregnancy-center-athens-2
Covenant Care Services,"337 S Milledge Ave, Ste 113",Athens,Georgia (GA),30605,,,,,
Atlanta Care Center,"1801 Peachtree St, #225",Atlanta,Georgia (GA),30309,,,,,
Bethany Christian Services - Atlanta,"6645 Peachtree Dunwoody Rd, NE",Atlanta,Georgia (GA),30328,,https://bethany.org/locations/us/georgia/atlanta /// https://impregnant.org/,"https://www.google.com/maps/place/Bethany+Christian+Services/@33.9366166,-84.3528675,15z/data=!4m5!3m4!1s0x0:0x7e1dc143c655c052!8m2!3d33.9366166!4d-84.3528675",https://www.facebook.com/bethanyfans,https://www.yelp.com/biz/bethany-christian-services-atlanta?osq=Bethany+Christian+Services
Birthright,3424 Hardee Ave,Atlanta,Georgia (GA),30341,,https://www.birthrightofatlanta.com/,"https://www.google.com/maps/place/Birthright+of+Atlanta/@33.883692,-84.307636,15z/data=!4m2!3m1!1s0x0:0xf9699020b2d983d0?sa=X&ved=2ahUKEwibr7yVzo_kAhWSrFkKHShiDu8Q_BIwCnoECA4QCA",,
Cura Women’s Care Clinic (Downtown Atlanta),"212 Edgewood, Second Floor",Atlanta,Georgia (GA),30303,,http://curawomenscareclinic.com/,,,
Cura Women’s Care Clinic of Atlanta,"100 Edgewood Ave, NE, Ste 1650",Atlanta,Georgia (GA),30303,,http://curawomenscareclinic.com/,"https://www.google.com/maps/place/Care+Net+Pregnancy+Resource+Center+of+Atlanta/@33.7546574,-84.3876817,17z/data=!3m1!4b1!4m5!3m4!1s0x88f503889972b623:0x8427eb6f7726a970!8m2!3d33.754653!4d-84.385493",,
Augusta Care Pregnancy Center,1298 1/2 Broad St,Augusta,Georgia (GA),30901,,www.augustacpc.org,"https://www.google.com/search?q=augusta%20care%20pregnancy%20center&rlz=1C1CHBF_enUS794US794&oq=Augusta+Care+Pregnancy+Center&aqs=chrome.0.0l5.315j0j4&sourceid=chrome&ie=UTF-8&npsic=0&rflfq=1&rlha=0&rllag=33488996,-82028338,5040&tbm=lcl&rldimm=12193556673534065216&ved=0ahUKEwih2qGC54HcAhXmjFQKHXrhCe0QvS4ISzAH&rldoc=1&tbs=lrf:!2m1!1e16!3sIAE,lf:1,lf_ui:4#rlfi=hd:;si:12193556673534065216;mv:!1m3!1d11646.164886081788!2d-82.0283384!3d33.48899655!2m3!1f0!2f0!3f0!3m2!1i173!2i42!4f13.1;tbs:lrf:!2m1!1e16!3sIAE,lf:1,lf_ui:4",https://www.facebook.com/pages/Augusta-Care-Pregnancy-Center/194212723933244,https://www.yelp.com/biz/augusta-care-pregnancy-center-augusta
West Augusta Care Pregnancy Center,2915 Professional Pkwy,Augusta,Georgia (GA),30907,,www.augustacpc.org,,,
We Care PRC,679 Fair St.,Baxley,Georgia (GA),31513,,,,,
Georgia Mountain Pregnancy Center,411 Highway 515 Ste F,Blairsville,Georgia (GA),30512,,,,,
Care Net PC of Coastal GA,3548 Community Rd,Brunswick,Georgia (GA),31558,(912) 267-1100,www.helloskylark.com,,https://www.facebook.com/skylarkclinic/,
First Option Care of SW Georgia,930 4th St. SE,Cairo,Georgia (GA),39828,,http://www.1stoption.care/,,,
Calhoun Pregnancy Center,200 E Belmont Dr,Calhoun,Georgia (GA),30701,(706) 625-5678,https://www.calhounpregnancycenter.com/,,https://www.facebook.com/calhounpregnancycenter/,
Pregnancy Resource Center,514 Tanner St,Carrollton,Georgia (GA),30117,,www.pregnancyrc.com,,https://www.facebook.com/PRCCarrollton/,
Bartow Family Resources,"200 Leake Street, Suite 107",Cartersville,Georgia (GA),30120,,www.bartowfamilies.com,,,
LMO Pregnancy Care Center,134 East Fairmount Ave,Cedartown,Georgia (GA),30125,,www.lifemattersoutreach.net,,,
LMO Pregnancy Care Center,508 N Main St,Cedartown,Georgia (GA),30125,,,,,
Cleveland Care Center,14 Campbell St,Cleveland,Georgia (GA),30528,,www.clevelandcarecenter.com,,,
ABC WOMEN'S CLINIC (COCHRAN),"150 East Peacock St., Suite A",Cochran,Georgia (GA),31014,,www.abcwomensclinic.org,,,
Seneca Choices for Life Inc,3900 Rosemont Dr,Columbus,Georgia (GA),31904,,www.senecacfl.life,,,
Sound Choices Pregnancy Clinic,1316-B Wynnton Court,Columbus,Georgia (GA),31906,,www.soundchoicespc.org,,,
Refuge Pregnancy Center,1307 Milstead Ave.,Conyers,Georgia (GA),30012,,www.refugepregnancycenter.com,"https://www.google.com/maps/place/Refuge+Pregnancy+Center/@33.678183,-84.0086506,15z/data=!4m2!3m1!1s0x0:0x34fb46818ef088eb?sa=X&ved=0ahUKEwjjjrLN54HcAhVnsFQKHQb4DuwQ_BIIhQEwCg",https://www.facebook.com/RefugePregnancyCenter/,https://www.yelp.com/biz/ohana-pregnancy-referrals-kaunakakai?fsid=OhQhhYIGlh0M01n1n5GF1w
Newton Pregnancy Resource,5278 Adams St ,Covington,Georgia (GA),30014,,,,,
Cumming Women's Center,"133 Samaritan Dr, Ste 306",Cumming,Georgia (GA),30040,,"www.cummingwomenscenter.org, www.supportwhisperinghope.org",,,
"Dahlonega Care Center, Inc.",353 North Grove St,Dahlonega,Georgia (GA),30533,,,,,
Women's Enrichment Center,109 W Gordon Street,Dalton,Georgia (GA),30720,,https://www.wecnorthga.org/,,https://www.facebook.com/WECNorthGA/,https://www.yelp.com/biz/womens-enrichment-center-dalton
Alpha Pregnancy Center,379 E Lee St,Dawson,Georgia (GA),39842,,www.alphapregnancycenter.net,,,
Women's Clinic of Atlanta,125 Clairemont Ave Ste 330,Decatur,Georgia (GA),30030,,,,,
Alpha Pregnancy Center,721 W. Third Street,Donalsonville,Georgia (GA),39845,,www.alphapregnancycenter.net,,,
Pregnancy Resources of Doraville,5935 New Peachtree Rd.- Bldg B,Doraville,Georgia (GA),30340,,,,,
Pregnancy Care Center,202 S College Ave,Douglas,Georgia (GA),31533,,,,,
PRC Medical,3030 Chapel Hill Rd,Douglasville,Georgia (GA),30135,,http://www.abortiondecision.com/,,https://www.facebook.com/pages/PRC-Medical-Clinic/427466864286022,
ABC Women's Clinic,402 W Madison St,Dublin,Georgia (GA),31021,,www.abcwomensclinic.org,"https://www.google.com/maps/place/ABC+Women's+Clinic/@32.5370485,-82.9080131,15z/data=!4m2!3m1!1s0x0:0xd452a9b96202f2f8?sa=X&ved=2ahUKEwiu8rfS7JLkAhWDd98KHYhGABUQ_BIwC3oECA0QCA",https://www.facebook.com/abcwomensclinic/,
Safe Choice Medical Care Ctr-Ellijay,220 Sailors Dr,Ellijay,Georgia (GA),30540,,www.safechoiceppc.com,,,
Pregnant Choices,4325 Washington Road,Evans,Georgia (GA),30809,,www.pregnantchoices.com,,,
Fayette Pregnancy Resource Ctr,360 East Lanier Ave,Fayetteville,Georgia (GA),30214,,www.fayetteprc.com,,,
Choices Pregnancy Care Center,4591 Winder Hwy Ste 120,Flowery Branch,Georgia (GA),30542,,,,,
The Pregnancy Center of Monroe Cty,562 N Lee St,Forsyth,Georgia (GA),31029,,http://monroecountypregnancycenter.org/,"https://www.google.com/maps/place/Pregnancy+Center/@33.0345198,-83.9383169,15z/data=!4m5!3m4!1s0x0:0x7e2b448c38eee062!8m2!3d33.0345198!4d-83.9383169",https://www.facebook.com/Pregnancy-Center-of-Monroe-County-225051724295532/,https://www.yelp.com/biz/the-pregnancy-center-of-monroe-county-forsyth
Choices Pregnancy Care Center,434 Green St Place,Gainesville,Georgia (GA),30501,,"www.choicespregnancypartners.org, www.choicespregnancy.org",,,
First Call Pregnancy Center,1531 W Broad St,Greensboro,Georgia (GA),30642,,www.pregnancygreensboro.org,,,https://www.yelp.com/biz/first-call-pregnancy-center-greensboro-2?fsid=OhQhhYIGlh0M01n1n5GF1w
Caring House Pregnancy Center,127 N. 13th St.,Griffin,Georgia (GA),30223,,https://www.facebook.com/Caring-House-Inc-163360860394543/,"https://www.google.com/maps/place/Caring+House+Pregnancy+Center/@33.2498289,-84.2737241,15z/data=!4m5!3m4!1s0x0:0x2881dc73215418e3!8m2!3d33.2498289!4d-84.2737241",https://www.facebook.com/Caring-House-Inc-163360860394543/?rf=112126468851203,https://www.yelp.com/biz/the-caring-house-griffin
Pregnancy Aid Clinic,531 Forest Pkwy #100,Forest Park,Georgia (GA),30297,,www.pregnancyaidclinic.org,,,
Hart Life,317 W Franklin St,Hartwell,Georgia (GA),30643,,http://www.hartlife.net/,,https://www.facebook.com/pages/Hart-Life/160327530657401,https://www.yelp.com/biz/hart-life-hartwell
Paulding Pregnancy Services,"1899 Lake Rd, Ste 120",Hiram,Georgia (GA),30141,,www.pauldingpregnancy.org,,,
Butts County Crisis Pregnancy Center,153 Dempsey Ave,Jackson,Georgia (GA),30233,,www.lifechoicesprc.net,,,
Life Choices,307 East Third Street,Jackson,Georgia (GA),30233,,,,,
Life Choices Pregnancy Resource Center (3077),176 Indian Springs St,Jackson,Georgia (GA),30233,,,"https://www.google.com/maps/place/Life+Forward,+Pregnancy+Care+of+Cincinnati/@39.126363,-84.50873,15z/data=!4m2!3m1!1s0x0:0x89f0270780419c91?sa=X&ved=0ahUKEwiD5c_QmIHcAhXqqFkKHaXtC8oQ_BIIlAEwCg",,https://www.yelp.com/biz/life-choices-pregnancy-resource-center-jackson-2?fsid=OhQhhYIGlh0M01n1n5GF1w
North Georgia Pregnancy Center,7 Caring Way ,Jasper,Georgia (GA),30143,,"www.ngapregnancy.com, www.babyontheway.org",,,
Hope Resource Center,745 Lee Street,Jefferson,Georgia (GA),30529,,,,,
Care Net PC of Coastal GA,212 S 1st Street Ste 6,Jesup,Georgia (GA),31545,,www.helloskylark.com,,,
Women's Clinic of Atlanta,"2750 Old Alabama Rd, Suite 100",Johns Creek,Georgia (GA),30022,,,,,
Crisis Pregnancy Center of Jonesboro,158 S Main St,Jonesboro,Georgia (GA),30236,,,,,
Cobb Pregnancy Resource Center,3550 Cherokee St,Kennesaw,Georgia (GA),30101,,http://www.cobbpregnancyresourcecenter.org/,,,
First Choice Women's Center,300 Harwell Ave,LaGrange,Georgia (GA),30240,,www.lagrangepregnancy.com,,,
Obria Medical Clinics,565 Old Norcross Rd. Suite 200,Lawrenceville,Georgia (GA),30046,(770) 338-1680,http://obria.org,,https://www.facebook.com/ObriaMedicalClinics/,https://www.yelp.com/biz/obria-medical-clinics-lawrenceville
Pregnancy Resource Center of Gwinnett,337 W Pike St,Lawrenceville,Georgia (GA),30046,,www.prcg.org,,,
Pregnancy Resource Center of Lee County,111 Starksville Ave North,Leesburg,Georgia (GA),31763,,,,,
Pregnancy Resource Center of Walton,3060 Hwy 81 South,Loganville,Georgia (GA),30052,,"www.prcwalton.com, www.waltonpregnancy.com",,,
Caring Solutions Pregnancy Center,112 Pierce Ave,Macon,Georgia (GA),31204,,https://cl-sh.org/project/sav-a-life-ministries/,,https://www.facebook.com/CLSHofCentralGA/,
Caring Soultions of Central Georgia,1044 Washington Avenue,Macon,Georgia (GA),31201,,www.friendsofcaringsolutions.com,https://www.google.com/maps?q=Caring+Solutions+of+Central+Georgia+1044+Washington+Avenue+Macon+GA&um=1&ie=UTF-8&sa=X&ved=0ahUKEwiN1cmo0PnbAhXsw1kKHVSeDMIQ_AUICigB,https://www.facebook.com/caringsolutionspc/,https://www.yelp.com/biz/caring-solutions-macon
Covenant Care Services,3950 Ridge Ave,Macon,Georgia (GA),31210,,,,,
Sav-A-Life Care Center (479),112 Pierce Avenue,Macon,Georgia (GA),31204,,,,,https://www.yelp.com/biz/sav-a-life-care-center-macon?fsid=OhQhhYIGlh0M01n1n5GF1w
The Kolbe Center for Life,833 Walnut St,Macon,Georgia (GA),31201,,http://www.kolbecentermacon.org/,"https://www.google.com/maps/place/The+Saint+Maximilian+Kolbe+Center+for+Life+(The+Kolbe+Center)/@32.836232,-83.639187,15z/data=!4m5!3m4!1s0x0:0x693cb98057dc0da1!8m2!3d32.836232!4d-83.639187",https://www.facebook.com/KolbeCenterMacon/,
First Care Women’s Clinic,615 Roswell St NE,Marietta,Georgia (GA),30060,(770) 590-9361,https://firstcarewomensclinic.com/,,https://m.facebook.com/pages/category/Pregnancy-Care-Center/First-Care-Womens-Clinic-164219654152363/,https://m.yelp.com/biz/first-care-womens-clinic-marietta
Preg. Resource Ctr. of Henry Co. (481),3834 Jodeco Rd,McDonough,Georgia (GA),30253,,,,,https://www.yelp.com/biz/preg-resource-ctr-of-henry-co-mcdonough?fsid=OhQhhYIGlh0M01n1n5GF1w
The Bridge Wellness South,100 Eagles Walk ,Stockbridge,Georgia (GA),30281,,www.prcg.org,,,
Pregnancy Resource Center,700-B Breedlove Drive,Monroe,Georgia (GA),30655,,,,,
Women's Health and Wellness Clinic of Walton,226 Alcovy St,Monroe,Georgia (GA),30655,,www.prcwalton.com,,,
Hope House Pregnancy Care Center,716 5th Ave SE,Moultrie,Georgia (GA),31768,,https://hopehousecares.org/,,,
Coweta Pregnancy Services,29 Brown St,Newnan,Georgia (GA),30263,(770) 251-7158,https://coweta-ps.org/,,,
Pregnancy Care Center of Richmond Hill,83 Bass Dr Suite D,Richmond Hill,Georgia (GA),31324,,,,,
Pregnancy Care Center of Rincon,"594 S Columbia Ave, Ste 500",Rincon,Georgia (GA),31326,,www.rinconpregnancycarecenter.com,,,
Women's Enrichment Center,102 Remco Shops Lane,Ringgold,Georgia (GA),30736,,https://www.wecnorthga.org/,,https://www.facebook.com/WECNorthGA/,
Life Choices Pregnancy Resource Ctr,527 Jones Ave,Rockmart,Georgia (GA),30153,,,,,
Haven Health Clinic for Women,311 Redmond Rd,Rome,Georgia (GA),30165,,"www.cceminc.com, www.havenclinic.org",,https://www.facebook.com/havenhealthclinic/,
Pregnancy Aid Clinic - South,281 S. Atlanta St,Roswell,Georgia (GA),30075,,www.pregnancyaidclinic.org,,https://www.facebook.com/pacpropage/,
ABC Women’s Clinic ,310 East Church St.,Sandersville,Georgia (GA),31082,,https://abcwomensclinic.com/,,,https://www.yelp.com/biz/abc-womens-clinic-dublin-3?fsid=OhQhhYIGlh0M01n1n5GF1w
Coastal Pregnancy Center,4606-B Skidaway Rd,Savannah,Georgia (GA),31404,,,,,
Savannah Care Center,105 E 34th St,Savannah,Georgia (GA),31401,,https://savannahcarecenter.org/,,https://www.facebook.com/SavannahCare/,https://www.yelp.com/biz/savannah-care-center-savannah
United for Life to His Glory,5302 Frederick Street,Savannah,Georgia (GA),31405,,,,,
Choices of the Heart,425 E. Grady St.,Statesboro,Georgia (GA),30458,,www.choicesoftheheart.org,,https://www.facebook.com/Choices-of-the-Heart-134810413228328/,
Pregnancy Resource Center,142 Economy St,Summerville,Georgia (GA),30747,,,,,
ABC Women’s Clinic ,"120 Jackson St., Suite B",Swainsboro,Georgia (GA),30401,,https://abcwomensclinic.com/,,,
Alpha Pregnancy Center,408 N. Livingston St.,Sylvester,Georgia (GA),31707,,www.alphapregnancycenter.net,,https://www.facebook.com/AlbanyAPC/,
Heritage CPC (486),104 1/2 Green St,Thomaston,Georgia (GA),30286,,,,,https://www.yelp.com/biz/heritage-cpc-thomaston?fsid=OhQhhYIGlh0M01n1n5GF1w
Heritage Pregnancy Center,501 W. Gordon Street,Thomaston,Georgia (GA),30286,,,,,
First Option Care of SW Georgia,320 N Crawford St,Thomasville,Georgia (GA),31792,,www.1stoption.care,,,
Women's First Choice Medical,209 E 4th St,Tifton,Georgia (GA),31794,,http://www.firstchoicetift.com/AboutUs.aspx,"https://www.google.com/maps/place/Women's+First+Choice+Medical+Center/@31.4596936,-83.5111889,17z/data=!3m1!4b1!4m5!3m4!1s0x88ee01ff1872bf23:0x6388ade05eaf023e!8m2!3d31.4596936!4d-83.5090002",https://www.facebook.com/firstchoicetift/,https://www.yelp.com/biz/womens-first-choice-medical-center-tifton-2
"Atlanta Pregnancy Resource Centers, Inc.","3983 LaVista Rd, Ste 108",Tucker,Georgia (GA),30084,,"www.atlantapregnancy.org, http://curawomenscareclinic.com/",,,
Birthright,1205 Baytree Rd. #4,Valdosta,Georgia (GA),31602,,,"https://www.google.com/maps/place/Birth+Right/@30.8464,-83.3055,15z/data=!4m5!3m4!1s0x0:0xfce57f6d2d14602a!8m2!3d30.8464!4d-83.3055",https://www.facebook.com/pages/category/Social-Service/Birthright-of-Valdosta-852024218273846/,
Options Now,214 W Park Ave,Valdosta,Georgia (GA),31602,(229) 506-5017,www.optionsnow.org,,https://www.facebook.com/OptionsNowValdosta/,http://www.yelp.com/biz/options-now-valdosta
Rachel's House/First Choice Georgia Pregnancy Clinic,1804 Seminole Dr,Vidalia,Georgia (GA),30474,,"www.firstchoicepregnancyclinic.com, www.rachelshouseprc.org",,,
Caring Solutions Pregnancy Center,"109 Osigian Blvd, Ste 400",Warner Robins,Georgia (GA),31088,,www.caringsolutionspregnancycenter.com,,,
Crisis Pregnancy Center,202 North Ave,Warner Robins,Georgia (GA),31093,,,,,
Pregnancy Resource Center (2726),"306 N. Davis Dr, Ste B",Warner Robins,Georgia (GA),31093,,,,,https://www.yelp.com/biz/pregnancy-resource-center-warner-robins?fsid=OhQhhYIGlh0M01n1n5GF1w
"The HOPE Center, Inc.",295 Molly Lane Suite 120,Woodstock,Georgia (GA),30189,,www.hopectr.com,,,
PAC - Personalized Care in Women's Health,531 Forest Parkway ,Forest Park,Georgia (GA),30297,(404) 763-4357,https://pac-woman.com/,"https://www.google.com/search?q=abortion+clinic+atlanta+ga&rlz=1C5CHFA_enUS928US928&biw=1440&bih=622&tbm=lcl&ei=qjrUYqvoJIPm5NoP9dWs6Ac&oq=abortion+clinic+atlanda&gs_l=psy-ab.1.0.0i13k1l2j0i30i22k1j0i30i15i22k1j0i30i13i5k1l3j0i30i8i13k1l3.8395.9995.0.11346.7.7.0.0.0.0.83.483.7.7.0....0...1c.1.64.psy-ab..0.7.479...0i512k1j0i512i457k1.0.eF9zGYizWEI#rlfi=hd:;si:7799831118744138116,l,ChphYm9ydGlvbiBjbGluaWMgYXRsYW50YSBnYUiXlc2RsbeAgAhaJhAAEAEYARgCGAMiGmFib3J0aW9uIGNsaW5pYyBhdGxhbnRhIGdhkgEVcHJlZ25hbmN5X2NhcmVfY2VudGVyqgEXEAEqEyIPYWJvcnRpb24gY2xpbmljKAA;mv:[[33.8945544,-84.24892179999999],[33.568184699999996,-84.48101559999999]]",,