Name ,Address,City,State,Zip Code,Phone Number,Website,Google Business Page,Facebook,Yelp
Problem Pregnancy of North Quabbin,105 Main St,Athol,Massachusetts (MA),01331,,http://www.problempregnancy.org/,https://www.google.com/maps?q=Problem+Pregnancy+of+North+Quabbin+105+Main+St+Athol+MA&um=1&ie=UTF-8&sa=X&ved=0ahUKEwiBoIPmx4PcAhUluVkKHQPSCfUQ_AUIDSgE,https://www.facebook.com/Problem-Pregnancy-of-Athol-1207369352724238/,https://www.yelp.com/biz/problem-pregnancy-of-athol-athol
Abundant Hope Pregnancy Resource Center,182 East Street,Attleboro,Massachusetts (MA),02703,,https://ahprc.org/,"https://www.google.com/maps/place/Abundant+Hope+Pregnancy+Resource+Center/@41.9383813,-71.2764387,17z/data=!4m8!1m2!2m1!1syelp+Abundant+Hope+Pregnancy+Resource+Center+182+East+Street+Attleboro+MA!3m4!1s0x89e460ad530928ff:0xe939cc42711877c0!8m2!3d41.9383813!4d-71.27425",https://www.facebook.com/AbundantHopePRC/,Pregnancy Tests
Attleboro Women’s Health Center,550 N Main street,Attleboro,Massachusetts (MA),02703,(508) 222-4300,https://go.awhc.net/abortion-info?gclid=EAIaIQobChMI-NLMmZrK8wIVCZ2zCh2VTwoiEAAYASAAEgJLC_D_BwE,,,
We Care,887 Pike Ave,Attleboro,Massachusetts (MA),02703,,,,,
Daybreak Pregnancy Resource Center,234 Cabot Street,Beverly,Massachusetts (MA),01915,,,https://www.google.com/maps?q=Daybreak+Pregnancy+Resource+Center+234+Cabot+Street+Beverly+MA&um=1&ie=UTF-8&sa=X&ved=0ahUKEwiR6fzx0oPcAhUOk1kKHQm0BewQ_AUICigB,https://www.facebook.com/pages/biz/beverly/Daybreak-Pregnancy-Resource-Center/178358506154433/,https://www.yelp.com/biz/daybreak-pregnancy-resource-center-beverly
Boston Center for Pregnancy Choices,120 Lincoln St Ste 1A,Boston,Massachusetts (MA),02111,,https://bostonpregnancychoices.org/,,https://www.facebook.com/BostonPregnancyCenter/,https://yelp.to/Q5hLLEj7Tpb
Brighton Marine Health Center,77 Warren St Ste 251,Brighton,Massachusetts (MA),02135,,brighton-marine.org,https://www.google.com/maps?q=Brighton+Marine+Health+Center+77+Warren+St+Ste+251+Brighton+MA&um=1&ie=UTF-8&sa=X&ved=0ahUKEwiw2PaN24PcAhXEzlkKHbH5BdgQ_AUICigB,https://www.facebook.com/BrightonMarine/,https://www.yelp.com/biz/brighton-marine-health-center-brighton
Heartbeat Pregnancy & Information Ctr,113 Winn St.,Burlington,Massachusetts (MA),01803,,https://pregnancyma.com/,,https://www.facebook.com/HeartbeatBurlington/,https://www.yelp.com/biz/heartbeat-burlington
First Concern Pregnancy Resource Center,46 High St,Clinton,Massachusetts (MA),01510,,http://firstconcern.org/,,https://www.facebook.com/events/2039428766309623/,
First Concern Pregnancy Resource Center,91 Main St Ste 101,Marlborough,Massachusetts (MA),01752,,http://firstconcern.org/,https://www.google.com/maps?q=First+Concern+Pregnancy+Resource+Center+116+Union+St+Clinton+MA&um=1&ie=UTF-8&sa=X&ved=0ahUKEwiD987vyoPcAhVyrlkKHfnQA-cQ_AUICigB,https://www.facebook.com/firstconcern/,https://www.yelp.com/biz/first-concern-pregnancy-resource-center-clinton-2
Healthy Futures (3265),1444 Dorchester Ave,Dorchester,Massachusetts (MA),02122,,http://healthy-futures.org/,,https://www.facebook.com/HFuture,https://www.yelp.com/biz/healthy-future-dorchester
Bethlehem House,33 Knipfer Ave,Easthampton,Massachusetts (MA),01027,,http://www.bethlehemhousewma.org/,"https://www.google.com/maps/place/Bethlehem+House+of+Western+Mass/@42.2680815,-72.6754627,15z/data=!4m8!1m2!2m1!1syelp+Bethlehem+House+33+Knipfer+Ave+Easthampton+MA!3m4!1s0x89e6d84e75eeba0b:0x4b01b22de7c1420d!8m2!3d42.267441!4d-72.660596",https://www.facebook.com/pages/Bethlehem-House/772139319596284,Pregnancy Tests
Your Options Medical Center,25 N Main St,Fall River,Massachusetts (MA),02720,(508) 252-8162,https://youroptionsma.org/,"https://www.google.com/maps/place/Your+Options+Medical+Centers/@41.7023877,-71.1571075,17z/data=!3m1!4b1!4m5!3m4!1s0x89e4f8e648ac4c5f:0x486b0c1eff22c449!8m2!3d41.7023837!4d-71.1549188",https://www.facebook.com/LearnYourOptionsMA/?ref=br_rs,https://www.yelp.com/biz/your-options-medical-center-fall-river
Birthright,320 Gifford St #4,Falmouth,Massachusetts (MA),02540,,http://birthright.org/falmouth,"https://www.google.com/maps?q=Birthright+Homeport,+320+Gifford+St+Falmouth+MA&um=1&ie=UTF-8&sa=X&ved=0ahUKEwiPt6iB3oPcAhVOpFkKHXSDA8AQ_AUICigB",https://www.facebook.com/BirthrightInternational/,
Care Net PRC of N Central MA,515 Main St #1000,Fitchburg,Massachusetts (MA),01420,,http://carenetfitchburg.net/,"https://www.google.com/maps/place/Care+Net+Center/@42.5833393,-71.8020936,17z/data=!3m1!4b1!4m5!3m4!1s0x89e3e7a996dc59fb:0xbf568f82f70f1948!8m2!3d42.5833393!4d-71.7999049",https://www.facebook.com/Care-Net-Fitchburg-132496573611623/,
Birthright,79A Main St,Framingham,Massachusetts (MA),01702,,http://birthright.org/framingham,https://www.google.com/maps?q=Birthright+79A+Main+St+Framingham+MA&um=1&ie=UTF-8&sa=X&ved=0ahUKEwjk5sX324PcAhWRtlkKHTyNDfEQ_AUICygC,https://www.facebook.com/BirthrightInternational/,
Alternatives Pregnancy Center,466 Main Street,Greenfield,Massachusetts (MA),01301,,alternativespregnancycenter.org/,"https://www.google.com/maps/place/Alternatives+Pregnancy+Center/@42.587643,-72.5991257,17z/data=!3m1!4b1!4m5!3m4!1s0x89e12f412ebc5611:0xdbe63456c1fb14b9!8m2!3d42.587643!4d-72.596937",https://www.facebook.com/alternativespregnancycenter/?hc_ref=ARTpQl8LoV4LdtZSFRmLx0PvDz6AltR8QFqeF7-i0xz5x7LaZIwt4KrW4NGXjD93N1E&fref=nf,https://www.yelp.com/biz/alternatives-pregnancy-center-greenfield-2?osq=alternatives
"Merrimack Valley Pregnancy Services, Inc.",322R Groveland Street,Haverhill,Massachusetts (MA),01830,,"http://pccnortheast.org/, https://mvpregnancy.com/contact/","https://www.google.com/maps/place/Merrimack+Valley+Pregnancy+Services/@42.767378,-71.0488461,17z/data=!4m8!1m2!2m1!1sMerrimack+Valley+Pregnancy+Services,+Inc.+322R+Groveland+Street+Haverhill+MA!3m4!1s0x89e302fe2f0dac65:0x228f358cd3e7ed9d!8m2!3d42.7671471!4d-71.0461686",,
Pregnancy Care Center,107 Merrimack St ,Haverhill,Massachusetts (MA),01830,,http://pccnortheast.org/,https://www.google.com/maps?q=Pregnancy+Care+Center+496+Main+Street+Haverhill+MA&um=1&ie=UTF-8&sa=X&ved=0ahUKEwiAptbl2YPcAhUq0FkKHZU9DB4Q_AUICigB,,https://www.yelp.com/biz/pregnancy-care-center-haverhill
Pregnancy Care Center,128 Ames St,Lawrence,Massachusetts (MA),01841,,http://pccnortheast.org/,https://www.google.com/maps?q=Pregnancy+Care+Center+128+Ames+St+Lawrence+MA&um=1&ie=UTF-8&sa=X&ved=0ahUKEwj5pZaky4PcAhVuplkKHaiUBA8Q_AUICigB,https://www.facebook.com/Pregnancy-Care-Center-of-the-Merrimack-Valley-194275530612420/?hc_ref=ARTZ71NplzHXv2RzbZD4fS9lO5AC_DnmjkQksZ_CIIciLvmL59Ln51iyl4ldiGMBzEA&fref=nf,
Birthright,277 Main St,Marlborough,Massachusetts (MA),01752,,http://birthright.org/marlborough,https://www.google.com/maps?q=Birthright+277+Main+St+Marlborough+MA&um=1&ie=UTF-8&sa=X&ved=0ahUKEwi5lJmo1IPcAhVhoFkKHRPfAGEQ_AUICygC,https://www.facebook.com/BirthrightInternational/,https://www.yelp.com/biz/birthright-marlborough
Pregnancy Help,61 South Ave.,Natick,Massachusetts (MA),01760,,https://www.pregnancyhelpboston.org/contact.php,https://www.google.com/maps?q=Pregnancy+Help+61+South+Ave.+Natick+MA&um=1&ie=UTF-8&sa=X&ved=0ahUKEwjYq9Tb2oPcAhVKmVkKHehaB30Q_AUICygC,,
Birthright,110 Summer St,New Bedford,Massachusetts (MA),02740,,http://birthright.org/newbedford,"https://www.google.com/maps/place/Birthright+of+New+Bedford+Inc/@41.6150377,-70.9335742,17z/data=!3m1!4b1!4m5!3m4!1s0x89e4e3c300c82fed:0x5c8fc550599dd4b7!8m2!3d41.6150377!4d-70.9313855",https://www.facebook.com/pages/Birthright-of-New-Bedford/640324816102041,
New Direction Pregnancy & Sexual Health Resources,98 Church Street,North Adams,Massachusetts (MA),01267,,http://www.newdirectionpc.org/,,https://www.facebook.com/New-Direction-Pregnancy-Sexual-Health-Resources-209934989084751/,
Life Saver Ministries,83 Middlesex St,North Chelmsford,Massachusetts (MA),01863,,http://www.mfhouse.net/,https://www.google.com/maps?q=Life+Saver+Ministries+83+Middlesex+St+North+Chelmsford+MA&um=1&ie=UTF-8&sa=X&ved=0ahUKEwjYuduV3IPcAhUSq1kKHeCjBD0Q_AUICigB,https://www.facebook.com/pages/Life-Saver-Ministries/192378051108515,
Learn Your Options,103 Broadway Ave,Revere,Massachusetts (MA),02151,,https://youroptionsma.org/contact-us/,"https://www.google.com/maps/place/Your+Options+Medical+Centers/@42.4049039,-71.0183394,17z/data=!3m1!4b1!4m5!3m4!1s0x89e371e8f07df00d:0x7697a6807ad73ae3!8m2!3d42.4049039!4d-71.0161507",https://www.facebook.com/LearnYourOptionsMA/,https://www.yelp.com/biz/your-options-medical-centers-revere-6
Your Options Medical Center,97 Broadway,Revere,Massachusetts (MA),02151,(781) 202-5087,https://youroptionsma.org/,"https://www.google.com/maps/place/Your+Options+Medical+Centers/@42.4049039,-71.0161507,15z/data=!4m5!3m4!1s0x0:0x7697a6807ad73ae3!8m2!3d42.4049039!4d-71.0161507",https://www.facebook.com/YourOptionsMA/,https://www.yelp.com/biz/your-options-medical-centers-revere-6
Your Options Medical Center,341 Main St,Southbridge,Massachusetts (MA),01550,(508) 209-5964,https://youroptionsma.org/,"https://www.google.com/maps/place/Your+Options+Medical+Centers/@42.0757752,-72.037007,17z/data=!3m1!4b1!4m5!3m4!1s0x89e6a2189f6b7da3:0xf1c881033c849882!8m2!3d42.0757712!4d-72.0348183",,https://www.yelp.com/biz/your-options-medical-centers-southbridge
Clearway Clinic,1259 E Columbus Ave,Springfield,Massachusetts (MA),01105,(413) 351-0070,http://clearwayclinic.com/,,https://www.facebook.com/ClearWayClinic/,https://www.yelp.com/biz/clearway-clinic-springfield
Springfield Pregnancy Care Center,704 Sumner Ave,Springfield,Massachusetts (MA),01108,(413) 736-2006,http://www.springfieldpcc.org/,"https://www.google.com/maps/place/Springfield+Pregnancy+Care+Center/@42.1067588,-72.596247,13z/data=!4m8!1m2!2m1!1sPregnancy+Help+springfield+MA!3m4!1s0x89e6e64433871723:0x7f9c835d875b1d08!8m2!3d42.0876649!4d-72.5510903",http://www.facebook.com/springfieldpcc/?ref=ts,http://www.yelp.com/biz/springfield-pregnancy-care-ctr-springfield
Birthright,468 Bay St ,Taunton,Massachusetts (MA),02780,,http://birthright.org/taunton,https://www.google.com/maps?q=Birthright+78+Broadway+Taunton+MA&biw=1280&bih=656&um=1&ie=UTF-8&sa=X&ved=0ahUKEwiv1P7t24PcAhWHxVkKHcKNBJ8Q_AUICigB,https://www.facebook.com/BirthrightInternational/,
ClearWay Clinic,358 Shrewsbury St,Worcester,Massachusetts (MA),01604,(508) 438-0144,http://clearwayclinic.com/#,"https://www.google.com/maps/place/Clearway+Clinic/@42.270572,-71.7793727,17z/data=!3m1!4b1!4m5!3m4!1s0x89e4063af8dbd7d7:0xd107fc6765e3ae15!8m2!3d42.270572!4d-71.777184",https://www.facebook.com/ClearWayClinic/,https://www.yelp.com/biz/clearway-clinic-worcester-2
Problem Pregnancy,495 Pleasant St,Worcester,Massachusetts (MA),01609,,http://www.problempregnancy.org,,https://m.facebook.com/Problem-Pregnancy-of-Worcester-Inc-196240800421521/,https://m.yelp.com/biz/problem-pregnancy-worcester?utm_source=writeareview_new_review
New Direction Women's Center,25 First Street ,Pittsfield,Massachusetts (MA),01201,(413) 347-8005,http://newdirectionpc.org/,,,
Pregnancy Care Center,158 Mammoth Road,Lowell ,Massachusetts (MA),01854,(978) 252-2641,https://pccnortheast.org/,,,