Name ,Address,City,State,Zip Code,Phone Number,Website,Google Business Page,Facebook,Yelp
Bright Hope Pregnancy Support Centers,1036 Hamilton St,Allentown,Pennsylvania (PA),18104,,www.brighthopecenters.org,"https://www.google.com/maps/place/Bright+Hope+Pregnancy+Support+Centers/@40.5999479,-75.481394,17z/data=!3m1!4b1!4m5!3m4!1s0x89c4397fdf48443d:0xe90c7a512f68aa1e!8m2!3d40.5999479!4d-75.4792053",https://www.facebook.com/Brighthopecenters/,
​Precious Life of Blair County,1716 12th Avenue,Altoona,Pennsylvania (PA),16601,,https://plinc.org/,"https://www.google.com/maps/place/Precious+Life+Inc/@40.5128258,-78.4083167,15z/data=!4m5!3m4!1s0x0:0x11e5e8bb26729f73!8m2!3d40.5127782!4d-78.4082718",,Yelp: ​https://www.yelp.com/biz/precious-life-altoona
​Precious Life of Bedford County,215 South Juliana Street,Bedford,Pennsylvania (PA),15522,,https://plinc.org/,"https://www.google.com/maps/place/Precious+Life+Inc/@40.0166231,-78.503618,15z/data=!4m5!3m4!1s0x0:0x3381e2ecb034d776!8m2!3d40.0166231!4d-78.503618",,
Genesis Center of Allegheny County,141 N. Fremont Avenue,Bellevue,Pennsylvania (PA),15202,,https://genesispgh.org/genesis-center-allegheny-county,"https://www.google.com/maps/place/Genesis+Center/@40.4981833,-80.0505235,15z/data=!4m5!3m4!1s0x0:0x988922d6256b6708!8m2!3d40.4981711!4d-80.0505003",https://www.facebook.com/GenesisofPgh/,
Genesis Learning Center ,139 N. Fremont Avenue,Bellevue,Pennsylvania (PA),15202,,https://genesispgh.org/learning-center,,,
Your Loving Choices (Bloomsburg Options Center),904 Market Street,Bloomsburg,Pennsylvania (PA),17815,,https://yourlovingchoices.org/,"https://www.google.com/maps/place/Your+Loving+Choices,+Inc./@40.995312,-76.4526659,15z/data=!4m5!3m4!1s0x0:0x113e58067a910bcb!8m2!3d40.995312!4d-76.4526659",https://www.facebook.com/YLCbloomsburg/,https://www.yelp.com/biz/your-loving-choices-bloomsburg
Bright Alternatives,90 Boylston St Ste 200,Bradford,Pennsylvania (PA),16701,,http://brightalternatives.org/,"https://www.google.com/maps/place/Bright+Alternatives+The+Center+for+New+Hope/@41.9570209,-78.6464284,15z/data=!4m2!3m1!1s0x0:0x319c9ba686ed191a?sa=X&ved=2ahUKEwj5qdeF5ZzwAhWyGFkFHf9aD9MQ_BIwCnoECDkQBQ",,
Community Women's Center of Bucks County,712 Veterans Highway,Bristol,Pennsylvania (PA),19007,(215) 826-8090,https://www.cwcamerica.org/,"https://www.google.com/maps/place/Community+Women's+Center+of+Bucks+County/@40.1052436,-74.8758399,15z/data=!4m5!3m4!1s0x0:0x1d7afdf6652de450!8m2!3d40.1052307!4d-74.8758873",,
​Lifeline of Southwest PA - Butler Office,230 W Cunningham St,Butler,Pennsylvania (PA),16001,, ​www.lifelineofsouthwestpa.org,"https://www.google.com/search?client=firefox-b-1-d&q=%E2%80%8BLifeline%20of%20Southwest%20PA%20-%20Butler%20Office&tbs=lf:1,lf_ui:4&tbm=lcl&rflfq=1&num=10&rldimm=10319155645208580801&lqi=CivigItMaWZlbGluZSBvZiBTb3V0aHdlc3QgUEEgLSBCdXRsZXIgT2ZmaWNlIgOIAQFIs-S4xeWAgIAIWkAKBm9mZmljZRAFGAAYARgCGAMYBCImbGlmZWxpbmUgb2Ygc291dGh3ZXN0IHBhIGJ1dGxlciBvZmZpY2UqAggCkgEcc29jaWFsX3NlcnZpY2VzX29yZ2FuaXphdGlvbqoBDhABKgoiBm9mZmljZSgA&ved=2ahUKEwiu0cjmh5_wAhUEhOAKHQFvClwQvS4wAHoECAUQIg&rlst=f#rlfi=hd:;si:10319155645208580801,l,CivigItMaWZlbGluZSBvZiBTb3V0aHdlc3QgUEEgLSBCdXRsZXIgT2ZmaWNlIgOIAQFIs-S4xeWAgIAIWkAKBm9mZmljZRAFGAAYARgCGAMYBCImbGlmZWxpbmUgb2Ygc291dGh3ZXN0IHBhIGJ1dGxlciBvZmZpY2UqAggCkgEcc29jaWFsX3NlcnZpY2VzX29yZ2FuaXphdGlvbqoBDhABKgoiBm9mZmljZSgA;mv:[[40.9085034,-79.8783207],[40.851532999999996,-79.9192318]];tbs:lrf:!1m4!1u3!2m2!3m1!1e1!2m1!1e3!3sIAE,lf:1,lf_ui:4",, ​https://www.yelp.com/biz/lifeline-butler
My Choice Medical Clinic,118 S Church St,Butler,Pennsylvania (PA),16001,,https://www.mychoicemedicalclinic.com/,"https://www.google.com/maps/place/My+Choice+Medical+Clinic/@40.8602455,-79.8979105,15z/data=!4m5!3m4!1s0x0:0xe561909b9b51210!8m2!3d40.8602455!4d-79.8979105",, ​https://www.yelp.com/biz/my-choice-medical-clinic-butler
Life Choices Clinic / Capital Area Pregnancy Centers,2515 Gettysburg Rd,Camp Hill,Pennsylvania (PA),17011,,https://lifechoicesclinic.org/,"https://www.google.com/maps/place/Life+Choices+Clinic/@40.2279867,-76.9267416,15z/data=!4m5!3m4!1s0x0:0x5358521cbed5cde1!8m2!3d40.2280998!4d-76.9267539",, ​https://www.yelp.com/biz/capital-area-pregnancy-centers-camp-hill
​Endless Mountains Pregnancy Care Center - Canton,26 West Main Street,Canton,Pennsylvania (PA),17724,,https://empccfree.com/,"https://www.google.com/maps/place/Endless+Mountains+Pregnancy+Care+Center/@41.6539034,-76.8545504,17z/data=!3m1!4b1!4m5!3m4!1s0x89cfdd3f003d9bbf:0x1c80c115ebc63dca!8m2!3d41.6538994!4d-76.8523617",,
Carlisle Area Family Life Center,155 N Hanover St,Carlisle,Pennsylvania (PA),17013,,https://carlisleareafamilylifecenter.org/,"https://www.google.com/maps/place/Carlisle+Area+Family+Life+Center/@40.204325,-77.188557,15z/data=!4m5!3m4!1s0x0:0xa3c36e6a32f65313!8m2!3d40.204325!4d-77.188557",https://www.facebook.com/Carlisle-Area-Family-Life-Center-114434118574523/,
​PMI Pregnancy Resource Center - Chambersburg,338 Lincoln Way East,Chambersburg,Pennsylvania (PA),17201,,https://pmipregnancycenter.org/ and https://pregnancyministries.org/,"https://www.google.com/maps/place/PMI+Pregnancy+Resource+Center/@39.9363288,-77.6558482,15z/data=!4m2!3m1!1s0x0:0xce57e74724bb401b?sa=X&ved=2ahUKEwiHwoP6jZ_wAhWGMd8KHX4NB8QQ_BIwD3oECDYQBQ",,
Delaware County Pregnancy Center,2508 Edgmont Ave,Chester,Pennsylvania (PA),19013,,https://dcpcchester.org/,"https://www.google.com/maps/place/Delaware+County+Pregnancy+Center/@39.8652615,-75.3734081,15z/data=!4m5!3m4!1s0x0:0x26d1211693e8220e!8m2!3d39.8652747!4d-75.3734037",,
Next Step Pregnancy Solutions & Services (formerly ​AAA Life Services),140 Greenville Ave,Clarion,Pennsylvania (PA),16214,,https://www.knowyournextstep.com/,"https://www.google.com/maps/place/Next+Step+Pregnancy+Solutions+and+Services/@41.205698,-79.380487,15z/data=!4m5!3m4!1s0x0:0x32524ec426004ae8!8m2!3d41.2057047!4d-79.3804367",,
Birthright of Coatesville,529 E. Lincoln Highway,Coatesville,Pennsylvania (PA),19320,,​http://birthright.org/coatesville,"https://www.google.com/maps/place/Birthright/@39.9846549,-75.815132,15z/data=!4m2!3m1!1s0x0:0xc5ad59a8c092ea3f?sa=X&ved=2ahUKEwiw_uLD4pzwAhXxUjUKHVJnDB8Q_BIwCnoECDAQBQ",,​https://www.yelp.com/biz/birthright-coatesville?osq=birthright
Chester County Women's Services - Coatesville,1028 E Lincoln Hwy,Coatesville,Pennsylvania (PA),19320,,http://ccwsmedical.org/en/ and https://ccwsmedicalinfo.org/,https://www.google.com/maps?q=Chester+County+Women%27s+Services+1028+E+Lincoln+Hwy+Coatesville+PA&um=1&ie=UTF-8&sa=X&ved=0ahUKEwj4l8iVnPnbAhWstVkKHefTDnMQ_AUICigB,https://www.facebook.com/ccwsmedical/,https://www.yelp.com/biz/chester-county-womens-services-coatesville
​A Baby's Breath - Collegeville Location,78 2nd Ave.,Collegeville,Pennsylvania (PA),19426,, ​www.ababysbreath.org,"https://www.google.com/maps/place/A+Baby's+Breath/@40.183047,-75.450176,16z/data=!4m13!1m7!3m6!1s0x89c690bbc123e451:0x85df50c899713102!2s78+2nd+Ave,+Collegeville,+PA+19426!3b1!8m2!3d40.1830471!4d-75.4501765!3m4!1s0x89c690bbc131257f:0x650ed9ea8daaceb1!8m2!3d40.1829944!4d-75.4503497?hl=en",,​https://www.yelp.com/biz/a-babys-breath-collegeville
Align (formerly Susquehanna Valley Pregnancy Services) - Columbia,462 Chestnut Street,Columbia,Pennsylvania (PA),17512,,https://alignpregnancyservices.com/locations/columbia-pregnancy-services/ and https://alignlifeministries.org/,"https://www.google.com/maps/place/Columbia+Pregnancy+Services/@40.0356222,-76.5039287,17z/data=!3m1!4b1!4m5!3m4!1s0x89c89d02cbf4d50f:0x48f323fa045f764c!8m2!3d40.0356181!4d-76.50174",,
"Alternatives, Yes Pregnancy Support Center",6 Frank Gallo Lane,Connellsville,Pennsylvania (PA),15425,,https://www.pregnancy-support.com/,"https://www.google.com/maps/place/Alternatives+Yes+Pregnancy+Support+Center/@40.0264529,-79.5925263,15z/data=!4m2!3m1!1s0x0:0x9d117b325ddfec9c?sa=X&ved=2ahUKEwikh-_s4ZzwAhWTKFkFHZc4CqgQ_BIwCnoECDUQBQ", ​https://www.facebook.com/PregSupport/,
Choices Pregnancy Services - Coraopolis,626 5th Ave Ste 1,Coraopolis,Pennsylvania (PA),15108,,https://pregnancychoice.org/,"https://www.google.com/maps/place/Choices+Pregnancy+Services/@40.5206947,-80.1728735,18z/data=!3m1!5s0x88345e133b7894e9:0x2da5e115952b8ffa!4m13!1m7!3m6!1s0x88345e133b764201:0xf5d3ad906cbc0295!2s626+5th+Ave,+Coraopolis,+PA+15108!3b1!8m2!3d40.5205989!4d-80.1727018!3m4!1s0x88345e133ade32e5:0xe99118085f3123a2!8m2!3d40.520615!4d-80.17269",,
Life Care Preg & Fmly Resource Center ,"127 North Center Street, #2",Corry,Pennsylvania (PA),16407,, ​http://www.lifecareofcorry.com/,"https://www.google.com/maps/place/LifeCare+Pregnancy+Center+%26+His+Helping+Hands+Used+Clothing+Store/@41.9228219,-79.641691,15z/data=!4m5!3m4!1s0x0:0xfbb485f1069120e1!8m2!3d41.9228219!4d-79.641691",, ​https://www.yelp.com/biz/lifecare-pregnancy-and-family-resource-center-corry
​Lifeline of Southwest PA - Cranberry Office,213 Executive Drive Suite 230,Cranberry Township,Pennsylvania (PA),16066,,www.lifelineofsouthwestpa.org,"https://www.google.com/maps/place/Lifeline-Sw+Pennsylvania/@40.6866154,-80.1071377,15z/data=!4m5!3m4!1s0x0:0x82b2ae73f177a593!8m2!3d40.6864824!4d-80.1071141",,Yelp: ​https://www.yelp.com/biz/lifeline-pregnancy-help-center-cranberry-twp
Amnion Crisis Pregnancy Center,2251 Garrett Rd,Drexel Hill,Pennsylvania (PA),19026,,www.amnionpregnancycenter.com,"https://www.google.com/maps/place/Amnion+Pregnancy+Center/@39.9509508,-75.2856934,17z/data=!3m1!4b1!4m5!3m4!1s0x89c6c17272b84bdd:0x76b84d901f0fcba!8m2!3d39.9509467!4d-75.2835047",, ​https://www.yelp.com/biz/amnion-pregnancy-center-drexel-hill
Pregancy Resource Center of the Poconos,115 N 8th St49 Dansbury Terrace,East Stroudsburg,Pennsylvania (PA),18360,,https://www.pregnancytalk.org/,"https://www.google.com/maps/place/Pregnancy+Resource+Center+of+the+Poconos/@40.9979169,-75.1823309,15z/data=!4m5!3m4!1s0x0:0x42a801a773740b03!8m2!3d40.9979169!4d-75.1823551",,
Bright Hope Pregnancy Support Centers,2204 Northampton Street,Easton,Pennsylvania (PA),18042,, ​https://brighthopecenters.org/,"https://www.google.com/maps/place/Bright+Hope+Pregnancy+Support+Centers/@40.6887522,-75.2452282,15z/data=!4m5!3m4!1s0x0:0xb3b55e5c6ea99869!8m2!3d40.6887988!4d-75.2452345",,
Boro Women's Services,108 High St,Edinboro,Pennsylvania (PA),16412,, ​www.borowomenservices.com,"https://www.google.com/maps/place/Boro+Women's+Services/@41.8737044,-80.1299566,15z/data=!4m2!3m1!1s0x0:0x616f88abba002854?sa=X&ved=2ahUKEwi444zV5JzwAhW6MlkFHeLADPwQ_BIwCnoECDQQBQ",,
​Align (formerly Susquehanna Valley Pregnancy Services) - Ephrata,112 W Main St,Ephrata,Pennsylvania (PA),17522,,https://alignpregnancyservices.com/locations/ephrata-pregnancy-services/ and https://alignlifeministries.org/,"https://www.google.com/maps/place/Align+Pregnancy+Services+Ephrata/@40.1798094,-76.1815296,17z/data=!3m2!4b1!5s0x89c6169d7659b469:0xbe29fbe41c30138d!4m5!3m4!1s0x89c6169d79cadfeb:0x10c5a5d3fd3aee6f!8m2!3d40.1798053!4d-76.1793409",, ​https://www.yelp.com/biz/susquehanna-valley-pregnancy-services-ephrata
​Women's Care Center (Downtown),"915 State Street, Suite 100",Erie,Pennsylvania (PA),16501,,https://www.wccerie.org/,"https://www.google.com/search?client=firefox-b-1-d&q=%E2%80%8BWomen%27s%20Care%20Center%20peach%20street%20erie%20pa&tbs=lf:1,lf_ui:2&tbm=lcl&rflfq=1&num=10&rldimm=690857549766439043&lqi=CivigItXb21lbidzIENhcmUgQ2VudGVyIHBlYWNoIHN0cmVldCBlcmllIHBhSJ-kzNPlgICACFpRChN3b21lbidzIGNhcmUgY2VudGVyEAAQARACGAAYARgCGAQYBRgGIih3b21lbidzIGNhcmUgY2VudGVyIHBlYWNoIHN0cmVldCBlcmllIHBhkgEVcHJlZ25hbmN5X2NhcmVfY2VudGVyqgEbEAEqFyITd29tZW4ncyBjYXJlIGNlbnRlcigA&ved=2ahUKEwjAkdGMlZ_wAhWAGVkFHRxxAO4QvS4wAXoECAYQRA&rlst=f#rlfi=hd:;si:690857549766439043,l,CivigItXb21lbidzIENhcmUgQ2VudGVyIHBlYWNoIHN0cmVldCBlcmllIHBhSJ-kzNPlgICACFpRChN3b21lbidzIGNhcmUgY2VudGVyEAAQARACGAAYARgCGAQYBRgGIih3b21lbidzIGNhcmUgY2VudGVyIHBlYWNoIHN0cmVldCBlcmllIHBhkgEVcHJlZ25hbmN5X2NhcmVfY2VudGVyqgEbEAEqFyITd29tZW4ncyBjYXJlIGNlbnRlcigA;mv:[[42.128498199999996,-80.08237849999999],[42.0863366,-80.0870625]]",,Yelp: ​https://www.yelp.com/biz/womens-care-center-of-erie-county-erie
​Women's Care Center (Main),"4408 Peach Street, Suite 302",Erie,Pennsylvania (PA),16509,,https://www.wccerie.org/,"https://www.google.com/search?client=firefox-b-1-d&q=%E2%80%8BWomen%27s%20Care%20Center%20peach%20street%20erie%20pa&tbs=lf:1,lf_ui:2&tbm=lcl&rflfq=1&num=10&rldimm=690857549766439043&lqi=CivigItXb21lbidzIENhcmUgQ2VudGVyIHBlYWNoIHN0cmVldCBlcmllIHBhSJ-kzNPlgICACFpRChN3b21lbidzIGNhcmUgY2VudGVyEAAQARACGAAYARgCGAQYBRgGIih3b21lbidzIGNhcmUgY2VudGVyIHBlYWNoIHN0cmVldCBlcmllIHBhkgEVcHJlZ25hbmN5X2NhcmVfY2VudGVyqgEbEAEqFyITd29tZW4ncyBjYXJlIGNlbnRlcigA&ved=2ahUKEwjAkdGMlZ_wAhWAGVkFHRxxAO4QvS4wAXoECAYQRA&rlst=f#rlfi=hd:;si:11188125307993403444,l,CivigItXb21lbidzIENhcmUgQ2VudGVyIHBlYWNoIHN0cmVldCBlcmllIHBhSN7yoPrwrYCACFpTChN3b21lbidzIGNhcmUgY2VudGVyEAAQARACGAAYARgCGAMYBBgFGAYiKHdvbWVuJ3MgY2FyZSBjZW50ZXIgcGVhY2ggc3RyZWV0IGVyaWUgcGGSARxvYnN0ZXRyaWNzX2d5bmVjb2xvZ3lfY2xpbmljqgEbEAEqFyITd29tZW4ncyBjYXJlIGNlbnRlcigA;mv:[[42.128498199999996,-80.08237849999999],[42.0863366,-80.0870625]]", ​www.wccerie.org, ​https://www.yelp.com/biz/womens-care-center-of-erie-county-erie-3
Birthright of Frackville,10 North Lehigh Ave,Frackville,Pennsylvania (PA),17931,,​http://birthright.org/frackville,"https://www.google.com/maps/place/Birthright+of+Frackville+Inc/@40.7853235,-76.2334887,17z/data=!3m1!4b1!4m5!3m4!1s0x89c592da2e56760d:0x8aae7c9b63321411!8m2!3d40.7853195!4d-76.2313",https://www.facebook.com/pages/Birthright-of-Frackville/103276189737891,​https://www.yelp.com/biz/birthright-of-frackville-frackville
ABC Life Center,323 13th St,Franklin,Pennsylvania (PA),16323,,https://abclifecenter.com/,"https://www.google.com/maps/place/Abc+Life+Center/@41.3983499,-79.8312594,15z/data=!4m5!3m4!1s0x0:0x7f4562b936450816!8m2!3d41.3983529!4d-79.8312838",,
Cornerstone Pregnancy Care Services,5380 Lincoln Hwy,Gap,Pennsylvania (PA),17527,,https://pregnancyresources.org/,"https://www.google.com/maps/place/Cornerstone+Pregnancy+Care+Center/@39.991597,-76.017246,15z/data=!4m2!3m1!1s0x0:0xa3a2060625b17526?sa=X&ved=2ahUKEwiI3pO48Z7wAhVjg-AKHccGDkoQ_BIwCnoECC0QBQ",,
Women's Care Center (Gerard),259 Main St E #5,Gerard,Pennsylvania (PA),16417,,https://www.wccerie.org/,"https://www.google.com/search?client=firefox-b-1-d&q=Women%27s%20Care%20Center%20Gerard%20pa&tbs=lf:1,lf_ui:2&tbm=lcl&rflfq=1&num=10&rldimm=13550003463048522073&lqi=Ch1Xb21lbidzIENhcmUgQ2VudGVyIEdlcmFyZCBwYVo0ChN3b21lbidzIGNhcmUgY2VudGVyIh13b21lbidzIGNhcmUgY2VudGVyIGdlcmFyZCBwYZIBHG9ic3RldHJpY3NfZ3luZWNvbG9neV9jbGluaWOqARsQASoXIhN3b21lbidzIGNhcmUgY2VudGVyKAA&ved=2ahUKEwj0xe-Ilp_wAhUtGVkFHWbPDfYQvS4wAHoECAkQNA&rlst=f#rlfi=hd:;si:13550003463048522073,l,Ch1Xb21lbidzIENhcmUgQ2VudGVyIEdlcmFyZCBwYVo0ChN3b21lbidzIGNhcmUgY2VudGVyIh13b21lbidzIGNhcmUgY2VudGVyIGdlcmFyZCBwYZIBHG9ic3RldHJpY3NfZ3luZWNvbG9neV9jbGluaWOqARsQASoXIhN3b21lbidzIGNhcmUgY2VudGVyKAA;mv:[[42.1489348,-79.81594799999999],[41.8842472,-80.36256209999999]];tbs:lrf:!1m4!1u3!2m2!3m1!1e1!1m4!1u2!2m2!2m1!1e1!2m1!1e2!2m1!1e3!3sIAE,lf:1,lf_ui:2",,
Tender Care Pregnancy Consultation Services,1844 York Rd,Gettysburg,Pennsylvania (PA),17315,,https://tendercare.org/,"https://www.google.com/maps/place/Tender+Care+Pregnancy+Consultation/@39.8490778,-77.1801357,17z/data=!3m1!4b1!4m5!3m4!1s0x89c9ac9732155015:0x6be60661ce41b30f!8m2!3d39.8490737!4d-77.177947",, ​https://www.yelp.com/biz/tender-care-pregnancy-consultation-services-gettysburg
PMI Pregnancy Resource Center,14 South Carlisle Street,Greencastle,Pennsylvania (PA),17225,,https://pmipregnancycenter.org/ and https://pregnancyministries.org/,"https://www.google.com/maps/place/PMI+Pregnancy+Resource+Center/@39.7898285,-77.729924,17z/data=!3m1!4b1!4m5!3m4!1s0x89c99033ba23b09b:0xb15868b40945f8a8!8m2!3d39.7898402!4d-77.7277224",,
​Birthright of Greensburg,"121 N. Main Street, Suite 100",Greensburg,Pennsylvania (PA),15601,,​http://birthright.org/greensburg,"https://www.google.com/maps/place/Birthright-Central+Westmorelan/@40.3042122,-79.5447315,15z/data=!4m5!3m4!1s0x0:0xe89a6b90afb67f19!8m2!3d40.3042123!4d-79.5447308",,​https://www.yelp.com/biz/birthright-of-central-westmoreland-greensburg
My Choice Medical Clinic ,660 E. Pittsburgh St.,Greensburg,Pennsylvania (PA),15601,,https://www.mychoicemedicalclinic.com/,"https://www.google.com/maps/place/My+Choice+Medical+Clinic/@40.3023732,-79.5314889,17z/data=!3m1!4b1!4m5!3m4!1s0x8834d1198cee9cb5:0xb010f172f7c3706d!8m2!3d40.3023645!4d-79.5292933",,
Life's Choices,326 State St,Hamburg,Pennsylvania (PA),19530,,www.lifeschoicessupport.org,"https://www.google.com/maps/place/Life's+Choices/@40.5548689,-75.983141,15z/data=!4m5!3m4!1s0x0:0xd923e9a7d0b3539d!8m2!3d40.5550351!4d-75.9832001",,
Tender Care Pregnancy Consultation Services,300 John St,Hanover,Pennsylvania (PA),17350,,https://tendercare.org/,"https://www.google.com/maps/place/Tender+Care+Pregnancy+Consultation/@39.7944106,-76.9698468,15z/data=!4m5!3m4!1s0x0:0x2e1da5bf0c480f90!8m2!3d39.7943968!4d-76.9699598",,"Pregnancy Tests, Ultrasound (Onsite)"
Bethany Christian Services,2101 N Front St. Building #1 Suite #201 ,Harrisburg,Pennsylvania (PA),15090,,https://impregnant.org/ // https://bethany.org/locations/us/pennsylvania/harrisburg,"https://www.google.com/maps/place/Bethany+Christian+Services/@40.2782941,-76.89939,15z/data=!4m5!3m4!1s0x0:0xecb96c54f3bce21b!8m2!3d40.2782941!4d-76.89939",https://www.facebook.com/bethanyfans,
Morning Star Pregnancy Services,2509 N Front Street,Harrisburg,Pennsylvania (PA),19446,,www.morningstarchoices.com,"https://www.google.com/maps/place/Morning+Star+Pregnancy+Services/@40.2853227,-76.9029889,15z/data=!4m2!3m1!1s0x0:0x11d7aabec6447da0?sa=X&ved=2ahUKEwip1ZiSip_wAhWpiOAKHb2HAhsQ_BIwEnoECFIQBQ",, ​https://www.yelp.com/biz/morning-star-pregnancy-harrisburg
​Crossroads Pregnancy Center - Huntingdon,424 Washington St,Huntingdon,Pennsylvania (PA),16652,,https://crossroadspcs.org/ and https://cpcforlife.org/,"https://www.google.com/maps/place/Crossroads+Pregnancy+Center/@40.485232,-78.011502,15z/data=!4m2!3m1!1s0x0:0x544b83c11961b641?sa=X&ved=2ahUKEwj185mL9J7wAhXwEFkFHbE3DWsQ_BIwCnoECDkQBQ",,Yelp: ​https://www.yelp.com/biz/crossroads-pregnancy-center-huntingdon
Life-Way Pregnancy Center,31 S 3rd Street,Indiana,Pennsylvania (PA),15701,,https://lifewaypregnancycenter.org/pregnancy-services/,"https://www.google.com/search?client=firefox-b-1-d&q=Life-Way%20Pregnancy%20Center%20indiana%20pa&tbs=lf:1,lf_ui:2&tbm=lcl&rflfq=1&num=10&rldimm=16992482952805851552&lqi=CiRMaWZlLVdheSBQcmVnbmFuY3kgQ2VudGVyIGluZGlhbmEgcGFaSQoZbGlmZSB3YXkgcHJlZ25hbmN5IGNlbnRlciIkbGlmZSB3YXkgcHJlZ25hbmN5IGNlbnRlciBpbmRpYW5hIHBhKgYIAhACEAOSARVwcmVnbmFuY3lfY2FyZV9jZW50ZXI&ved=2ahUKEwjBvvmkg5_wAhX-KFkFHcKhAz0QvS4wAXoECAkQMw&rlst=f#rlfi=hd:;si:16992482952805851552,l,CiRMaWZlLVdheSBQcmVnbmFuY3kgQ2VudGVyIGluZGlhbmEgcGFaSQoZbGlmZSB3YXkgcHJlZ25hbmN5IGNlbnRlciIkbGlmZSB3YXkgcHJlZ25hbmN5IGNlbnRlciBpbmRpYW5hIHBhKgYIAhACEAOSARVwcmVnbmFuY3lfY2FyZV9jZW50ZXI;mv:[[40.6225309,-79.1418587],[40.6160579,-79.164234]];tbs:lrf:!1m4!1u2!2m2!2m1!1e1!2m1!1e2!3sIAE,lf:1,lf_ui:2",,
My Choice Medical Clinic,1205 Maple St. Suite A,Indiana,Pennsylvania (PA),15701,(877) 223-7558,https://www.mychoicemedicalclinic.com/,"https://www.google.com/maps/place/My+Choice+Medical+Clinic/@40.61567,-79.1658078,17z/data=!3m1!4b1!4m5!3m4!1s0x89cb5ad17ae40acd:0xae873952c6c1c838!8m2!3d40.615666!4d-79.163631",,https://www.yelp.com/biz/my-choice-medical-clinic-indiana
A Baby's Breath,2062 W Main St,Jeffersonville,Pennsylvania (PA),19403,, ​www.ababysbreath.org,"https://www.google.com/maps/place/A+Baby's+Breath/@40.134379,-75.380885,16z/data=!4m13!1m7!3m6!1s0x89c6965bc10accb5:0x5a3fa6c9012e1ed9!2s2062+W+Main+St,+Eagleville,+PA+19403!3b1!8m2!3d40.1343793!4d-75.3808855!3m4!1s0x89c69659831e4e49:0x65bfc4125c391493!8m2!3d40.1344445!4d-75.3809629?hl=en",,
Bethany Christian Services," 610 Old York Road, Suite 220",Jenkintown,Pennsylvania (PA),19046,,https://impregnant.org/  // https://bethany.org/locations/us/pennsylvania/philadelphia,"https://www.google.com/maps/place/Bethany+Christian+Services/@40.1009104,-75.1251813,15z/data=!4m5!3m4!1s0x0:0xc9ad25dbfc4f9ab3!8m2!3d40.1009104!4d-75.1251813",https://www.facebook.com/bethanyfans,
Greater Hope Care Center,224 South Broad Street,Jersey Shore,Pennsylvania (PA),17740,,https://www.greaterhopecarecenter.org/,"https://www.google.com/maps/place/Greater+Hope+Care+Center/@41.200708,-77.256721,15z/data=!4m5!3m4!1s0x0:0x94c7aefc89cf13d0!8m2!3d41.2007033!4d-77.2566797",,
​Birthright of Johnstown,216 Dibert Street,Johnstown,Pennsylvania (PA),15901,(814) 535-8231,http://birthright.org/johnstown,"https://www.google.com/maps/place/Birthright+of+Johnstown/@40.3197795,-78.9188791,15z/data=!4m2!3m1!1s0x0:0x106b09736673e027?sa=X&ved=2ahUKEwjHys3q4pzwAhX1UjUKHdTrCskQ_BIwCnoECDIQBQ",http://www.facebook.com/BirthrightofJtwn/,http://www.yellowpages.com/johnstown-pa/mip/birthright-15423772
​Precious Life of Cambria County,1407 Eisenhower Blvd.,Johnstown,Pennsylvania (PA),15902,,https://plinc.org/,"https://www.google.com/maps/place/Precious+Life/@40.3099735,-78.8959131,15z/data=!4m5!3m4!1s0x0:0x41114633b850c73b!8m2!3d40.3101672!4d-78.8958074",,Yelp: ​https://www.yelp.com/biz/precious-life-johnstown
Chester County Women's Services - Kennett Square,203 S. Walnut St.,Kennett Square,Pennsylvania (PA),19348,,http://ccwsmedical.org/en/ and https://ccwsmedicalinfo.org/,"https://www.google.com/search?client=firefox-b-1-d&tbs=lf:1,lf_ui:2&tbm=lcl&q=%E2%80%8BChester+County+Women%27s+Services+-+West+Chester&rflfq=1&num=10&ved=2ahUKEwjhyJWD6p7wAhWmElkFHWOkDJQQtgN6BAgGEAc#rlfi=hd:;si:10756967485069916115,l,CjHigItDaGVzdGVyIENvdW50eSBXb21lbidzIFNlcnZpY2VzIC0gV2VzdCBDaGVzdGVySJD7qanxrICACFpfCh13b21lbidzIHNlcnZpY2VzIHdlc3QgY2hlc3RlchACEAMQBBAFGAAYARgCGAMYBSIsY2hlc3RlciBjb3VudHkgd29tZW4ncyBzZXJ2aWNlcyB3ZXN0IGNoZXN0ZXKSARVwcmVnbmFuY3lfY2FyZV9jZW50ZXKqARgQASoUIhB3b21lbidzIHNlcnZpY2VzKAA;mv:[[39.9945667,-75.595128],[39.838175899999996,-75.8163695]]",,
Pathways Unplanned Pregnancy Help Center,480 Pierce St. Suite 320,Kingston,Pennsylvania (PA),18704,(570) 714-4673,https://pregnancykingston.com/,"https://www.google.com/search?client=firefox-b-1-d&q=Pathways%20kingston%20pa&tbs=lf:1,lf_ui:2&tbm=lcl&rflfq=1&num=10&rldimm=15389348613888403291&lqi=ChRQYXRod2F5cyBraW5nc3RvbiBwYUjSgfCHmIKAgAhaKAoIcGF0aHdheXMQABgAGAEYAiIUcGF0aHdheXMga2luZ3N0b24gcGGSARdub25fcHJvZml0X29yZ2FuaXphdGlvbqoBEBABKgwiCHBhdGh3YXlzKAA&ved=2ahUKEwiKsa7GjJ_wAhXvGVkFHX75Ai4QvS4wAHoECAgQNA&rlst=f#rlfi=hd:;si:15389348613888403291,l,ChRQYXRod2F5cyBraW5nc3RvbiBwYUjSgfCHmIKAgAhaKAoIcGF0aHdheXMQABgAGAEYAiIUcGF0aHdheXMga2luZ3N0b24gcGGSARdub25fcHJvZml0X29yZ2FuaXphdGlvbqoBEBABKgwiCHBhdGh3YXlzKAA;mv:[[41.2638933,-75.8832565],[41.2582879,-75.8891677]];tbs:lrf:!1m4!1u3!2m2!3m1!1e1!1m4!1u2!2m2!2m1!1e1!2m1!1e2!2m1!1e3!3sIAE,lf:1,lf_ui:2",,
​My Choice Medical Clinic,15A Franklin Village Mall,Kittanning,Pennsylvania (PA),16001,,https://www.mychoicemedicalclinic.com/,"https://www.google.com/maps/place/My+Choice+Medical+Clinic/@40.8136527,-79.5516313,17z/data=!3m1!4b1!4m5!3m4!1s0x883357fb0344bab7:0x5cc00ae5cf38dd0c!8m2!3d40.8136487!4d-79.5494426",,
Life's Choices,443 W Main St,Kutztown,Pennsylvania (PA),19530,,www.lifeschoicessupport.org,"https://www.google.com/maps/place/Life's+Choices/@40.5133931,-75.7834647,17z/data=!3m1!4b1!4m5!3m4!1s0x89c5d3b67bcdd95b:0x570895f2098dc5cd!8m2!3d40.513389!4d-75.781276",,
A Woman's Concern Pregnancy & Parenting Resource Center,1102 Millersville Pike,Lancaster,Pennsylvania (PA),16801,,https://www.pregnancylancaster.com/,"https://www.google.com/maps/place/A+Woman's+Concern/@40.029052,-76.323368,15z/data=!4m5!3m4!1s0x0:0xcff25537735de2e5!8m2!3d40.029052!4d-76.323368",https://www.facebook.com/WomansConcern,
​Align (formerly Susquehanna Valley Pregnancy Services) - Lancaster,408 West Chestnut Street #2,Lancaster,Pennsylvania (PA),17603,,https://alignpregnancyservices.com/locations/lancaster-pregnancy-services/ and https://alignlifeministries.org/,"https://www.google.com/maps/place/Align+Pregnancy+Services+Lancaster/@40.040171,-76.3155765,17z/data=!3m1!4b1!4m5!3m4!1s0x89c625ec1475ff15:0xa73ca3a31119d4e8!8m2!3d40.0402329!4d-76.3134009",,
Bethany Christian Services - Lancaster,"1681 Crown Ave, Ste 201",Lancaster,Pennsylvania (PA),17601,,https://impregnant.org/ // https://bethany.org/locations/us/pennsylvania/lancaster,"https://www.google.com/maps/place/Bethany+Christian+Services/@40.066038,-78.5345061,7z/data=!4m5!3m4!1s0x0:0x41b8034b1e9166cb!8m2!3d40.066038!4d-76.30205",https://www.facebook.com/bethanyfans,
​North Care Women’s Clinic,311 N. Broad St.,Lansdale,Pennsylvania (PA),19446,, ​https://northcareclinic.org,"https://www.google.com/maps/place/North+Care+Women's+Clinic/@40.242916,-75.282039,16z/data=!4m5!3m4!1s0x0:0xfcc014797e1fd610!8m2!3d40.2429157!4d-75.2820389?hl=en",https://www.facebook.com/northcareclinic/, ​https://www.yelp.com/biz/north-care-womens-clinic-lansdale
Pregnancy Resource Clinic of North Penn,311 North Broad St,Lansdale,Pennsylvania (PA),19446,(215) 855-3541,http://prcnorthpenn.org,,,
Life-Way Pregnancy Center,1516 Ligonier St,Latrobe,Pennsylvania (PA),15650,,https://lifewaypregnancycenter.org/pregnancy-services/,"https://www.google.com/maps/place/Life-Way+Pregnancy+Center/@40.3125248,-79.3798279,15z/data=!4m2!3m1!1s0x0:0x9b1cc0a576a1c116?sa=X&ved=2ahUKEwiqjJC6g5_wAhURnOAKHYIOBU0Q_BIwCnoECDUQBQ",,
Align (formerly Susquehanna Valley Pregnancy Services) - Lebanon ,132 South 8th St,Lebanon,Pennsylvania (PA),17042,,https://alignpregnancyservices.com/locations/lebanon-pregnancy-services/ and https://alignlifeministries.org/,"https://www.google.com/maps/place/Align+Pregnancy+Services+Lebanon/@40.3371969,-76.4262147,17z/data=!3m2!4b1!5s0x89c602c2823ae775:0xf47e7922cb8a243e!4m5!3m4!1s0x89c602c27e22bbc3:0xccf69dbcf5ca0da6!8m2!3d40.3371928!4d-76.424026",, ​https://www.yelp.com/biz/susquehanna-valley-pregnancy-services-lebanon-2
Care Net of Carbon County,531 Mahoning Street,Lehighton,Pennsylvania (PA),18235,,https://carenetcarbon.org/,"https://www.google.com/maps/place/Care+Net+of+Carbon+County+(Lehighton+location)/@40.832915,-75.716412,15z/data=!4m2!3m1!1s0x0:0x224e422a16cf532a?sa=X&ved=2ahUKEwjNlYX05Z7wAhU4ElkFHRXPBlEQ_BIwCnoECDYQBQ",,
​Choice One Pregnancy Resource Centers,2222 Trenton Road,Levittown,Pennsylvania (PA),19056,,https://www.mychoiceone.org/,"https://www.google.com/maps/place/Choice+One/@40.1628254,-74.8847751,15z/data=!4m2!3m1!1s0x0:0x1b7ada46fed7ac5c?sa=X&ved=2ahUKEwjBo4Ti657wAhWqF1kFHUYEAMQQ_BIwC3oECDAQBQ",,
Expectations Women's Center - Lewisburg,776 Bull Run Crossing # 300,Lewisburg,Pennsylvania (PA),17837,,https://expectationswc.org/,"https://www.google.com/maps/place/Expectations+Women's+Center/@40.955194,-76.916343,16z/data=!4m5!3m4!1s0x0:0x996b340b67cf2568!8m2!3d40.9551944!4d-76.916343?hl=en-US",https://www.facebook.com/ExpectationsWC/,
Crossroads Pregnancy Center - Lewistown,1130 W 4th St Suite 1,Lewistown,Pennsylvania (PA),17044,,https://crossroadspcs.org/ and https://cpcforlife.org/,"https://www.google.com/maps/place/Crossroads+Pregnancy+Center/@40.58862,-77.6025669,17z/data=!3m1!4b1!4m5!3m4!1s0x89c94ab0109e2e65:0xa24cd2b7bfa1794c!8m2!3d40.5886707!4d-77.6004218",, ​https://www.yelp.com/biz/crossroads-pregnancy-center-lewistown
TryLife Center,1155 Wildlife Lodge Rd,Lower Burrell,Pennsylvania (PA),15068,,www.trylife.center,"https://www.google.com/maps/place/TryLife+Center/@40.5817843,-79.7106437,15z/data=!4m2!3m1!1s0x0:0x198d7fe4aaf68e97?sa=X&ved=2ahUKEwib7rLynJ_wAhWUF1kFHYwFCVUQ_BIwDXoECEkQBQ",,
Pregnancy Center of Meadville,657 Pine St,Meadville,Pennsylvania (PA),16335,,,"https://www.google.com/maps/place/Pregnancy+Center+of+Meadville/@41.6328858,-80.1394251,15z/data=!4m5!3m4!1s0x0:0xc66958e1794310ee!8m2!3d41.6328319!4d-80.1394444", ​https://www.facebook.com/pregnancycenterofmeadville/, ​https://www.yelp.com/biz/pregnancy-center-of-meadville-meadville
Morning Star Pregnancy Services,35 S Union Street,Middletown,Pennsylvania (PA),17057,, ​www.morningstarchoices.com,"https://www.google.com/maps/place/Morning+Star+Pregnancy+Services/@40.1944334,-76.7339127,17z/data=!3m2!4b1!5s0x89c8bdffbb7751bd:0xa2c79dec925df72!4m5!3m4!1s0x89c8bdffa49f7983:0x38ef4f700c2b1fa0!8m2!3d40.1944293!4d-76.731724",, ​https://www.yelp.com/biz/morning-star-pregnancy-services-middletown
​Crossroads Pregnancy Center - Mifflintown,38 N. Main Street,Mifflintown,Pennsylvania (PA),17059,,https://crossroadspcs.org/ and https://cpcforlife.org/,"https://www.google.com/maps/place/Crossroads+Pregnancy+Center/@40.5710779,-77.399409,17z/data=!3m1!4b1!4m5!3m4!1s0x89c932be5e6ac4a3:0xc8f32075fa50adf5!8m2!3d40.5710745!4d-77.3972121",,Yelp: ​https://www.yelp.com/biz/crossroads-pregnancy-center-mifflintown
Tri-State Pregnancy Center,"105 Wheatfield Drive, Suite 4",Milford,Pennsylvania (PA),18337,,https://www.tristatepregnancycenter.org/,"https://www.google.com/maps/place/Tri-State+Pregnancy+Center/@41.3305269,-74.7861114,15z/data=!4m2!3m1!1s0x0:0x84c463340bc8a16a?sa=X&ved=2ahUKEwjnsKa1mJ_wAhVjZN8KHQQrCCEQ_BIwCnoECDcQBQ",, ​https://www.yelp.com/biz/tri-state-pregnancy-center-milford
Lifeline Pregnancy Care Center,403 Union St,Millersburg,Pennsylvania (PA),17061,,https://www.lifeline-pcc.org/,"https://www.google.com/maps/place/Lifeline+Pregnancy+Care+Center/@40.5399621,-76.9573791,15z/data=!4m5!3m4!1s0x0:0xcce0973c0b4599c3!8m2!3d40.5399327!4d-76.9573689",https://www.facebook.com/llpcc,https://www.yelp.com/biz/lifeline-pregnancy-care-center-millersburg?osq=pregnancy+care
​Heartbeat Community Service - Pregnancy Resource Center,"Greenwood Medical Center, 705 E Sunbury St",Millerstown,Pennsylvania (PA),17062,,http://www.heartbeatcs.org/services/,,https://www.facebook.com/hbeatcs, ​https://www.yelp.com/biz/heartbeat-community-services-millerstown
​Choices Pregnancy Center – Beaver Valley,110 Christy Drive,Monaca,Pennsylvania (PA),15061,,https://pregnancychoice.org/,"https://www.google.com/maps/place/Choices+Pregnancy+Services+-Beaver+Valley/@40.6590145,-80.3146413,17z/data=!4m13!1m7!3m6!1s0x88346f1b9d1c815d:0xffcb5fe9ecc6a461!2s110+Christy+Dr,+Monaca,+PA+15061!3b1!8m2!3d40.6600441!4d-80.314931!3m4!1s0x88346f1b9d1e8a77:0x394aaa23549b402a!8m2!3d40.6600695!4d-80.3149357",,
New Life Options,308 Chess St,Monongahela,Pennsylvania (PA),15063,,https://www.newlifeoptions.net/,"https://www.google.com/maps/place/Options+Resource+Center/@40.2022316,-79.926438,15z/data=!4m5!3m4!1s0x0:0x81e7a7e128536834!8m2!3d40.2022314!4d-79.9264383",,
Women's Choice Network - Monroeville,"Corporate One Office Park, 4075 Monroeville Blvd Bldg 2, Suite 100",Monroeville,Pennsylvania (PA),15146,,https://imissedmyperiod.com/ and https://mypregnancycenter.org/,"https://www.google.com/maps/place/Women's+Choice+Network/@40.4362431,-79.7679649,15z/data=!4m5!3m4!1s0x0:0x28893d80622719c4!8m2!3d40.4360424!4d-79.7680729",http://www.facebook.com/pages/Womens-Choice-Network/132736810110580,http://www.yelp.com/biz/womens-choice-network-monroeville-2
Care Net Pregnancy Center of NEPA,498 South Main St. Suite B Tannery Place,Montrose,Pennsylvania (PA),18801,,https://www.carenetofnepa.org/,"https://www.google.com/maps/place/Care+Net+Pregnancy+Center+of+Nepa/@41.832566,-75.8789128,15z/data=!4m2!3m1!1s0x0:0xd3f6910893a25c9d?sa=X&ved=2ahUKEwj8x72-6J7wAhWDiOAKHfA8CMgQ_BIwCnoECDYQBQ",,
Crossroads Pregnancy Center - Mt. Union,119 South Division St,Mount Union,Pennsylvania (PA),17066,,https://crossroadspcs.org/ and https://cpcforlife.org/,"https://www.google.com/maps/place/Crossroads+Pregnancy+Center/@40.3829088,-77.886278,17z/data=!3m1!4b1!4m5!3m4!1s0x89c95f208ed9c939:0x1bab760d34a11c3a!8m2!3d40.3829375!4d-77.8841573",, ​https://www.yelp.com/biz/crossroads-pregnancy-center-mount-union
​Your Loving Choices (The Hope Center of Nescopeck),650 Harter Avenue,Nescopeck,Pennsylvania (PA),17815,,https://yourlovingchoices.org/,"https://www.google.com/maps/place/Your+Loving+Choices/@41.0502816,-76.2196741,17z/data=!3m1!4b1!4m12!1m6!3m5!1s0x0:0x113e58067a910bcb!2sYour+Loving+Choices,+Inc.!8m2!3d40.995312!4d-76.4526659!3m4!1s0x89c59dacc756770d:0xe0179ec463e7d8e8!8m2!3d41.0502776!4d-76.2174854",,
Care Net of Carbon County,250 W. Catawissa St,Nesquehoning,Pennsylvania (PA),18240,,https://carenetcarbon.org/,"https://www.google.com/maps/place/Care+Net+Thrift+Store/@40.8631832,-75.8180641,17z/data=!4m13!1m7!3m6!1s0x89c5b1f2fc589e25:0xf67322b24d6b4980!2s250+W+Catawissa+St,+Nesquehoning,+PA+18240!3b1!8m2!3d40.8631832!4d-75.8158754!3m4!1s0x89c5b1f2fcf6aaab:0x156838933472a71e!8m2!3d40.8631572!4d-75.8159833",,
"Tower of Hope, Inc Pregnancy and Family Support Center",315 8th St.,New Brighton,Pennsylvania (PA),15066,,https://www.facebook.com/Tower-of-Hope-Inc-Pregnancy-and-Family-Support-Center-120146094746804/,,,
Alpha Omega Center - New Castle,321 N Jefferson St,New Castle,Pennsylvania (PA),16101,,https://www.alphaomegacenter.org/,"https://www.google.com/maps/place/Alpha+Omega+Center/@41.0048274,-80.3476819,15z/data=!4m5!3m4!1s0x0:0x3c619e99de16e46f!8m2!3d41.0048274!4d-80.3476819",,https://www.yelp.com/biz/alpha-omega-center-new-castle
Morning Star Pregnancy Services,503 Bridge St,New Cumberland,Pennsylvania (PA),17070,,www.morningstarchoices.com,"https://www.google.com/maps/place/Morning+Star+Pregnancy+Services/@40.2287031,-76.8694967,17z/data=!3m1!4b1!4m5!3m4!1s0x89c8c0360778d7b5:0x4ab360f597d7c48c!8m2!3d40.2286457!4d-76.8673641",, ​https://www.yelp.com/biz/morning-star-pregnancy-center-new-cumberland
​Choice One Pregnancy Resource Centers,2189 Second Street Pike,Newtown,Pennsylvania (PA),19056,,https://www.mychoiceone.org/,,,
AlphaCare ,3807 Lancaster Ave,Philadelphia,Pennsylvania (PA),19104,(267) 545-4673,https://alphacarephilly.org/,"https://www.google.com/maps/place/AlphaCare/@39.960597,-75.197148,15z/data=!4m2!3m1!1s0x0:0x6d5737ac0db0cc56?sa=X&ved=2ahUKEwiZzbf235zwAhW9KFkFHcovBG4Q_BIwEnoECEsQBQ",,"Pregnancy Tests, Ultrasound (Onsite)"
Birthright of Philadelphia,7986 Oxford Ave,Philadelphia,Pennsylvania (PA),19111,,​http://birthright.org/philadelphia,"https://www.google.com/maps/place/Birth+Right/@40.07717,-75.0854277,15z/data=!4m2!3m1!1s0x0:0x3391f142ad104d92?sa=X&ved=2ahUKEwiji9nT4pzwAhUUFFkFHRWEDZQQ_BIwCnoECDAQBQ",,​https://www.yelp.com/biz/birthright-philadelphia
Community Women's Center of Philadelphia,"1202 Locust Street, 3rd Fl",Philadelphia,Pennsylvania (PA),19107,,https://www.cwcamerica.org/,"https://www.google.com/maps/place/Community+Women's+Center+of+Philadelphia/@39.9481405,-75.1632443,17z/data=!3m1!4b1!4m5!3m4!1s0x89c6c625dd631e63:0x9eb2c440f689d8cd!8m2!3d39.9480298!4d-75.1610782",,https://www.yelp.com/biz/community-womens-center-philadelphia-3
Free Abortion Alternatives,1650 Market St,Philadelphia,Pennsylvania (PA),19103,(215) 995-2520,,,,
Hope Pregnancy Center,716 N Broad St,Philadelphia,Pennsylvania (PA),19130,(267) 546-3600,https://www.hopepregnancycenters.org/,"https://www.google.com/maps/place/HOPE+Pregnancy+Center/@39.9676812,-75.1606602,15z/data=!4m5!3m4!1s0x0:0xd1bb01a2157e8977!8m2!3d39.9676572!4d-75.1604743",https://www.facebook.com/HopePregnancyCenterPhiladelphia/,
​A Baby's Breath - Phoenixville Location,152 Church Street,Phoenixville,Pennsylvania (PA),19460,, ​www.ababysbreath.org,"https://www.google.com/maps/place/A+Baby's+Breath/@40.132888,-75.514226,16z/data=!4m13!1m7!3m6!1s0x89c691f05c7d38fd:0x53ce3b45ee21eca1!2s152+Church+St,+Phoenixville,+PA+19460!3b1!8m2!3d40.1328879!4d-75.5142264!3m4!1s0x89c691b9bfe8ce6d:0xc722c06a762e1396!8m2!3d40.1329619!4d-75.5142424?hl=en",,
Birthright of Pittsburgh,"160 North Craig Street, Suite 200",Pittsburgh,Pennsylvania (PA),15213,(412) 621-1988,http://birthrightpittsburgh.org/,,,
Choices Pregnancy Center - Pittsburgh,2429 E Carson St Ste 301,Pittsburgh,Pennsylvania (PA),15203,,https://pregnancychoice.org/,"https://www.google.com/maps/place/Choices+Pregnancy+Services/@40.4281502,-79.9720131,17z/data=!4m13!1m7!3m6!1s0x8834f1713386aaab:0x21987e86c9e2370c!2s2429+E+Carson+St+Ste+301,+Pittsburgh,+PA+15203!3b1!8m2!3d40.4281502!4d-79.9698244!3m4!1s0x8834f1c61def4703:0x95361b86bf07db42!8m2!3d40.4280065!4d-79.9698933",,
Health for Her/ Woman's Clinic,101 Drake RD Suite A,Pittsburgh,Pennsylvania (PA),15120,(412) 833-7445,,,,
​Lifeline of Southwest PA - Downtown Pittsburgh Office,"239 Fourth Avenue, 401 Investment Building",Pittsburgh,Pennsylvania (PA),15222,,​www.lifelineofsouthwestpa.org,"https://www.google.com/search?client=firefox-b-1-d&q=%E2%80%8BLifeline%20of%20Southwest%20PA%20-%20Downtown%20Pittsburgh%20Office&tbs=lf:1,lf_ui:4&tbm=lcl&rflfq=1&num=10&rldimm=15003317746728342679&lqi=CjjigItMaWZlbGluZSBvZiBTb3V0aHdlc3QgUEEgLSBEb3dudG93biBQaXR0c2J1cmdoIE9mZmljZSIDiAEBSMipqcDlgICACFpPCgZvZmZpY2UQBhgAGAEYAhgDGAQYBSIzbGlmZWxpbmUgb2Ygc291dGh3ZXN0IHBhIGRvd250b3duIHBpdHRzYnVyZ2ggb2ZmaWNlKgIIApIBFXByZWduYW5jeV9jYXJlX2NlbnRlcqoBDhABKgoiBm9mZmljZSgA&ved=2ahUKEwja7__Hh5_wAhVjQt8KHUKyC5gQvS4wAHoECAUQIg&rlst=f#rlfi=hd:;si:15003317746728342679,l,CjjigItMaWZlbGluZSBvZiBTb3V0aHdlc3QgUEEgLSBEb3dudG93biBQaXR0c2J1cmdoIE9mZmljZSIDiAEBSMipqcDlgICACFpPCgZvZmZpY2UQBhgAGAEYAhgDGAQYBSIzbGlmZWxpbmUgb2Ygc291dGh3ZXN0IHBhIGRvd250b3duIHBpdHRzYnVyZ2ggb2ZmaWNlKgIIApIBFXByZWduYW5jeV9jYXJlX2NlbnRlcqoBDhABKgoiBm9mZmljZSgA;mv:[[40.453778799999995,-79.9932544],[40.4358618,-80.0167201]];tbs:lrf:!1m4!1u3!2m2!3m1!1e1!2m1!1e3!3sIAE,lf:1,lf_ui:4",,Yelp: ​https://www.yelp.com/biz/lifeline-of-southwest-pa-pittsburgh
Mary's Place Pittsburgh,2905 Castlegate Ave,Pittsburgh,Pennsylvania (PA),15226,(412) 207-8805,http://www.marysplacepgh.org/,,http://www.facebook.com/marysplacepgh/,
Pittsburgh Women's Clinic (formerly Cura Woman's Care Clinic)) ,101 Drake Road ,Pittsburgh,Pennsylvania (PA),15213,,https://www.thewomens.clinic/pittsburgh/ and https://www.humancoalition.org/what-we-do/womens-care-clinics/,"https://www.google.com/maps/place/Pittsburgh+Women's+Clinic/@40.3265075,-80.0642651,15z/data=!4m5!3m4!1s0x0:0x472528ce05104ca7!8m2!3d40.3266343!4d-80.0643444",,https://www.yelp.com/biz/pregnancy-resource-center-of-the-south-hills-pittsburgh
Women's Choice Network,4615 Fifth Ave,Pittsburgh,Pennsylvania (PA),15213,(412) 587-7767,http://imissedmyperiod.com,"https://www.google.com/maps/place/Women's+Choice+Network/@40.4473833,-79.9503384,17z/data=!3m1!4b1!4m5!3m4!1s0x8834f225283a31ad:0xa1092987ae02917b!8m2!3d40.4474164!4d-79.9476504",http://www.facebook.com/pages/Womens-Choice-Network/405147726192354,http://www.yelp.com/biz/womens-choice-network-pittsburgh-2
Women's Choice Network,425 East Ohio Street,Pittsburgh,Pennsylvania (PA),15213,(412) 709-6192,http://mypregnancycenter.org/,,,
​Birthright of Pottstown,327 King St.,Pottstown,Pennsylvania (PA),19464,,​http://birthright.org/pottstown,"https://www.google.com/maps/place/Birthright+of+Pottstown/@40.2466126,-75.6462581,15z/data=!4m2!3m1!1s0x0:0x358207684e958ea?sa=X&ved=2ahUKEwik9L394pzwAhXFFFkFHUTgA9MQ_BIwCnoECDcQBQ",,Yelp: ​https://www.yelp.com/biz/birthright-of-pottstown-pottstown
We Care Pregnancy Center,"1464 North Main Street, Suite 11 ",Punxsutawney,Pennsylvania (PA),15767,, ​http://www.wecarepregnancy.com/,"https://www.google.com/maps/place/We+Care+Pregnancy+Center/@40.9639239,-79.0080248,15z/data=!4m5!3m4!1s0x0:0x4438ab48015880bd!8m2!3d40.9638953!4d-79.008086",, ​https://www.yelp.com/biz/we-care-pregnancy-center-punxsutawney
Crossroads Pregnancy Care,256 Trumbauersville Road,Quakertown,Pennsylvania (PA),18951,,https://www.crossroadspregnancy.care/,"https://www.google.com/maps/place/Crossroads+Pregnancy+Care/@40.4292709,-75.357386,15z/data=!4m5!3m4!1s0x0:0x5846a7fea1faafa7!8m2!3d40.4292176!4d-75.3573984",, ​https://www.yelp.com/biz/crossroads-pregnancy-care-quakertown
Mercy Community CPC,105 S 5th St,Reading,Pennsylvania (PA),19602,,https://mercypregnancycenter.org/,"https://www.google.com/maps/place/Mercy+Community+Crisis+Pregnancy+Center/@40.333451,-75.927793,15z/data=!4m5!3m4!1s0x0:0x5cf690a5684c8e27!8m2!3d40.333451!4d-75.927793",, ​https://www.yelp.com/biz/mercy-community-crisis-pregnancy-center-reading
Alpha Omega Center / New Beginnings - Sandy Lake,3096 Sandy Lake - Grove City Rd.,Sandy Lake,Pennsylvania (PA),16153,,https://www.alphaomegacenter.org/,"https://www.google.com/maps/place/New+Beginnings+of+Alpha+Omega+Center/@41.3404486,-80.078225,17z/data=!4m5!3m4!1s0x88330782725bfcb5:0xb8c0e6ac351c3a76!8m2!3d41.3404486!4d-80.078225",,
First Look Pregnancy Care Center (Endless Mountains PCC),209 West Lockhart St,Sayre,Pennsylvania (PA),18840,,https://empccfree.com/,"https://www.google.com/maps/place/First+Look+Pregnancy+Care+Center+and+Ultrasound+Clinic/@41.9822328,-76.5178418,15z/data=!4m5!3m4!1s0x0:0x21ab43cac7023e0d!8m2!3d41.9822274!4d-76.5177989",,
Jewel Women's Center (formerly Care Net of Schuylkill County),103 East Main Street,Schuylkill Haven,Pennsylvania (PA),17972,,https://jewelwc.org/,"https://www.google.com/maps/place/Jewel+Women's+Center/@40.6303559,-76.1719208,15z/data=!4m5!3m4!1s0x0:0xd3b9a45179d99c2d!8m2!3d40.6303825!4d-76.171967",,
Options Women's Center (formerly Care Net of Scranton),1329 Wyoming Ave,Scranton,Pennsylvania (PA),18509,,https://optionswomenscenter.com/,"https://www.google.com/maps/place/Options+Women's+Center/@41.4226568,-75.6500955,15z/data=!4m5!3m4!1s0x0:0x49faec29fc5df0ac!8m2!3d41.4225861!4d-75.6499837",https://www.facebook.com/carenetofscranton,
St Joseph's Center,2010 Adams Ave,Scranton,Pennsylvania (PA),18509,,https://stjosephscenter.org/pregnancy-and-family/pregnancy-counseling/,"https://www.google.com/maps/place/St+Joseph's+Center/@41.4308219,-75.6381677,15z/data=!4m7!3m6!1s0x0:0x2ff312f1787d72c7!8m2!3d41.4308877!4d-75.6383006!9m1!1b1",,
Pregnancy Care Center of Shamokin / PCC Corner of Hope Family Resource Center,150 S Market St,Shamokin,Pennsylvania (PA),17872,,https://cohpcc.org/,"https://www.google.com/maps/place/Pregnancy+Care+Center+of+Shamokin+PA/@40.785602,-76.55887,15z/data=!4m2!3m1!1s0x0:0x40791458c0cd5259?sa=X&ved=2ahUKEwi_g_-vjZ_wAhXhUjUKHeydADwQ_BIwCnoECDsQBQ",,https://www.yelp.com/biz/pregnancy-care-center-shamokin
PMI Pregnancy Resource Center - Shippensburg,20 E Burd St #4,Shippensburg,Pennsylvania (PA),17257,,https://pmipregnancycenter.org/ and https://pregnancyministries.org/,"https://www.google.com/maps/place/PMI+Pregnancy+Resource+Center/@40.052301,-77.5224663,17z/data=!3m1!4b1!4m5!3m4!1s0x89c90c88e401b249:0xa74585e448a8a7d5!8m2!3d40.0524342!4d-77.5203587",https://www.facebook.com/pmipregnancyresourcecenter, ​https://www.yelp.com/biz/pmi-pregnancy-resource-center-shippensburg
Alpha Omega Center - Slippery Rock ,247 S Main St,Slippery Rock,Pennsylvania (PA),16057,,https://www.alphaomegacenter.org/,"https://www.google.com/maps/place/Alpha+Omega+Center/@41.0629102,-80.0569459,17z/data=!3m1!4b1!4m5!3m4!1s0x8833765841f7ee11:0xaf257ca2dcd28d7d!8m2!3d41.0629062!4d-80.0547572",https://www.facebook.com/AlphaOmegaCenter/?fref=ts,https://www.yelp.com/biz/alpha-omega-center-slippery-rock
​Birthright of Somerset,"238 W. Union St., Suite 208",Somerset,Pennsylvania (PA),15501,,​http://birthright.org/somerset,"https://www.google.com/maps/place/Birthright+of+Somerset/@40.0095497,-79.0818715,15z/data=!4m2!3m1!1s0x0:0x5c85dcb5ab92ccb2?sa=X&ved=2ahUKEwiBxK2I45zwAhV7GFkFHXy-Ak8Q_BIwCnoECC0QAw",,​https://www.yelp.com/biz/birthright-of-somerset-somerset-2
Bethany Christian Services,2147 E. College Ave. Suite A,State College,Pennsylvania (PA),16801,,https://impregnant.org/  // https://bethany.org/locations/us/pennsylvania/state-college,"https://www.google.com/maps/place/Bethany+Christian+Services/@40.8207916,-77.8158034,15z/data=!4m5!3m4!1s0x0:0xfc7b9a9f84a08e3c!8m2!3d40.8207916!4d-77.8158034",https://www.facebook.com/bethanyfans,
Pregnancy Resource Clinic,423 S Pugh St,State College,Pennsylvania (PA),16801,(814) 234-7341,https://www.scprc.com/,"https://www.google.com/maps/place/Pregnancy+Resource+Clinic/@40.79267,-77.85528,15z/data=!4m5!3m4!1s0x0:0xdfd311c995d52301!8m2!3d40.79262!4d-77.8553231",https://www.facebook.com/centreprc/,https://www.yelp.com/biz/pregnancy-resource-clinic-state-college
​Birthright of Sunbury,"40 S. 5th St., Suite 1",Sunbury,Pennsylvania (PA),17801,,​http://birthright.org/sunbury,"https://www.google.com/search?client=firefox-b-1-d&q=%E2%80%8BBirthright%20of%20Sunbury%20pa&tbs=lf:1,lf_ui:3&tbm=lcl&rflfq=1&num=10&rldimm=3180173999323289960&lqi=ChvigItCaXJ0aHJpZ2h0IG9mIFN1bmJ1cnkgcGFaMQoVYmlydGhyaWdodCBvZiBzdW5idXJ5IhhiaXJ0aHJpZ2h0IG9mIHN1bmJ1cnkgcGGSARVwcmVnbmFuY3lfY2FyZV9jZW50ZXKqAR0QASoZIhViaXJ0aHJpZ2h0IG9mIHN1bmJ1cnkoAA&ved=2ahUKEwiznPiY45zwAhWNKFkFHcLFABsQvS4wAHoECAUQDA&rlst=f",,​https://www.yelp.com/biz/birthright-of-sunbury-sunbury
New Life Care Center,220 W Spruce St,Titusville,Pennsylvania (PA),16354,,https://newlifecare.org/,"https://www.google.com/maps/place/New+Life+Care+Center/@41.6309465,-79.6764559,15z/data=!4m5!3m4!1s0x0:0xa1d9d22bfe0c6946!8m2!3d41.6309183!4d-79.676456",https://www.facebook.com/NewLifeCareCenter/,
​Endless Mountains Pregnancy Care Center - Towanda,13 State Street,Towanda,Pennsylvania (PA),18848,,https://empccfree.com/,"https://www.google.com/maps/place/Endless+Mountains+Pregnancy+Care+Center/@41.7683481,-76.4425899,15z/data=!4m5!3m4!1s0x0:0xd784d1354a3658e1!8m2!3d41.7683399!4d-76.4425898",https://www.facebook.com/Endless-Mountains-Pregnancy-Care-Center-174486129238734/, ​https://www.yelp.com/biz/endless-mountains-pregnancy-care-center-towanda
Willow Women's Center,1291 Rutledge Rd,Transfer,Pennsylvania (PA),16154,(724) 854-9455,www.willowwomenscenter.com,"https://www.google.com/maps/place/Willow+Women's+Center/@41.3191759,-80.4117375,15z/data=!4m2!3m1!1s0x0:0x714c6174b00b0960?sa=X&ved=2ahUKEwjmm-nrmY_tAhX0UjUKHZwfCOoQ_BIwDXoECBkQBQ", http://www.facebook.com/willowwomenscenter,http://www.yelp.com/biz/willow-womens-center-transfer
Care Net Pregnancy Center of NEPA,"512 Towne Plaza, SR 6, Ste 112",Tunkhannock,Pennsylvania (PA),18657,,https://www.carenetofnepa.org/,"https://www.google.com/maps/place/Care+Net+Pregnancy+Center+of+NEPA/@41.543857,-75.9629367,17z/data=!3m1!4b1!4m5!3m4!1s0x89c530919d955567:0xdff376cd6dd37f6c!8m2!3d41.5439203!4d-75.9607011",,
ELM (Every Life Matters) Centers ,1351 Logan Avenue,Tyrone,Pennsylvania (PA),16686,,https://elmcenters.org/,"https://www.google.com/maps/place/Every+Life+Matters+Pregnancy+Support+Services/@40.675245,-78.238247,16z/data=!4m13!1m7!3m6!1s0x89cbf58642912947:0x9038d9b3a38e7de4!2s1351+Logan+Ave,+Tyrone,+PA+16686,+USA!3b1!8m2!3d40.6752451!4d-78.2382473!3m4!1s0x89cc7244871b2c25:0xfe5c81635792d45f!8m2!3d40.6752443!4d-78.2382439?hl=en",,
​Women's Care Center (Union City),13 North Main Street,Union City,Pennsylvania (PA),16438,,https://www.wccerie.org/,"https://www.google.com/search?q=%E2%80%8BWomen%27s+Care+Center+union+city+pa&client=firefox-b-1-d&tbm=lcl&ei=xmaIYI6tHbew5NoP4uep-A8&oq=%E2%80%8BWomen%27s+Care+Center+union+city+pa&gs_l=psy-ab.3..0i22i30k1.150928.152567.0.152857.13.10.0.0.0.0.260.1312.0j5j2.7.0....0...1c.1.64.psy-ab..6.7.1311....0.pMiolCXc2c4#rlfi=hd:;si:5825132159369851656;mv:[[41.898606877319025,-79.84498910221191],[41.89824692268096,-79.84547269778808]]",,Yelp: ​https://www.yelp.com/biz/womens-care-center-of-erie-county-union-city
Center of Hope,338 W Main St,Uniontown,Pennsylvania (PA),15401,,,"https://www.google.com/maps/place/Center+of+Hope/@39.9048525,-79.7372292,15z/data=!4m12!1m6!3m5!1s0x0:0x4ac986023f22cdd5!2sCenter+of+Hope!8m2!3d39.9048785!4d-79.7371056!3m4!1s0x0:0x4ac986023f22cdd5!8m2!3d39.9048785!4d-79.7371056",https://www.facebook.com/CenterofHopeUniontown/,
​A Baby's Breath - Warminster Location,"65 West Street Road, Bldg. B, Suite 203",Warminster,Pennsylvania (PA),18974,,​www.ababysbreath.org,"https://www.google.com/maps/place/A+Baby's+Breath/@40.198859,-75.084253,14z/data=!4m5!3m4!1s0x0:0x9fb6d0cdb8595e8d!8m2!3d40.198778!4d-75.0841105?hl=en",,
Women's Care Center of Warren,203 W Third Ave,Warren,Pennsylvania (PA),16365,,https://www.wccerie.org/,"https://www.google.com/maps/place/Women's+Care+Center+of+Warren/@41.8463455,-79.1463648,15z/data=!4m5!3m4!1s0x0:0xed1604628c9b8be4!8m2!3d41.8462837!4d-79.1463485",,
Genesis Center of Washington County,87 East Maiden Street #4963,Washington,Pennsylvania (PA),15301,,https://genesispgh.org/genesis-center-washington-county,"https://www.google.com/maps/place/Genesis+of+Pittsburgh+-+Washington+Center/@40.1681343,-80.2425546,15z/data=!4m5!3m4!1s0x0:0x392685e906770fef!8m2!3d40.1681343!4d-80.2425546",,
​A Baby's Breath - Wayne Location,"121 N. Wayne Ave., Suite 102",Wayne,Pennsylvania (PA),19087,, ​www.ababysbreath.org,"https://www.google.com/maps/place/A+Baby's+Breath/@40.0450617,-75.3895403,17z/data=!4m13!1m7!3m6!1s0x89c6952084bd1079:0x546085d8cd2e02f9!2s121+N+Wayne+Ave,+Wayne,+PA+19087!3b1!8m2!3d40.0450576!4d-75.3873516!3m4!1s0x89c6bff52760b1a5:0xe9cd1c9f2d51fecc!8m2!3d40.0450678!4d-75.3875781?hl=en",,
"PMI Pregnancy Resource Center - Waynesboro [""temporarily closed""]",220 S Potomac Street,Waynesboro,Pennsylvania (PA),17268,,https://pmipregnancycenter.org/ and https://pregnancyministries.org/,"https://www.google.com/maps/place/PMI+Pregnancy+Resource+Center/@39.7532533,-77.5859265,17z/data=!3m2!4b1!5s0x89c99637f6ab7c33:0x7667f91d685f7fca!4m5!3m4!1s0x89c996379271bf6b:0x5f7b98d1c4152a8a!8m2!3d39.7532492!4d-77.5837378",,
​Crisis Pregnancy Center of Greene County,50 W. Franklin Street,Waynesburg,Pennsylvania (PA),15370,,,"https://www.google.com/maps/place/Crisis+Pregnancy+Center-Greene/@39.8975742,-80.1877201,15z/data=!4m5!3m4!1s0x0:0x7999178e9e2283c0!8m2!3d39.8975844!4d-80.1877195",https://www.facebook.com/cpcwaynesburg/,Yelp: ​https://www.yelp.com/biz/crisis-pregnancy-center-of-greene-county-waynesburg
​Birthright of West Chester,112 South High Street,West Chester,Pennsylvania (PA),19382,,​http://birthright.org/westchester,"https://www.google.com/maps/place/Birthright+of+West+Chester/@39.9583156,-75.603263,15z/data=!4m5!3m4!1s0x0:0x9b1d8e064ed80b8b!8m2!3d39.9583588!4d-75.6031934",,​https://www.yelp.com/biz/birthright-of-west-chester-west-chester
​Chester County Women's Services - West Chester ,27 South Church St.,West Chester,Pennsylvania (PA),19320,,http://ccwsmedical.org/en/ and https://ccwsmedicalinfo.org/,"https://www.google.com/search?client=firefox-b-1-d&tbs=lf:1,lf_ui:2&tbm=lcl&q=%E2%80%8BChester+County+Women%27s+Services+-+West+Chester&rflfq=1&num=10&ved=2ahUKEwjhyJWD6p7wAhWmElkFHWOkDJQQtgN6BAgGEAc#rlfi=hd:;si:4960858797077605508,l,CjHigItDaGVzdGVyIENvdW50eSBXb21lbidzIFNlcnZpY2VzIC0gV2VzdCBDaGVzdGVySInJxs7ngICACFphCh13b21lbidzIHNlcnZpY2VzIHdlc3QgY2hlc3RlchACEAMQBBAFGAAYARgCGAMYBBgFIixjaGVzdGVyIGNvdW50eSB3b21lbidzIHNlcnZpY2VzIHdlc3QgY2hlc3RlcpIBFXByZWduYW5jeV9jYXJlX2NlbnRlcpoBI0NoWkRTVWhOTUc5blMwVkpRMEZuU1VOTmN6VTNZVmgzRUFFqgEYEAEqFCIQd29tZW4ncyBzZXJ2aWNlcygA;mv:[[39.9945667,-75.595128],[39.838175899999996,-75.8163695]]",,
Prenancy Resource Center of Greater Hazleton,131 N. Warren Street,West Hazleton,Pennsylvania (PA),18202,,https://realoptionsprc.org/,,,
"Lifeline of Berks County, Inc.",612 Reading Ave,West Reading,Pennsylvania (PA),19611,,https://lifelineofberks.org/,"https://www.google.com/maps/place/Lifeline+Of+Berks+County+Inc/@40.336685,-75.9501362,15z/data=!4m5!3m4!1s0x0:0xcd823f9cc8451baf!8m2!3d40.3367481!4d-75.9501299",, ​https://www.yelp.com/biz/lifeline-of-berks-county-west-reading
Bethany Christian Services - Western PA,10521 Perry Hwy Ste 200,Wexford,Pennsylvania (PA),15090,,https://impregnant.org/ /// https://bethany.org/locations/us/pennsylvania/western-pennsylvania,"https://www.google.com/maps/place/Bethany+Christian+Services/@40.6096322,-80.0537034,15z/data=!4m5!3m4!1s0x0:0x5b35fa7ed3f24737!8m2!3d40.6096322!4d-80.0537034",https://www.facebook.com/bethanyfans,
Expectations Women's Center - Williamsport,"500 Pine St., Unit 1",Williamsport,Pennsylvania (PA),17701,,https://expectationswc.org/,"https://www.google.com/maps?ll=41.243575,-77.005113&z=14&t=m&hl=en-US&gl=US&mapclient=embed&cid=17168458431089782466",,https://www.yelp.com/biz/pregnancy-care-center-williamsport-2?osq=pregnancy+care
​Human Life Services,742 S. George Street,York,Pennsylvania (PA),17401,, ​www.here4uyork.com,"https://www.google.com/maps/place/Human+Life+Services/@39.9526642,-76.7232665,15z/data=!4m5!3m4!1s0x0:0xcaef303c5550a90f!8m2!3d39.9526809!4d-76.7231758",, ​https://www.yelp.com/biz/human-life-services-york
Women's Care Center ,40 S. Richland Avenue,York,Pennsylvania (PA),17404,,https://www.womenscarecenter.org/york-pennsylvania,"https://www.google.com/maps/place/Women%E2%80%99s+Care+Center/@39.9548676,-76.7499764,15z/data=!4m5!3m4!1s0x0:0x33b05305506e18cc!8m2!3d39.9549188!4d-76.7498011",,
"Womens Care Center of Erie County, Inc. ","4408 Peach Street, suite 202",Erie ,Pennsylvania (PA),16509,(814) 836-7515,https://www.wccerie.org/,,https://m.facebook.com/WCCErie/,
Community Women's Center of America,"1202 Locust St., 3rd Floor",Philadelphia,Pennsylvania (PA),19107,(267) 239-0753,https://www.cwcamerica.org/,,,https://www.yelp.com/biz/community-womens-center-philadelphia-4
Pro-Life Union of Greater Philadelphia,88 Pennsylvania Ave,Oreland ,Pennsylvania (PA),19075,(267) 237-2668,https://www.prolifeunion.org/,,,
Your Abortion Choice ,1202 Locust St,Philadelphia,Pennsylvania (PA),19107,12157040866,http://yourabortionchoice.org/,,,